SPECI CYYR 170022Z 27004KT 12SM -SHSN FEW020 BKN040 M06/M09 A3019 RMK SC2SC5 DENSITY ALT -2764FT SLP226=

METAR CYYR 170000Z 26002KT 15SM FEW030 BKN050 M07/M09 A3019 RMK SC1SC7 DENSITY ALT -2791FT SLP226=

METAR CYYR 162300Z 00000KT 15SM FEW034 BKN050 M06/M09 A3018 RMK SC1SC7 DENSITY ALT -2699FT SH DIST SE SLP225=

METAR CYYR 162200Z 04002KT 15SM BKN055 M06/M09 A3019 RMK SC7 DENSITY ALT -2698FT SLP227=

SPECI CYYR 162125Z 04003KT 15SM FEW040 BKN055 M05/M08 A3019 RMK SC1SC7 DENSITY ALT -2618FT SH DIST NE-S SLP226=

METAR CYYR 162100Z 03002KT 15SM -SHSN BKN055 M04/M08 A3019 RMK SC7 DENSITY ALT -2473FT VIS NE-S 3 SLP226=

SPECI CYYR 162038Z 33004KT 3SM -SHSN BKN045 M04/M09 A3019 RMK SC7 DENSITY ALT -2451FT VIS E QUAD 15 SLP228=

SPECI CYYR 162016Z 33004KT 15SM -SHSN FEW030 BKN050 M04/M10 A3019 RMK CF1SC7 DENSITY ALT -2388FT VIS W 3 SLP227=

METAR CYYR 162000Z 08006KT 15SM FEW030 BKN050 BKN070 M03/M09 A3018 RMK CF1SC7AC1 DENSITY ALT -2337FT SH DIST W SLP225=

METAR CYYR 161900Z 03004KT 15SM FEW030 BKN050 BKN070 M02/M09 A3019 RMK CU1SC7AC1 DENSITY ALT -2153FT VIRGA SLP228=

METAR CYYR 161800Z 08004KT 15SM FEW035 FEW060 BKN070 02/M09 A3020 RMK CU1SC1AC4 DENSITY ALT -1693FT VIRGA SLP231=

METAR CYYR 161700Z 09003KT 15SM FEW035 FEW055 BKN060 M00/M09 A3022 RMK CU1SC1SC7 DENSITY ALT -1971FT SLP237=

METAR CYYR 161600Z 14003KT 15SM FEW035 BKN060 00/M10 A3024 RMK CF1SC7 DENSITY ALT -1969FT SLP244=

METAR CYYR 161500Z 00000KT 15SM FEW030 BKN060 M01/M10 A3025 RMK SC1SC7 DENSITY ALT -2121FT SLP248=

METAR CYYR 161400Z 32002KT 15SM FEW030 BKN060 M04/M08 A3026 RMK SC1SC7 DENSITY ALT -2528FT SLP250=

METAR CYYR 161300Z 28003KT 15SM FEW030 BKN065 M07/M08 A3025 RMK SC1SC7 DENSITY ALT -2845FT SLP249=

METAR CYYR 161200Z 00000KT 15SM FEW026 BKN060 M07/M08 A3024 RMK SC1SC7 DENSITY ALT -2951FT SLP246=

METAR CYYR 161100Z 26004KT 15SM FEW026 BKN060 M07/M08 A3023 RMK SC1SC6 DENSITY ALT -2926FT SLP242=

SPECI CYYR 161029Z 23004KT 15SM BKN025 OVC060 M07/M08 A3023 RMK SC7SC1 DENSITY ALT -2873FT VIRGA SLP240=

METAR CYYR 161000Z 21004KT 15SM BKN024 OVC060 M06/M08 A3022 RMK SC7SC1 DENSITY ALT -2795FT VIRGA SLP238=

SPECI CYYR 160947Z 25004KT 15SM BKN024 OVC060 M06/M08 A3022 RMK SC7SC1 DENSITY ALT -2795FT VIRGA SLP238=

SPECI CYYR 160924Z 22004KT 15SM -SHSN BKN024 BKN060 M07/M08 A3022 RMK SC6SC1 DENSITY ALT -2808FT PCPN VRY LGT SLP238=

METAR CYYR 160900Z 26004KT 15SM BKN029 BKN060 M07/M08 A3021 RMK SC5SC2 DENSITY ALT -2823FT SLP234=

METAR CYYR 160800Z 28005KT 15SM FEW025 BKN055 M07/M08 A3021 RMK SC1SC7 DENSITY ALT -2824FT SLP234=

METAR CYYR 160700Z 25005KT 15SM BKN055 M07/M09 A3021 RMK SC7 DENSITY ALT -2878FT SLP232=

SPECI CYYR 160633Z 28006KT 15SM FEW028 BKN055 M07/M09 A3021 RMK SC1SC7 DENSITY ALT -2839FT SLP233=

METAR CYYR 160600Z 29005KT 15SM -SHSN FEW028 BKN055 M07/M08 A3021 RMK SC1SC6 DENSITY ALT -2825FT PCPN VRY LGT SLP233=

METAR CYYR 160500Z 30003KT 12SM -SHSN SCT026 BKN050 M07/M08 A3021 RMK SC3SC4 DENSITY ALT -2812FT SLP232=

METAR CYYR 160400Z 30004KT 12SM -SHSN FEW033 OVC050 M07/M08 A3020 RMK SC1SC8 DENSITY ALT -2787FT SLP231=

METAR CYYR 160300Z 27003KT 12SM -SHSN OVC050 M06/M08 A3020 RMK SC8 DENSITY ALT -2720FT SLP231=

METAR CYYR 160200Z 29003KT 12SM -SHSN OVC050 M06/M08 A3020 RMK SC8 DENSITY ALT -2706FT SLP232=

METAR CYYR 160100Z 31002KT 12SM -SHSN OVC045 M05/M08 A3020 RMK SC8 DENSITY ALT -2627FT SLP230=

METAR CYYR 160000Z 28004KT 12SM -SHSN OVC048 M05/M07 A3019 RMK SC8 DENSITY ALT -2576FT SLP227=
