METAR CYYR 280000Z 25006KT 15SM SKC M13/M20 A2985 RMK DENSITY ALT -3257FT SLP114=

METAR CYYR 272300Z 27007KT 15SM FEW030 FEW240 M12/M18 A2983 RMK SC1CI1 DENSITY ALT -3084FT SLP105=

METAR CYYR 272200Z 28006KT 15SM FEW040 FEW250 M11/M18 A2978 RMK SC1CI1 DENSITY ALT -2850FT SLP090=

METAR CYYR 272100Z 26008KT 15SM FEW030 BKN042 BKN250 M09/M17 A2976 RMK SC1SC5CI1 DENSITY ALT -2559FT VIRGA SLP080=

METAR CYYR 272000Z 25008KT 15SM FEW030 BKN045 M08/M15 A2973 RMK SC2SC3 DENSITY ALT -2416FT VIRGA SLP071=

METAR CYYR 271900Z 24010G16KT 15SM SCT032 BKN043 M06/M15 A2970 RMK SC3SC4 DENSITY ALT -2209FT VIRGA SLP063=

METAR CYYR 271800Z 23012KT 15SM BKN035 M05/M15 A2969 RMK SC6 DENSITY ALT -2041FT VIRGA SLP059=

METAR CYYR 271700Z 28007KT 15SM FEW030 FEW240 M07/M15 A2969 RMK SC2CI1 DENSITY ALT -2224FT SLP057=

METAR CYYR 271600Z 27010KT 15SM FEW025 FEW240 M06/M14 A2969 RMK SC1CI1 DENSITY ALT -2104FT SLP057=

METAR CYYR 271500Z 27011G16KT 15SM FEW025 FEW240 M07/M14 A2968 RMK SC1CI1 DENSITY ALT -2276FT SLP055=

METAR CYYR 271400Z 25010G15KT 15SM FEW020 FEW240 M08/M14 A2969 RMK SC1CI1 DENSITY ALT -2367FT SLP057=

METAR CYYR 271300Z 24011KT 15SM FEW020 FEW240 M08/M14 A2968 RMK SC1CI1 DENSITY ALT -2393FT SLP053=

METAR CYYR 271200Z 26005KT 15SM FEW070 FEW240 M10/M12 A2965 RMK AC1CI1 DENSITY ALT -2553FT SLP046=

METAR CYYR 271100Z 28008KT 15SM FEW070 FEW240 M12/M13 A2962 RMK AC1CI1 DENSITY ALT -2786FT SLP036=

METAR CYYR 271000Z 24006KT 15SM FEW050 M10/M12 A2960 RMK SC1 DENSITY ALT -2613FT FROIN SLP028=

METAR CYYR 270900Z 26005KT 15SM FEW041 FEW065 M09/M10 A2958 RMK SC1SC1 DENSITY ALT -2359FT FROIN SLP022=

METAR CYYR 270800Z 24007KT 15SM SCT037 SCT050 M09/M10 A2956 RMK SC3SC1 DENSITY ALT -2428FT FROIN SLP014=

METAR CYYR 270700Z 21004KT 15SM FEW035 SCT065 M10/M11 A2954 RMK SC1SC2 DENSITY ALT -2486FT FROIN SLP007=

SPECI CYYR 270651Z 19003KT 15SM FEW035 SCT065 M10/M11 A2954 RMK SC1SC2 DENSITY ALT -2473FT FROIN SLP006=

METAR CYYR 270600Z 30003KT 15SM -SN FEW036 BKN070 M09/M10 A2952 RMK SC2AC5 DENSITY ALT -2367FT FROIN PCPN VRY LGT CIG PDMTLY TRANSPARENT SLP999=

METAR CYYR 270500Z 25003KT 15SM -SN FEW025 BKN034 M08/M09 A2950 RMK SC2SC5 DENSITY ALT -2181FT SLP994=

METAR CYYR 270400Z 22004KT 15SM -SN FEW035 BKN049 M08/M09 A2950 RMK SC1SC5 DENSITY ALT -2128FT SLP992=

SPECI CYYR 270318Z 21002KT 15SM -SN FEW036 BKN049 M07/M08 A2949 RMK SC1SC5 DENSITY ALT -2048FT PCPN VRY LGT CIG PDMTLY TRANSPARENT SLP991=

METAR CYYR 270300Z 17004KT 15SM BKN050 M06/M07 A2949 RMK SC6 DENSITY ALT -1941FT SLP991=

METAR CYYR 270200Z 19005KT 15SM FEW020 SCT033 BKN046 M07/M08 A2950 RMK SC1SC2SC3 DENSITY ALT -2046FT SLP992=

METAR CYYR 270100Z 05004KT 15SM -SHSN BKN036 M05/M06 A2951 RMK SC7 DENSITY ALT -1802FT SLP995=

METAR CYYR 270000Z 12003KT 15SM -SHSN FEW030 BKN043 M05/M05 A2951 RMK SC2SC5 DENSITY ALT -1748FT PCPN VRY LGT SLP997=
