METAR CYYR 190000Z 04005KT 15SM -SHSN OVC032 M04/M07 A2982 RMK SC8 DENSITY ALT -2055FT SLP101=

SPECI CYYR 182349Z 04005KT 15SM -SHSN OVC032 M04/M07 A2982 RMK SC8 DENSITY ALT -2055FT SLP102=

METAR CYYR 182300Z 03005KT 15SM OVC032 M04/M07 A2982 RMK SC8 DENSITY ALT -2040FT SLP103=

METAR CYYR 182200Z 04005KT 15SM OVC035 M04/M08 A2982 RMK SC8 DENSITY ALT -2003FT SLP101=

METAR CYYR 182100Z 04005KT 15SM OVC032 M03/M08 A2981 RMK SC8 DENSITY ALT -1927FT SLP099=

METAR CYYR 182000Z 04007KT 15SM FEW020 BKN030 OVC055 M03/M08 A2981 RMK SC1SC7SC1 DENSITY ALT -1850FT VIRGA SLP098=

SPECI CYYR 181930Z 05007KT 15SM BKN031 OVC060 M03/M07 A2981 RMK SC7SC1 DENSITY ALT -1810FT VIRGA SLP098=

METAR CYYR 181900Z 05008KT 15SM -SN OVC031 M02/M08 A2981 RMK SC8 DENSITY ALT -1772FT SLP098=

METAR CYYR 181800Z 04007KT 15SM -SN BKN032 OVC050 M02/M07 A2981 RMK SC7SC1 DENSITY ALT -1758FT SLP100=

METAR CYYR 181700Z 03007KT 15SM -SN OVC025 M02/M07 A2983 RMK SC8 DENSITY ALT -1807FT SLP104=

METAR CYYR 181600Z 04007KT 15SM -SN FEW018 BKN032 OVC050 M02/M07 A2984 RMK SC2SC5SC1 DENSITY ALT -1768FT SLP108=

METAR CYYR 181500Z 00000KT 12SM -SN SCT032 BKN055 M01/M08 A2986 RMK SC3SC4 DENSITY ALT -1626FT SLP114=

METAR CYYR 181400Z 00000KT 15SM -SN FEW015 BKN030 BKN055 M02/M08 A2987 RMK SC1SC5SC2 DENSITY ALT -1856FT SLP119=

METAR CYYR 181300Z 18002KT 15SM -SN FEW010 SCT026 BKN055 BKN110 M05/M08 A2988 RMK SF1SC4SC1AC2 DENSITY ALT -2245FT SLP123=

SPECI CYYR 181215Z 16004KT 15SM -SN SCT020 BKN050 BKN100 M04/M08 A2989 RMK SC4SC2AC1 DENSITY ALT -2152FT SLP124=

METAR CYYR 181200Z 18005KT 15SM -SN FEW010 BKN019 BKN100 M05/M08 A2988 RMK SF1SC6AC1 DENSITY ALT -2218FT SLP123=

METAR CYYR 181100Z 15003KT 15SM -SN FEW010 BKN021 BKN100 M06/M08 A2988 RMK SF1SC5AC2 DENSITY ALT -2281FT SLP123=

SPECI CYYR 181027Z 15004KT 15SM -SN OVC023 M05/M07 A2989 RMK SC8 DENSITY ALT -2227FT SLP125=

METAR CYYR 181000Z 16004KT 15SM -SN OVC026 M05/M07 A2989 RMK SC8 DENSITY ALT -2239FT SLP125=

METAR CYYR 180900Z 19006KT 12SM -SN FEW021 OVC028 M05/M07 A2990 RMK SC2SC6 DENSITY ALT -2210FT /S01/ SLP128=

METAR CYYR 180800Z 16005KT 10SM -SN FEW015 OVC025 M05/M06 A2990 RMK SC1SC8 DENSITY ALT -2208FT SLP130=

SPECI CYYR 180734Z 15005KT 7SM -SN FEW025 OVC033 M05/M06 A2991 RMK SC2SC6 DENSITY ALT -2205FT SLP131=

METAR CYYR 180700Z 13003KT 4SM -SN FEW015 OVC025 M05/M05 A2991 RMK SC2SC6 DENSITY ALT -2203FT SLP132=

SPECI CYYR 180638Z 18002KT 2SM -SHSN FEW015 BKN027 OVC055 M05/M05 A2991 RMK SC1SC7SC1 DENSITY ALT -2191FT SLP133=

METAR CYYR 180600Z 24003KT 3SM -SHSN FEW015 BKN034 OVC055 M04/M05 A2991 RMK SC1SC6SC1 DENSITY ALT -2138FT SLP133=

SPECI CYYR 180551Z 26002KT 2 1/2SM -SHSN FEW019 OVC035 M04/M05 A2992 RMK SC2SC6 DENSITY ALT -2137FT SLP134=

SPECI CYYR 180534Z 27002KT 4SM -SHSN FEW018 BKN036 OVC060 M04/M05 A2992 RMK SC1SC6SC1 DENSITY ALT -2112FT SLP135=

METAR CYYR 180500Z 17004KT 12SM -SHSN FEW018 BKN035 OVC070 M04/M06 A2993 RMK SC1SC6AC1 DENSITY ALT -2098FT SLP138=

SPECI CYYR 180453Z 15004KT 15SM -SHSN FEW018 OVC035 M03/M05 A2993 RMK SC1SC7 DENSITY ALT -2045FT SLP139=

METAR CYYR 180400Z 22005KT 15SM FEW018 OVC034 M04/M06 A2994 RMK SC1SC7 DENSITY ALT -2124FT SLP143=

SPECI CYYR 180333Z 23003KT 15SM FEW018 OVC034 M04/M06 A2995 RMK SC1SC7 DENSITY ALT -2097FT SLP144=

METAR CYYR 180300Z 23005KT 15SM -SHSN OVC034 M04/M06 A2995 RMK SC8 DENSITY ALT -2097FT SLP146=

METAR CYYR 180200Z 29005KT 12SM -SHSN OVC035 M03/M06 A2995 RMK SC8 DENSITY ALT -2033FT SLP147=

SPECI CYYR 180157Z 27005KT 12SM OVC036 M03/M06 A2995 RMK SC8 DENSITY ALT -2033FT SLP147=

METAR CYYR 180100Z 23003KT 15SM OVC038 M03/M06 A2996 RMK SC8 DENSITY ALT -2097FT SLP150=

METAR CYYR 180000Z 02004KT 15SM BKN042 M03/M07 A2997 RMK SC7 DENSITY ALT -2045FT SLP151=
