METAR CYYR 270000Z 12003KT 15SM -SHSN FEW030 BKN043 M05/M05 A2951 RMK SC2SC5 DENSITY ALT -1748FT PCPN VRY LGT SLP997=

METAR CYYR 262300Z 16005KT 15SM -SHSN FEW023 BKN033 OVC039 M03/M05 A2952 RMK SC1SC6SC2 DENSITY ALT -1550FT CIG PDMTLY TRANSPARENT SLP001=

SPECI CYYR 262219Z 18008KT 7SM -SHSN FEW010 BKN030 BKN044 M03/M05 A2952 RMK SF1SC5SC2 DENSITY ALT -1475FT SLP001=

METAR CYYR 262200Z 17007KT 5SM -SHSN BKN033 OVC044 M03/M05 A2953 RMK SC6SC2 DENSITY ALT -1486FT SLP002=

SPECI CYYR 262148Z 17006KT 6SM -SHSN BKN035 OVC044 M03/M05 A2952 RMK SC5SC3 DENSITY ALT -1462FT SLP001=

SPECI CYYR 262137Z 18008KT 3SM -SHSN BKN032 OVC044 M02/M05 A2953 RMK SC5SC3 DENSITY ALT -1448FT SLP002=

METAR CYYR 262100Z 18007KT 8SM -SHSN BKN030 OVC040 M02/M06 A2952 RMK SC6SC2 DENSITY ALT -1338FT SLP001=

SPECI CYYR 262017Z 17006KT 15SM -SHSN BKN030 OVC040 M01/M07 A2952 RMK SC7SC1 DENSITY ALT -1239FT VIS LWR W-NW SLP001=

METAR CYYR 262000Z 16007KT 15SM BKN030 OVC040 M01/M07 A2952 RMK SC7SC1 DENSITY ALT -1240FT SH DIST S-NW SLP001=

METAR CYYR 261900Z 16006KT 15SM BKN030 M00/M07 A2953 RMK SC7 DENSITY ALT -1215FT VIRGA SLP002=

METAR CYYR 261800Z 18011KT 15SM BKN030 BKN220 M01/M08 A2954 RMK SC7CI1 DENSITY ALT -1292FT SLP007=

METAR CYYR 261700Z 16010KT 15SM BKN029 BKN220 00/M07 A2957 RMK SC6CI1 DENSITY ALT -1172FT SLP016=

METAR CYYR 261600Z 16009KT 15SM BKN030 BKN050 BKN220 M01/M08 A2960 RMK SC6SC1CI1 DENSITY ALT -1361FT SH DIST NW SLP028=

METAR CYYR 261500Z 20005KT 15SM SCT029 BKN050 BKN240 M03/M08 A2964 RMK SC4SC1CI2 DENSITY ALT -1704FT SH DIST NW SLP041=

METAR CYYR 261400Z 20007KT 15SM FEW050 SCT090 BKN240 M04/M09 A2967 RMK SC2AC2CI3 DENSITY ALT -1847FT SH DIST NW SLP050=

METAR CYYR 261300Z 17007KT 15SM FEW015 SCT046 SCT080 BKN240 M04/M09 A2968 RMK SC1SC3AC1CI3 DENSITY ALT -1831FT VIRGA SLP055=

METAR CYYR 261200Z 17007KT 15SM FEW015 FEW050 SCT090 BKN240 M06/M09 A2969 RMK SC1SC2AC2CI3 DENSITY ALT -2169FT SLP059=

SPECI CYYR 261131Z 16007KT 15SM FEW030 FEW050 BKN070 BKN240 M07/M08 A2969 RMK SC1SC2AC3CI2 DENSITY ALT -2206FT SLP058=

METAR CYYR 261100Z 16004KT 12SM -SN FEW030 BKN045 BKN065 M07/M08 A2969 RMK SC1SC5SC2 DENSITY ALT -2244FT SLP059=

METAR CYYR 261000Z 18002KT 15SM -SN FEW022 BKN033 BKN070 M07/M09 A2970 RMK SC2SC3AC2 DENSITY ALT -2323FT PCPN VRY LGT SLP061=

METAR CYYR 260900Z 19008KT 15SM -SN FEW005 SCT022 OVC038 M05/M07 A2972 RMK SF1SC3SC5 DENSITY ALT -2081FT SLP067=

METAR CYYR 260800Z 17006KT 15SM -SN FEW005 SCT028 OVC035 M06/M07 A2971 RMK SF1SC3SC5 DENSITY ALT -2079FT SLP065=

SPECI CYYR 260749Z 16006KT 12SM -SN FEW005 FEW026 OVC040 M06/M06 A2971 RMK SF1SC2SC6 DENSITY ALT -2092FT SLP065=

METAR CYYR 260700Z 07003KT 4SM -SN FEW026 OVC033 M06/M07 A2971 RMK SC2SC6 DENSITY ALT -2147FT SLP065=

METAR CYYR 260600Z 04006KT 5SM -SN SCT027 OVC037 M06/M07 A2973 RMK SC3SC5 DENSITY ALT -2142FT /S01/ SLP070=

METAR CYYR 260500Z 04008KT 5SM -SN SCT022 OVC027 M07/M08 A2974 RMK SC3SC5 DENSITY ALT -2249FT SLP076=

SPECI CYYR 260435Z 05008KT 5SM -SN SCT019 OVC040 M08/M09 A2976 RMK SC3SC5 DENSITY ALT -2434FT SLP081=

METAR CYYR 260400Z 05008KT 12SM -SN OVC040 M08/M09 A2978 RMK SC8 DENSITY ALT -2471FT SLP087=

METAR CYYR 260300Z 05006KT 10SM -SN SCT030 OVC036 M09/M10 A2980 RMK SC3SC5 DENSITY ALT -2630FT SLP096=

METAR CYYR 260200Z 05007KT 6SM -SN BR SCT023 OVC032 M09/M10 A2983 RMK SC4SC4 DENSITY ALT -2705FT SLP105=

METAR CYYR 260100Z 07005KT 4SM -SN BR FEW006 OVC024 M10/M11 A2984 RMK SF2SC6 DENSITY ALT -2786FT SLP110=

SPECI CYYR 260021Z 06007KT 4SM -SN BR SCT006 OVC023 M10/M11 A2984 RMK SF3SC5 DENSITY ALT -2799FT SLP111=

METAR CYYR 260000Z 06006KT 3SM -SN BR OVC026 M10/M11 A2985 RMK SC8 DENSITY ALT -2811FT SLP113=
