METAR CYYR 250000Z 32010KT 2SM -SN OVC021 M13/M15 A2967 RMK SC8 DENSITY ALT -3024FT /S05/ SLP051=

METAR CYYR 242300Z 35011G16KT 1 1/2SM -SN DRSN OVC020 M12/M14 A2965 RMK SN2SC6 DENSITY ALT -2892FT /S04/ SLP047=

SPECI CYYR 242228Z 35011KT 1 1/2SM -SN DRSN OVC017 M12/M14 A2965 RMK SN2SC6 DENSITY ALT -2878FT SLP046=

METAR CYYR 242200Z 34012KT 1 1/4SM -SN DRSN BKN017 OVC023 M12/M14 A2965 RMK SN4SC3SC1 DENSITY ALT -2850FT /S03/ SLP044=

SPECI CYYR 242150Z 35011G17KT 1SM -SN DRSN OVC017 M12/M14 A2964 RMK SN5SC3 DENSITY ALT -2825FT SLP042=

METAR CYYR 242100Z 36013G19KT 1SM -SN DRSN BKN010 OVC022 M11/M13 A2963 RMK SN4SF3SC1 DENSITY ALT -2691FT CIG EST SLP038=

SPECI CYYR 242042Z 36012G17KT 1 1/4SM -SN DRSN OVC010 M11/M13 A2963 RMK SN3SF5 DENSITY ALT -2664FT CIG EST SLP038=

SPECI CYYR 242016Z 36012G19KT 1 3/4SM -SN DRSN BKN010 OVC020 M10/M12 A2962 RMK SN2SF5SC1 DENSITY ALT -2611FT SLP037=

METAR CYYR 242000Z 36012G20KT 1SM -SN DRSN OVC010 M10/M12 A2962 RMK SN4SF4 DENSITY ALT -2584FT CIG EST /S02/ SLP037=

SPECI CYYR 241943Z 36011G16KT 1SM -SN DRSN OVC010 M10/M12 A2963 RMK SN4SF4 DENSITY ALT -2569FT CIG EST SLP038=

SPECI CYYR 241912Z 36014KT 1 1/2SM -SN DRSN BKN010 OVC022 M10/M12 A2963 RMK SN2SF5SC1 DENSITY ALT -2569FT SLP038=

METAR CYYR 241900Z 01016G23KT 1SM -SN DRSN OVC010 M10/M12 A2963 RMK SN4SF4 DENSITY ALT -2570FT CIG EST /S01/ SLP038=

SPECI CYYR 241838Z 36014G21KT 1SM -SN DRSN OVC010 M09/M13 A2963 RMK SN4SF4 DENSITY ALT -2517FT CIG EST SLP038=

METAR CYYR 241800Z 36013G19KT 1 3/4SM -SN BKN010 OVC020 M09/M13 A2964 RMK SN1SF5SC2 DENSITY ALT -2502FT CIG EST SLP041=

SPECI CYYR 241729Z 36014G19KT 1 1/2SM -SN OVC010 M09/M12 A2964 RMK SN2SF6 DENSITY ALT -2515FT CIG EST SLP043=

METAR CYYR 241700Z 36015G21KT 1SM -SN OVC010 M09/M12 A2965 RMK SN4SF4 DENSITY ALT -2526FT CIG EST /S06/ SUN DIMLY VISBL SLP046=

SPECI CYYR 241629Z 36013G22KT 1SM -SN OVC010 M10/M12 A2967 RMK SN4SF4 DENSITY ALT -2576FT CIG EST SLP053=

METAR CYYR 241600Z 36015KT 3/4SM -SN VV005 M09/M12 A2969 RMK SN8 DENSITY ALT -2559FT CIG EST /S05/ SLP058=

SPECI CYYR 241512Z 36013KT 3/4SM -SN VV008 M09/M12 A2971 RMK SN8 DENSITY ALT -2597FT CIG EST SLP066=

METAR CYYR 241500Z 36012KT 1SM -SN OVC016 M09/M12 A2972 RMK SN6SC2 DENSITY ALT -2621FT CIG EST /S03/ SLP068=

SPECI CYYR 241435Z 36009G15KT 1SM -SN OVC018 M10/M13 A2973 RMK SN5SC3 DENSITY ALT -2702FT CIG EST SLP072=

METAR CYYR 241400Z 01010KT 2SM -SN BKN018 OVC027 M11/M13 A2975 RMK SN2SC4SC2 DENSITY ALT -2887FT /S02/ SLP081=

SPECI CYYR 241345Z 36006KT 1 1/4SM -SN BKN018 OVC027 M12/M14 A2976 RMK SN3SC4SC1 DENSITY ALT -3021FT SLP084=

SPECI CYYR 241329Z 01007KT 3/4SM -SN OVC019 M13/M15 A2977 RMK SN6SC2 DENSITY ALT -3114FT VIS VRB 1/2-1 SLP086=

SPECI CYYR 241308Z 36006KT 3/4SM -SN VV005 M13/M15 A2978 RMK SN8 DENSITY ALT -3209FT VIS VRB 1/2-1 SLP090=

METAR CYYR 241300Z 34005KT 1/2SM SN VV005 M14/M16 A2978 RMK SN8 DENSITY ALT -3250FT /S01/ SLP092=

SPECI CYYR 241247Z 33004KT 5/8SM -SN VV005 M14/M16 A2979 RMK SN8 DENSITY ALT -3317FT SLP094=

SPECI CYYR 241230Z 32004KT 5/8SM -SN OVC017 M14/M16 A2980 RMK SN7SC1 DENSITY ALT -3397FT SLP096=

SPECI CYYR 241221Z 30002KT 1/2SM SN BKN014 OVC019 M15/M17 A2980 RMK SN6SF1SC1 DENSITY ALT -3493FT SLP098=

SPECI CYYR 241210Z 00000KT 3/4SM -SN OVC019 M16/M18 A2981 RMK SN6SC2 DENSITY ALT -3616FT SLP100=

METAR CYYR 241200Z 22005KT 2SM -SN OVC018 M16/M18 A2982 RMK SN2SC6 DENSITY ALT -3670FT /S01/ SLP103=

SPECI CYYR 241154Z 22005KT 2SM -SN OVC018 M16/M18 A2982 RMK SN2SC6 DENSITY ALT -3670FT SLP104=

METAR CYYR 241100Z 22004KT 3SM -SN OVC016 M17/M19 A2985 RMK SC8 DENSITY ALT -3844FT SLP113=

SPECI CYYR 241025Z 24003KT 5SM -SN BKN016 OVC030 M17/M20 A2986 RMK SC7SC1 DENSITY ALT -3870FT SLP118=

METAR CYYR 241000Z 19002KT 10SM -SN BKN015 OVC030 M17/M20 A2988 RMK SC7SC1 DENSITY ALT -3894FT SLP124=

METAR CYYR 240900Z 18002KT 15SM -SN BKN023 OVC032 M18/M20 A2992 RMK SC7SC1 DENSITY ALT -3983FT SLP135=

SPECI CYYR 240828Z 17003KT 15SM -SN OVC023 M19/M21 A2993 RMK SC8 DENSITY ALT -4148FT SLP141=

METAR CYYR 240800Z 27006KT 15SM OVC021 M19/M22 A2995 RMK SC8 DENSITY ALT -4271FT SLP146=

SPECI CYYR 240726Z 30005KT 15SM BKN020 BKN210 M20/M22 A2997 RMK SC6CS1 DENSITY ALT -4378FT SLP154=

METAR CYYR 240700Z 29004KT 15SM FEW025 BKN210 M22/M24 A2999 RMK SC1CS7 DENSITY ALT -4700FT FROIN SLP161=

METAR CYYR 240600Z 29003KT 15SM BKN220 M22/M24 A3002 RMK CI7 DENSITY ALT -4735FT SLP172=

METAR CYYR 240500Z 32002KT 15SM BKN220 M21/M23 A3005 RMK CI6 DENSITY ALT -4600FT FROIN SLP180=

METAR CYYR 240400Z 15002KT 15SM BKN220 M20/M22 A3007 RMK CI6 DENSITY ALT -4496FT SLP187=

METAR CYYR 240300Z 19002KT 15SM BKN220 M21/M23 A3008 RMK CI5 DENSITY ALT -4593FT SLP190=

METAR CYYR 240200Z 20003KT 15SM FEW240 M22/M25 A3011 RMK CI1 DENSITY ALT -4841FT SLP200=

METAR CYYR 240100Z 23004KT 15SM FEW240 M20/M23 A3013 RMK CI1 DENSITY ALT -4624FT SLP210=

METAR CYYR 240000Z 14004KT 15SM FEW240 M18/M22 A3014 RMK CI2 DENSITY ALT -4327FT SLP214=
