METAR CYYR 220000Z 03005KT 15SM FEW025 FEW060 M08/M11 A3020 RMK SC2SC1 DENSITY ALT -2981FT SLP230=

METAR CYYR 212300Z 05007KT 15SM FEW025 FEW060 M07/M11 A3018 RMK SC1SC1 DENSITY ALT -2890FT SLP224=

METAR CYYR 212200Z 02004KT 15SM FEW025 SCT035 SCT060 M06/M09 A3017 RMK SC1SC2SC1 DENSITY ALT -2648FT SLP221=

METAR CYYR 212100Z 30014G22KT 15SM DRSN FEW020 FEW032 BKN060 BKN250 M04/M08 A3015 RMK SC1SC2SC4CI1 DENSITY ALT -2428FT SLP213=

METAR CYYR 212000Z 34017G25KT 15SM DRSN FEW023 FEW027 BKN065 BKN250 M03/M07 A3011 RMK SC1SC2SC3CI1 DENSITY ALT -2248FT SH DIST SE QUAD SLP198=

METAR CYYR 211900Z 35017G28KT 15SM DRSN FEW027 BKN060 BKN250 M02/M07 A3008 RMK SC1SC6CI1 DENSITY ALT -2109FT SLP188=

METAR CYYR 211800Z 35022G29KT 15SM DRSN FEW020 SCT035 BKN065 M02/M07 A3005 RMK SC1SC2SC3 DENSITY ALT -1983FT SH DIST SE QUAD SLP180=

METAR CYYR 211700Z 35020G29KT 15SM DRSN FEW020 BKN035 BKN065 M02/M06 A3003 RMK SC1SC4SC2 DENSITY ALT -1971FT SH DIST SE QUAD SLP174=

METAR CYYR 211600Z 35020G31KT 15SM -SN DRSN FEW020 BKN030 BKN065 M02/M06 A3002 RMK SC1SC5SC1 DENSITY ALT -1931FT SLP169=

METAR CYYR 211500Z 35020G28KT 15SM -SN DRSN FEW026 BKN031 BKN065 M02/M06 A3000 RMK SC1SC5SC1 DENSITY ALT -1934FT SLP164=

METAR CYYR 211400Z 36014G27KT 15SM -SN DRSN FEW026 BKN034 OVC060 M02/M06 A2999 RMK SC1SC5SC2 DENSITY ALT -1999FT VIS LWR SE QUAD SLP160=

METAR CYYR 211300Z 35016G26KT 12SM -SN DRSN FEW021 BKN042 OVC060 M03/M06 A2997 RMK SC1SC4SC3 DENSITY ALT -2055FT SLP154=

SPECI CYYR 211231Z 34015G21KT 15SM -SN DRSN FEW022 BKN033 OVC050 M03/M06 A2997 RMK SC1SC4SC3 DENSITY ALT -2094FT SLP152=

METAR CYYR 211200Z 34017G27KT 15SM DRSN FEW024 SCT035 OVC060 M04/M06 A2996 RMK SC1SC2SC5 DENSITY ALT -2109FT SH DIST SE QUAD SLP149=

METAR CYYR 211100Z 34020G29KT 15SM DRSN FEW020 SCT026 OVC050 M04/M06 A2994 RMK SC1SC3SC4 DENSITY ALT -2112FT SLP143=

METAR CYYR 211000Z 35016G23KT 15SM DRSN SCT030 OVC060 M04/M07 A2993 RMK SC3SC5 DENSITY ALT -2128FT SLP138=

METAR CYYR 210900Z 35015G20KT 15SM DRSN FEW012 SCT022 OVC055 M04/M06 A2991 RMK SF1SC3SC5 DENSITY ALT -2117FT SLP133=

SPECI CYYR 210842Z 34017G27KT 15SM DRSN FEW012 FEW030 OVC055 M04/M07 A2991 RMK SF1SC2SC6 DENSITY ALT -2143FT SLP131=

METAR CYYR 210800Z 34016G23KT 15SM -SN DRSN FEW012 FEW025 OVC050 M04/M06 A2990 RMK SF1SC2SC6 DENSITY ALT -2144FT SLP130=

METAR CYYR 210700Z 34017G23KT 15SM -SN DRSN FEW030 BKN050 OVC070 M05/M07 A2989 RMK SC1SC6AC1 DENSITY ALT -2200FT SLP125=

METAR CYYR 210600Z 34018G26KT 15SM -SN DRSN SCT025 OVC050 M05/M07 A2988 RMK SC3SC5 DENSITY ALT -2242FT SLP121=

METAR CYYR 210500Z 35012G18KT 15SM -SN DRSN FEW003 BKN025 OVC043 M05/M08 A2987 RMK SF1SC5SC2 DENSITY ALT -2232FT SLP118=

SPECI CYYR 210446Z 35013G21KT 15SM -SN DRSN FEW003 BKN025 OVC044 M05/M08 A2986 RMK SF1SC6SC1 DENSITY ALT -2220FT SLP117=

SPECI CYYR 210426Z 36010KT 10SM -SN SCT003 OVC023 M06/M07 A2987 RMK SF3SC5 DENSITY ALT -2282FT SLP121=

SPECI CYYR 210419Z 35010KT 3SM -SN BKN003 OVC020 M06/M07 A2987 RMK SF5SC3 DENSITY ALT -2294FT SLP120=

METAR CYYR 210400Z 36010KT 1SM -SN VV003 M06/M07 A2987 RMK SN8 DENSITY ALT -2268FT /S01/ SLP121=

SPECI CYYR 210351Z 01010KT 1SM -SN VV003 M06/M07 A2987 RMK SN8 DENSITY ALT -2269FT SLP120=

SPECI CYYR 210341Z 36010KT 1SM -SN DRSN OVC020 M05/M07 A2986 RMK SN3SC5 DENSITY ALT -2245FT SLP118=

SPECI CYYR 210330Z 36007KT 2SM -SN DRSN BKN019 OVC025 M05/M07 A2986 RMK SC7SC1 DENSITY ALT -2232FT SLP117=

SPECI CYYR 210313Z 35009G17KT 6SM -SN DRSN BKN018 OVC025 M05/M08 A2985 RMK SC6SC2 DENSITY ALT -2233FT SLP114=

METAR CYYR 210300Z 35008KT 8SM -SN DRSN FEW019 BKN025 OVC042 M05/M07 A2985 RMK SC2SC4SC2 DENSITY ALT -2220FT SLP113=

SPECI CYYR 210246Z 35010KT 10SM -SN DRSN BKN025 OVC040 M05/M07 A2985 RMK SC6SC2 DENSITY ALT -2220FT SLP112=

METAR CYYR 210200Z 35013G21KT 12SM -SN SCT019 OVC024 M05/M07 A2984 RMK SC3SC5 DENSITY ALT -2195FT SLP110=

METAR CYYR 210100Z 35010KT 12SM -SN OVC019 M06/M07 A2983 RMK SC8 DENSITY ALT -2262FT SLP107=

SPECI CYYR 210046Z 34006KT 10SM -SN OVC019 M06/M07 A2983 RMK SC8 DENSITY ALT -2327FT SLP106=

METAR CYYR 210000Z 27004KT 4SM -SN OVC020 M08/M09 A2982 RMK SC8 DENSITY ALT -2598FT SLP103=
