SPECI CYYR 141924Z 10005KT 1 1/4SM -SN BKN029 BKN045 M00/M03 A2994 RMK SN2SC4SC1 DENSITY ALT -1633FT SLP141=

METAR CYYR 141900Z 11003KT 2 1/2SM -SN FEW014 BKN021 M00/M04 A2993 RMK SF2SC5 DENSITY ALT -1665FT VIS HYR N QUAD SLP138=

SPECI CYYR 141849Z 07004KT 4SM -SN OVC021 M00/M04 A2992 RMK SC8 DENSITY ALT -1642FT SLP137=

METAR CYYR 141800Z 34006KT 15SM -SN FEW012 BKN022 OVC027 M00/M04 A2991 RMK SF1SC7SC1 DENSITY ALT -1593FT SLP132=

METAR CYYR 141700Z 35002KT 15SM -SN FEW011 BKN023 OVC040 01/M04 A2990 RMK SF1SC7SC1 DENSITY ALT -1452FT SLP130=

METAR CYYR 141600Z 15003KT 15SM -SN FEW011 OVC019 00/M04 A2990 RMK SF1SC8 DENSITY ALT -1528FT SLP130=

SPECI CYYR 141515Z 29003KT 12SM -SN FEW011 SCT017 BKN024 OVC044 00/M04 A2989 RMK SF1SC3SC4SC1 DENSITY ALT -1517FT VIS SW QUAD 3 SLP127=

METAR CYYR 141500Z 00000KT 3SM -SN FEW011 BKN017 OVC024 00/M04 A2989 RMK SF1SC5SC3 DENSITY ALT -1518FT SLP126=

SPECI CYYR 141452Z 02002KT 12SM -SN FEW011 BKN016 OVC042 00/M04 A2989 RMK SF1SC5SC3 DENSITY ALT -1543FT SLP125=

METAR CYYR 141400Z 33008KT 15SM -SN FEW012 OVC044 M02/M04 A2987 RMK SF1SC8 DENSITY ALT -1764FT SLP118=

METAR CYYR 141300Z 33011KT 15SM -SN FEW012 OVC042 M03/M04 A2985 RMK SF1SC8 DENSITY ALT -1845FT SLP113=

METAR CYYR 141200Z 33008KT 15SM -SN FEW012 OVC042 M03/M05 A2984 RMK SF1SC8 DENSITY ALT -1873FT SLP107=

METAR CYYR 141100Z 34009KT 15SM -SN OVC041 M03/M05 A2981 RMK SC8 DENSITY ALT -1838FT SLP100=

METAR CYYR 141000Z 32011KT 10SM -SN OVC039 M03/M05 A2979 RMK SC8 DENSITY ALT -1775FT SLP092=

METAR CYYR 140900Z 32012KT 12SM -SN OVC040 M02/M04 A2978 RMK SC8 DENSITY ALT -1724FT SLP086=

METAR CYYR 140800Z 31010KT 10SM -SN OVC035 M02/M04 A2976 RMK SC8 DENSITY ALT -1686FT SLP081=

METAR CYYR 140700Z 30009KT 12SM -SHSN OVC037 M02/M04 A2974 RMK SC8 DENSITY ALT -1648FT SLP074=

METAR CYYR 140600Z 32009KT 12SM -SHSN OVC040 M02/M04 A2973 RMK SC8 DENSITY ALT -1650FT SLP069=

METAR CYYR 140500Z 31008KT 12SM -SHSN OVC042 M02/M04 A2971 RMK SC8 DENSITY ALT -1627FT SLP064=

SPECI CYYR 140446Z 30007KT 15SM OVC042 M02/M04 A2970 RMK SC8 DENSITY ALT -1616FT SH DIST W SLP062=

METAR CYYR 140400Z 29005KT 12SM -SHSN OVC037 M02/M04 A2969 RMK SC8 DENSITY ALT -1591FT SLP058=

METAR CYYR 140300Z 32007KT 12SM -SHSN OVC037 M02/M04 A2968 RMK SC8 DENSITY ALT -1580FT SLP055=

METAR CYYR 140200Z 33006KT 10SM -SHSN OVC034 M02/M04 A2967 RMK SC8 DENSITY ALT -1503FT SLP049=

METAR CYYR 140100Z 33007KT 10SM -SHSN OVC034 M01/M04 A2965 RMK SC8 DENSITY ALT -1442FT SLP044=

METAR CYYR 140000Z 34010G16KT 10SM -SHSN OVC028 M01/M04 A2964 RMK SC8 DENSITY ALT -1378FT SLP039=
