METAR CYYR 210000Z 27004KT 4SM -SN OVC020 M08/M09 A2982 RMK SC8 DENSITY ALT -2598FT SLP103=

METAR CYYR 202300Z 21003KT 3SM -SN FEW007 OVC023 M09/M10 A2982 RMK SF1SC8 DENSITY ALT -2666FT SLP102=

METAR CYYR 202200Z 22005KT 3SM -SN FEW007 OVC020 M09/M10 A2981 RMK SF1SC7 DENSITY ALT -2669FT /S02/ SLP099=

METAR CYYR 202100Z 25004KT 3SM -SN OVC022 M09/M11 A2980 RMK SC8 DENSITY ALT -2619FT SLP096=

SPECI CYYR 202051Z 26005KT 3SM -SN OVC022 M09/M11 A2980 RMK SC8 DENSITY ALT -2619FT SLP096=

METAR CYYR 202000Z 28004KT 8SM -SN FEW010 OVC020 M09/M11 A2980 RMK SF1SC7 DENSITY ALT -2592FT /S01/ VIS HYR NW QUAD SLP095=

SPECI CYYR 201951Z 31005KT 8SM -SN FEW010 OVC021 M09/M11 A2980 RMK SF2SC6 DENSITY ALT -2619FT SLP095=

SPECI CYYR 201941Z 32006KT 2 1/2SM -SN SCT010 OVC026 M09/M11 A2979 RMK SF3SC5 DENSITY ALT -2621FT VIS N QUAD 15 SLP094=

METAR CYYR 201900Z 31008KT 1SM -SN SCT010 OVC018 M09/M11 A2980 RMK SF3SC5 DENSITY ALT -2634FT SLP095=

SPECI CYYR 201853Z 31008KT 1 1/4SM -SN SCT010 OVC019 M09/M11 A2980 RMK SF3SC5 DENSITY ALT -2620FT SLP095=

SPECI CYYR 201812Z 31006KT 3/4SM -SN OVC020 M09/M12 A2980 RMK SN7SC1 DENSITY ALT -2636FT SLP095=

METAR CYYR 201800Z 31008KT 1 1/2SM -SN OVC020 M09/M12 A2980 RMK SN6SC2 DENSITY ALT -2663FT /S03/ SLP095=

SPECI CYYR 201724Z 31006KT 1 1/2SM -SN OVC021 M10/M13 A2980 RMK SN4SC4 DENSITY ALT -2757FT SLP097=

METAR CYYR 201700Z 31009KT 1SM -SN OVC017 M10/M13 A2981 RMK SN6SC2 DENSITY ALT -2850FT SLP098=

SPECI CYYR 201638Z 32008KT 1SM -SN OVC018 M10/M14 A2981 RMK SN6SC2 DENSITY ALT -2851FT SLP099=

SPECI CYYR 201615Z 32009KT 3/4SM -SN OVC018 M10/M14 A2981 RMK SN6SC2 DENSITY ALT -2851FT SLP101=

METAR CYYR 201600Z 32008KT 1SM -SN OVC018 M11/M14 A2982 RMK SN4SC4 DENSITY ALT -2890FT /S02/ SLP103=

SPECI CYYR 201513Z 30008KT 1SM -SN FEW004 OVC018 M11/M14 A2984 RMK SF2SC6 DENSITY ALT -3008FT SLP108=

METAR CYYR 201500Z 31009KT 2SM -SN OVC018 M11/M15 A2984 RMK SC8 DENSITY ALT -3022FT SLP108=

METAR CYYR 201400Z 29007KT 2SM -SN BKN017 OVC025 M12/M15 A2985 RMK SC5SC3 DENSITY ALT -3115FT SLP113=

SPECI CYYR 201348Z 30007KT 2SM -SN BKN017 OVC025 M12/M15 A2985 RMK SC5SC3 DENSITY ALT -3156FT SLP114=

SPECI CYYR 201324Z 29006KT 2 1/2SM -SN BKN029 OVC039 M13/M16 A2986 RMK SC5SC3 DENSITY ALT -3236FT SLP116=

METAR CYYR 201300Z 29006KT 8SM -SN SCT021 BKN039 M13/M16 A2986 RMK SC3SC4 DENSITY ALT -3290FT SLP117=

SPECI CYYR 201252Z 28006KT 6SM -SN SCT021 BKN039 M13/M16 A2986 RMK SC3SC4 DENSITY ALT -3317FT SLP117=

SPECI CYYR 201227Z 29006KT 3SM -SN FEW006 SCT021 BKN037 M14/M16 A2986 RMK SF2SC2SC3 DENSITY ALT -3345FT SLP117=

METAR CYYR 201200Z 28008KT 2SM -SN FEW007 BKN020 M14/M16 A2986 RMK SF2SC5 DENSITY ALT -3372FT SLP117=

SPECI CYYR 201141Z 28007KT 2SM -SN SCT007 OVC021 M14/M15 A2986 RMK SF3SC5 DENSITY ALT -3371FT SLP117=

METAR CYYR 201100Z 28006KT 5SM -SN SCT006 BKN018 OVC031 M14/M15 A2986 RMK SF3SC4SC1 DENSITY ALT -3398FT SLP116=

SPECI CYYR 201011Z 28006KT 240V300 6SM -SN FEW009 BKN018 OVC027 M14/M16 A2986 RMK SF1SC6SC2 DENSITY ALT -3357FT SLP115=

METAR CYYR 201000Z 27007KT 2 1/2SM -SN FEW009 BKN019 OVC027 M14/M16 A2985 RMK SF1SC6SC2 DENSITY ALT -3346FT /S01/ SLP114=

SPECI CYYR 200942Z 28007KT 4SM -SN FEW009 OVC021 M13/M15 A2986 RMK SF1SC7 DENSITY ALT -3330FT SLP115=

METAR CYYR 200900Z 28006KT 4SM -SN FEW009 BKN013 BKN018 OVC035 M13/M15 A2985 RMK SF1SF5SC1SC1 DENSITY ALT -3277FT SLP111=

SPECI CYYR 200848Z 28007KT 4SM -SN FEW009 BKN015 OVC035 M13/M15 A2984 RMK SF1SC5SC2 DENSITY ALT -3251FT SLP110=

SPECI CYYR 200824Z 28008KT 7SM -SN OVC013 M13/M15 A2984 RMK SF8 DENSITY ALT -3224FT SLP109=

METAR CYYR 200800Z 27005KT 4SM -SN SCT009 OVC013 M13/M14 A2984 RMK SF3SF5 DENSITY ALT -3183FT SLP108=

SPECI CYYR 200724Z 26007KT 8SM -SN FEW011 OVC017 M12/M14 A2983 RMK SF2SC6 DENSITY ALT -3117FT SLP105=

METAR CYYR 200700Z 27007KT 4SM -SN FEW010 BKN017 BKN022 M12/M14 A2983 RMK SF1SC4SC2 DENSITY ALT -3089FT SLP104=

SPECI CYYR 200643Z 26006KT 3SM -SN FEW011 OVC019 M12/M13 A2982 RMK SF2SC6 DENSITY ALT -3049FT SLP103=

SPECI CYYR 200625Z 26007KT 2 1/2SM -SHSN FEW008 BKN011 OVC016 M11/M13 A2982 RMK SF2SF5SC1 DENSITY ALT -2995FT SLP102=

METAR CYYR 200600Z 27006KT 230V290 2 1/2SM -SHSN BKN009 OVC016 M11/M13 A2982 RMK SF6SC2 DENSITY ALT -2940FT /S01/ SLP101=

SPECI CYYR 200543Z 26004KT 2 1/2SM -SHSN OVC009 M11/M13 A2981 RMK SF8 DENSITY ALT -2916FT SLP100=

METAR CYYR 200500Z 25007KT 5SM -SHSN FEW009 OVC021 M10/M12 A2981 RMK SF1SC8 DENSITY ALT -2861FT SLP099=

METAR CYYR 200400Z 26008KT 8SM -SHSN FEW009 FEW013 SCT019 BKN027 M10/M12 A2981 RMK SF1SF1SC2SC4 DENSITY ALT -2753FT SLP098=

SPECI CYYR 200316Z 26007KT 8SM -SHSN FEW008 OVC022 M09/M11 A2981 RMK SF1SC8 DENSITY ALT -2672FT SLP097=

METAR CYYR 200300Z 26008KT 5SM -SHSN FEW008 FEW018 OVC029 M09/M10 A2981 RMK SF1SC2SC6 DENSITY ALT -2603FT SLP097=

SPECI CYYR 200239Z 26010KT 2 1/2SM -SHSN FEW011 OVC022 M08/M10 A2980 RMK SF1SC8 DENSITY ALT -2511FT SLP096=

SPECI CYYR 200232Z 26009KT 4SM -SHSN FEW011 BKN022 OVC032 M08/M10 A2980 RMK SF1SC6SC2 DENSITY ALT -2471FT SLP095=

METAR CYYR 200200Z 28010KT 7SM -SHSN FEW011 FEW023 OVC032 M07/M08 A2980 RMK SF1SC2SC6 DENSITY ALT -2321FT SLP094=

SPECI CYYR 200152Z 28008KT 7SM -SHSN FEW011 FEW024 OVC032 M07/M08 A2979 RMK SF1SC2SC6 DENSITY ALT -2309FT SLP093=

SPECI CYYR 200109Z 31009KT 3SM -SHSN FEW011 FEW024 BKN031 OVC038 M06/M08 A2979 RMK SF1SC2SC5SC1 DENSITY ALT -2216FT SLP092=

METAR CYYR 200100Z 30007KT 2 1/2SM -SHSN FEW011 BKN023 OVC032 M06/M07 A2979 RMK SF1SC5SC3 DENSITY ALT -2188FT SLP092=

SPECI CYYR 200015Z 30006KT 3SM -SHSN FEW011 BKN019 OVC026 M05/M06 A2978 RMK SF2SC5SC1 DENSITY ALT -2094FT SLP089=

METAR CYYR 200000Z 30005KT 4SM -SHSN FEW012 OVC032 M05/M06 A2978 RMK SF1SC7 DENSITY ALT -2079FT SLP089=
