SPECI CYYR 120034Z 07002KT 1 1/2SM -SN BKN003 OVC024 M09/M10 A2991 RMK SF6SC2 DENSITY ALT -2731FT SLP132=

SPECI CYYR 120024Z 07002KT 2SM -SN FEW003 OVC025 M09/M10 A2991 RMK SF2SC6 DENSITY ALT -2731FT SLP132=

SPECI CYYR 120009Z 08002KT 3SM -SN SCT029 OVC036 M09/M09 A2990 RMK SC3SC5 DENSITY ALT -2706FT SLP131=

METAR CYYR 120000Z 06003KT 6SM -SN SCT029 OVC036 M09/M09 A2990 RMK SC3SC5 DENSITY ALT -2706FT SLP131=

METAR CYYR 112300Z 06002KT 6SM -SN SCT020 OVC031 M09/M09 A2990 RMK SC4SC4 DENSITY ALT -2706FT SLP131=

METAR CYYR 112200Z 11002KT 3SM -SN FEW010 BKN020 OVC030 M08/M09 A2990 RMK SF1SC4SC3 DENSITY ALT -2692FT SLP131=

SPECI CYYR 112115Z 13002KT 4SM -SN SCT010 BKN018 OVC026 M08/M09 A2990 RMK SF4SC3SC1 DENSITY ALT -2692FT SLP130=

METAR CYYR 112100Z 13002KT 2 1/2SM -FZDZ -SN BKN007 OVC016 M08/M09 A2990 RMK SF6SC2 DENSITY ALT -2679FT SLP130=

METAR CYYR 112000Z 13003KT 2SM -FZDZ -SN OVC006 M08/M09 A2990 RMK SF8 DENSITY ALT -2613FT SLP130=

SPECI CYYR 111957Z 14002KT 2SM -FZDZ -SN OVC007 M08/M09 A2990 RMK SF8 DENSITY ALT -2613FT SLP130=

SPECI CYYR 111929Z 14003KT 3SM -SN BKN008 OVC018 M08/M10 A2990 RMK SF7SC1 DENSITY ALT -2574FT SLP131=

METAR CYYR 111900Z 13003KT 4SM -SN BKN012 OVC020 M07/M10 A2990 RMK SF7SC1 DENSITY ALT -2471FT SLP131=

SPECI CYYR 111851Z 13003KT 4SM -SN BKN013 OVC020 M07/M10 A2990 RMK SF6SC2 DENSITY ALT -2445FT SLP131=

METAR CYYR 111800Z 00000KT 8SM -SN BKN015 OVC025 M06/M11 A2990 RMK SC5SC3 DENSITY ALT -2341FT SLP131=

METAR CYYR 111700Z 31003KT 12SM -SN BKN015 OVC024 M06/M12 A2992 RMK SC5SC3 DENSITY ALT -2354FT SLP135=

SPECI CYYR 111644Z 00000KT 12SM -SN BKN016 OVC024 M06/M12 A2992 RMK SC5SC3 DENSITY ALT -2394FT SLP136=

METAR CYYR 111600Z 33002KT 6SM -SN FEW015 OVC025 M07/M12 A2993 RMK SC2SC6 DENSITY ALT -2485FT VIS HYR N SLP139=

SPECI CYYR 111547Z 32004KT 6SM -SN SCT015 OVC025 M07/M13 A2993 RMK SC3SC5 DENSITY ALT -2565FT VIS HYR N SLP141=

METAR CYYR 111500Z 00000KT 8SM -SN BKN015 OVC030 M08/M13 A2995 RMK SC7SC1 DENSITY ALT -2760FT /S01/ SLP145=

SPECI CYYR 111446Z 33002KT 5SM -SN BKN015 OVC030 M09/M13 A2995 RMK SC7SC1 DENSITY ALT -2800FT VIS HYR N SLP145=

METAR CYYR 111400Z 31003KT 10SM -SN BKN016 OVC040 M10/M15 A2995 RMK SC7SC1 DENSITY ALT -3004FT SLP146=

SPECI CYYR 111323Z 31003KT 10SM -SN OVC015 M11/M15 A2995 RMK SC8 DENSITY ALT -3071FT SLP148=

METAR CYYR 111300Z 27004KT 4SM -SN OVC014 M11/M15 A2995 RMK SC8 DENSITY ALT -3166FT VIS HYR N SLP148=

SPECI CYYR 111243Z 27003KT 5SM -SN OVC017 M12/M16 A2996 RMK SC8 DENSITY ALT -3219FT SLP150=

METAR CYYR 111200Z 26002KT 15SM -SN OVC022 M13/M17 A2995 RMK SC8 DENSITY ALT -3343FT VIS LWR S QUAD SLP148=

SPECI CYYR 111136Z 26004KT 15SM OVC024 M13/M17 A2996 RMK SC8 DENSITY ALT -3395FT SLP149=

METAR CYYR 111100Z 27004KT 15SM FEW020 OVC027 M13/M17 A2996 RMK SC1SC8 DENSITY ALT -3409FT SLP149=

METAR CYYR 111000Z 27004KT 15SM FEW019 OVC028 M13/M16 A2995 RMK SC1SC7 DENSITY ALT -3369FT SLP148=

SPECI CYYR 110942Z 27004KT 15SM FEW011 FEW019 OVC028 M13/M16 A2995 RMK SF1SC2SC6 DENSITY ALT -3369FT SLP148=

SPECI CYYR 110913Z 26004KT 15SM SCT011 BKN017 OVC040 M13/M16 A2996 RMK SF3SC4SC1 DENSITY ALT -3367FT SLP149=

METAR CYYR 110900Z 27004KT 15SM BKN011 OVC017 M13/M16 A2995 RMK SF7SC1 DENSITY ALT -3369FT SLP148=

METAR CYYR 110800Z 28004KT 15SM BKN012 BKN017 OVC046 M13/M16 A2996 RMK SF6SC1SC1 DENSITY ALT -3421FT SLP149=

METAR CYYR 110700Z 29004KT 15SM OVC011 M12/M15 A2995 RMK SF8 DENSITY ALT -3245FT SLP148=

METAR CYYR 110600Z 30006KT 15SM OVC013 M12/M15 A2996 RMK SF8 DENSITY ALT -3284FT SLP149=

SPECI CYYR 110521Z 29004KT 15SM OVC014 M13/M15 A2996 RMK SF8 DENSITY ALT -3434FT SLP150=

METAR CYYR 110500Z 29003KT 15SM BKN015 BKN050 M14/M16 A2996 RMK SC5SC2 DENSITY ALT -3475FT SLP149=

METAR CYYR 110400Z 28006KT 15SM FEW022 BKN047 M13/M15 A2996 RMK SC1SC4 DENSITY ALT -3366FT SLP149=

METAR CYYR 110300Z 28006KT 15SM BKN045 M12/M15 A2996 RMK SC7 DENSITY ALT -3284FT SLP149=

METAR CYYR 110200Z 28005KT 15SM FEW021 BKN049 M12/M14 A2996 RMK SC1SC7 DENSITY ALT -3242FT SLP151=

METAR CYYR 110100Z 30007KT 15SM FEW026 BKN049 M10/M13 A2997 RMK SC1SC6 DENSITY ALT -3037FT SLP154=

SPECI CYYR 110045Z 30006KT 15SM SCT025 BKN049 M10/M13 A2997 RMK SC3SC4 DENSITY ALT -3010FT SLP154=

SPECI CYYR 110020Z 30008KT 15SM BKN024 BKN050 M10/M13 A2997 RMK SC5SC2 DENSITY ALT -2957FT SLP155=

METAR CYYR 110000Z 30006KT 15SM FEW024 BKN049 M09/M13 A2997 RMK SC2SC5 DENSITY ALT -2916FT SLP154=
