Column2
METAR
METAR 300534066581040 222355Z AUTO 32002KT 6SM CLR M13/M18 A3020 RMK AO2 SLPNO 53.3075° -60.4006°
METAR 300534066581040 222335Z AUTO 36002G03KT 6SM CLR M13/M18 A3021 RMK AO2 SLPNO 53.3075° -60.4006°
METAR 300534066581040 222315Z AUTO 01002G03KT 6SM CLR M14/M18 A3021 RMK AO2 SLPNO 53.3075° -60.4006°
METAR 300534066581040 222255Z AUTO 36001G02KT 6SM CLR M15/M19 A3021 RMK AO2 SLPNO 53.3075° -60.4006°
METAR 300534066581040 222235Z AUTO 00000KT 6SM CLR M14/M19 A3021 RMK AO2 SLPNO 53.3075° -60.4006°
METAR 300534066581040 222215Z AUTO 36001KT 6SM CLR M12/M18 A3021 RMK AO2 SLPNO 53.3075° -60.4006°
METAR 300534066581040 222155Z AUTO 36001KT 6SM CLR M10/M17 A3020 RMK AO2 SLPNO 53.3075° -60.4006°
METAR 300534066581040 222135Z AUTO 16002KT 6SM CLR M10/M17 A3020 RMK AO2 SLPNO 53.3075° -60.4006°
METAR 300534066581040 222115Z AUTO 14003KT 6SM CLR M10/M17 A3019 RMK AO2 SLPNO 53.3075° -60.4006°
METAR 300534066581040 222055Z AUTO 13003G04KT 6SM CLR M9/M17 A3019 RMK AO2 SLPNO 53.3075° -60.4006°
METAR 300534066581040 222035Z AUTO 13003G04KT 6SM CLR M9/M17 A3019 RMK AO2 SLPNO 53.3075° -60.4006°
METAR 300534066581040 222015Z AUTO 12004G05KT 6SM CLR M9/M17 A3019 RMK AO2 SLPNO 53.3075° -60.4006°
METAR 300534066581040 221955Z AUTO 14005KT 6SM CLR M8/M17 A3019 RMK AO2 SLPNO 53.3075° -60.4006°
METAR 300534066581040 221935Z AUTO 14005G06KT 6SM CLR M8/M17 A3019 RMK AO2 SLPNO 53.3075° -60.4006°
METAR 300534066581040 221915Z AUTO 12002G06KT 6SM CLR M3/M15 A3019 RMK AO2 SLPNO 53.3075° -60.4006°
METAR 300534066581040 221855Z AUTO 04002G04KT 6SM CLR M2/M15 A3019 RMK AO2 SLPNO 53.3075° -60.4006°
METAR 300534066581040 221835Z AUTO 06002G04KT 6SM CLR 00/M15 A3020 RMK AO2 SLPNO 53.3075° -60.4006°
METAR 300534066581040 221815Z AUTO 00000KT 6SM CLR M2/M15 A3020 RMK AO2 SLPNO 53.3075° -60.4006°
METAR 300534066581040 221755Z AUTO 36001G03KT 6SM CLR M3/M15 A3020 RMK AO2 SLPNO 53.3075° -60.4006°
METAR 300534066581040 221735Z AUTO 36001G03KT 6SM CLR M4/M15 A3020 RMK AO2 SLPNO 53.3075° -60.4006°
METAR 300534066581040 221715Z AUTO 27002G04KT 6SM CLR M4/M15 A3020 RMK AO2 SLPNO 53.3075° -60.4006°
METAR 300534066581040 221655Z AUTO 34002G04KT 6SM CLR M5/M15 A3021 RMK AO2 SLPNO 53.3075° -60.4006°
METAR 300534066581040 221635Z AUTO 36004G08KT 6SM ///026 M7/M16 A3020 RMK AO2 SLPNO 53.3075° -60.4006°
METAR 300534066581040 221615Z AUTO 35003G06KT 6SM ///025 ///026 M7/M16 A3021 RMK AO2 SLPNO 53.3075° -60.4006°
METAR 300534066581040 221555Z AUTO 34004G08KT 6SM ///024 ///026 M6/M15 A3022 RMK AO2 SLPNO 53.3075° -60.4006°
METAR 300534066581040 221535Z AUTO 35004G05KT 6SM ///023 ///024 M9/M16 A3023 RMK AO2 SLPNO 53.3075° -60.4006°
METAR 300534066581040 221515Z AUTO 31006KT 6SM ///021 M10/M16 A3023 RMK AO2 SLPNO 53.3075° -60.4006°
METAR 300534066581040 221455Z AUTO 34008G09KT 6SM ///021 M10/M16 A3024 RMK AO2 SLPNO 53.3075° -60.4006°
METAR 300534066581040 221435Z AUTO 35008G12KT 6SM ///021 M10/M16 A3023 RMK AO2 SLPNO 53.3075° -60.4006°
METAR 300534066581040 221415Z AUTO 35009G12KT 6SM ///021 ///022 ///023 M10/M16 A3024 RMK AO2 SLPNO 53.3075° -60.4006°
METAR 300534066581040 221355Z AUTO 35009G11KT 6SM ///020 ///021 ///022 M10/M16 A3024 RMK AO2 SLPNO 53.3075° -60.4006°
METAR 300534066581040 221335Z AUTO 36010G13KT 6SM ///021 ///022 M10/M16 A3023 RMK AO2 SLPNO 53.3075° -60.4006°
METAR 300534066581040 221315Z AUTO 35011G14KT 6SM ///021 ///022 M11/M16 A3023 RMK AO2 SLPNO 53.3075° -60.4006°
METAR 300534066581040 221301Z AUTO 35010G11KT 6SM CLR M11/M16 A3022 RMK AO2 SLPNO 53.3075° -60.4006°
METAR 300534066581040 221300Z AUTO 36009G10KT 010V360 6SM CLR M11/M16 A3023 RMK AO2 SLPNO 53.3075° -60.4006°
METAR 300534066581040 000000Z AUTO 34012G13KT 6SM CLR M11/M16 RMK AO2 SLPNO 
METAR 300534066581040 221202Z AUTO 01011KT 6SM CLR M11/M16 A3022 RMK AO2 SLPNO 53.3075° -60.4006°
METAR 300534066581040 221202Z AUTO 36009G10KT 6SM CLR M11/M16 A3022 RMK AO2 SLPNO 53.3075° -60.4006°
METAR 300534066581040 000000Z AUTO 01010G11KT 6SM CLR M11/M16 RMK AO2 SLPNO 
METAR 300534066581040 221020Z AUTO 35010G11KT 6SM CLR M10/M15 A3021 RMK AO2 SLPNO 53.3075° -60.4006°
METAR 300534066581040 221019Z AUTO 35012KT 6SM CLR M10/M15 A3020 RMK AO2 SLPNO 53.3075° -60.4006°
METAR 300534066581040 000000Z AUTO 35012G14KT 6SM CLR M10/M15 RMK AO2 SLPNO 
METAR 300534066581040 220855Z AUTO 35011G14KT 6SM ///024 M10/M14 A3019 RMK AO2 SLPNO 53.3075° -60.4006°
METAR 300534066581040 220835Z AUTO 35010G11KT 6SM ///022 ///023 ///024 M9/M14 A3019 RMK AO2 SLPNO 53.3075° -60.4006°
METAR 300534066581040 220815Z AUTO 35010G13KT 6SM ///025 ///026 M9/M13 A3019 RMK AO2 SLPNO 53.3075° -60.4006°
METAR 300534066581040 220755Z AUTO 01010G12KT 6SM ///024 ///025 ///026 M8/M13 A3018 RMK AO2 SLPNO 53.3075° -60.4006°
METAR 300534066581040 220735Z AUTO 01008G10KT 6SM ///024 ///025 M8/M12 A3018 RMK AO2 SLPNO 53.3075° -60.4006°
METAR 300534066581040 220715Z AUTO 01007G09KT 6SM ///023 ///024 ///026 M8/M12 A3018 RMK AO2 SLPNO 53.3075° -60.4006°
METAR 300534066581040 220655Z AUTO 01009G12KT 6SM ///023 ///024 ///026 M8/M12 A3018 RMK AO2 SLPNO 53.3075° -60.4006°
METAR 300534066581040 220635Z AUTO 01008G12KT 6SM ///022 ///023 M8/M12 A3017 RMK AO2 SLPNO 53.3075° -60.4006°
METAR 300534066581040 220615Z AUTO 03003G04KT 6SM ///018 ///021 ///022 ///023 M8/M12 A3017 RMK AO2 SLPNO 53.3075° -60.4006°
METAR 300534066581040 220555Z AUTO 02006G07KT 6SM ///019 ///021 ///023 M7/M12 A3016 RMK AO2 SLPNO 53.3075° -60.4006°
METAR 300534066581040 220535Z AUTO 02006G09KT 6SM ///002 ///020 ///021 ///022 M7/M12 A3016 RMK AO2 CLD LYR BLO 004 SLPNO 53.3075° -60.4006°
METAR 300534066581040 220515Z AUTO 01008G10KT 6SM ///019 M7/M12 A3016 RMK AO2 SLPNO 53.3075° -60.4006°
METAR 300534066581040 220455Z AUTO 01010G13KT 6SM ///018 ///019 M7/M12 A3016 RMK AO2 SLPNO 53.3075° -60.4006°
METAR 300534066581040 220435Z AUTO 02009G13KT 6SM ///017 ///018 ///019 M7/M12 A3016 RMK AO2 SLPNO 53.3075° -60.4006°
METAR 300534066581040 220415Z AUTO 03007G09KT 6SM ///019 M7/M12 A3015 RMK AO2 SLPNO 53.3075° -60.4006°
METAR 300534066581040 220355Z AUTO 03009G13KT 6SM ///019 M8/M12 A3015 RMK AO2 SLPNO 53.3075° -60.4006°
METAR 300534066581040 220335Z AUTO 02008G12KT 6SM ///018 ///019 ///020 M8/M12 A3015 RMK AO2 SLPNO 53.3075° -60.4006°
METAR 300534066581040 220315Z AUTO 01006G08KT 6SM ///020 ///021 ///022 M8/M12 A3014 RMK AO2 SLPNO 53.3075° -60.4006°
METAR 300534066581040 220255Z AUTO 01007KT 6SM ///024 ///025 ///026 M8/M12 A3015 RMK AO2 SLPNO 53.3075° -60.4006°
METAR 300534066581040 220235Z AUTO 36006G09KT 6SM ///028 ///029 M8/M12 A3015 RMK AO2 SLPNO 53.3075° -60.4006°
METAR 300534066581040 220215Z AUTO 36004G05KT 6SM ///026 ///029 ///030 M8/M12 A3015 RMK AO2 SLPNO 53.3075° -60.4006°
METAR 300534066581040 220155Z AUTO 36004G05KT 6SM ///028 M9/M13 A3015 RMK AO2 SLPNO 53.3075° -60.4006°
METAR 300534066581040 220135Z AUTO 36003G06KT 6SM ///027 ///028 M9/M12 A3015 RMK AO2 SLPNO 53.3075° -60.4006°
METAR 300534066581040 220115Z AUTO 36001G03KT 6SM ///030 ///031 M9/M13 A3015 RMK AO2 SLPNO 53.3075° -60.4006°
METAR 300534066581040 220055Z AUTO 01002G03KT 6SM ///021 ///022 ///026 ///031 M8/M12 A3015 RMK AO2 SLPNO 53.3075° -60.4006°
METAR 300534066581040 220035Z AUTO 33002G04KT 6SM ///023 ///024 ///032 ///033 M9/M13 A3015 RMK AO2 SLPNO 53.3075° -60.4006°
METAR 300534066581040 220015Z AUTO 06004G05KT 6SM CLR M8/M12 A3015 RMK AO2 SLPNO 53.3075° -60.4006°