METAR CYYR 180000Z 02004KT 15SM BKN042 M03/M07 A2997 RMK SC7 DENSITY ALT -2045FT SLP151=

METAR CYYR 172300Z 05005KT 15SM BKN048 M03/M06 A2998 RMK SC7 DENSITY ALT -2081FT SLP155=

METAR CYYR 172200Z 36004KT 15SM BKN046 M02/M07 A2999 RMK SC7 DENSITY ALT -1965FT SLP160=

METAR CYYR 172100Z 00000KT 15SM FEW020 BKN043 M01/M06 A2999 RMK SC1SC7 DENSITY ALT -1772FT SLP159=

METAR CYYR 172000Z 15002KT 15SM BKN041 01/M07 A2999 RMK SC7 DENSITY ALT -1584FT SLP160=

METAR CYYR 171900Z 19007KT 15SM BKN040 01/M07 A3000 RMK SC7 DENSITY ALT -1597FT SLP164=

METAR CYYR 171800Z 20010KT 15SM BKN038 00/M08 A3002 RMK SC7 DENSITY ALT -1711FT SH DIST N SLP169=

SPECI CYYR 171730Z 20011KT 15SM OVC040 00/M08 A3003 RMK SC8 DENSITY ALT -1696FT SLP173=

METAR CYYR 171700Z 16007KT 15SM -SHSN OVC036 00/M06 A3004 RMK SC8 DENSITY ALT -1728FT SLP177=

SPECI CYYR 171628Z 16007KT 15SM -SHSN FEW025 OVC040 00/M07 A3006 RMK CF1SC8 DENSITY ALT -1752FT SLP182=

METAR CYYR 171600Z 18006KT 15SM FEW025 OVC043 00/M07 A3007 RMK CF1SC8 DENSITY ALT -1752FT SLP186=

SPECI CYYR 171535Z 16006KT 15SM OVC044 M00/M07 A3008 RMK SC8 DENSITY ALT -1801FT SLP190=

METAR CYYR 171500Z 17002KT 15SM -SHSN OVC042 M01/M06 A3010 RMK SC8 DENSITY ALT -1886FT SLP195=

METAR CYYR 171400Z 22004KT 15SM -SHSN BKN044 M02/M06 A3012 RMK SC7 DENSITY ALT -2126FT SLP203=

METAR CYYR 171300Z 21004KT 15SM -SHSN BKN045 M04/M06 A3012 RMK SC7 DENSITY ALT -2374FT VIS LWR NE QUAD SLP204=

METAR CYYR 171200Z 20005KT 15SM -SHSN OVC043 M06/M06 A3012 RMK SC8 DENSITY ALT -2555FT SLP205=

METAR CYYR 171100Z 20003KT 15SM -SHSN OVC045 M07/M08 A3012 RMK SC8 DENSITY ALT -2784FT SLP205=

METAR CYYR 171000Z 19002KT 12SM -SHSN OVC047 M07/M08 A3012 RMK SC8 DENSITY ALT -2770FT SLP205=

METAR CYYR 170900Z 00000KT 12SM -SHSN OVC047 M07/M08 A3013 RMK SC8 DENSITY ALT -2809FT SLP206=

METAR CYYR 170800Z 23003KT 12SM -SHSN FEW035 OVC048 M07/M08 A3013 RMK SC1SC8 DENSITY ALT -2810FT SLP206=

METAR CYYR 170700Z 28002KT 12SM -SHSN FEW030 OVC048 M07/M08 A3013 RMK SC1SC8 DENSITY ALT -2783FT SLP208=

SPECI CYYR 170611Z 31003KT 8SM -SHSN FEW030 OVC050 M07/M08 A3014 RMK SC1SC8 DENSITY ALT -2795FT SLP209=

SPECI CYYR 170604Z 00000KT 4SM -SHSN OVC047 M07/M08 A3014 RMK SC8 DENSITY ALT -2810FT SLP209=

METAR CYYR 170600Z 00000KT 12SM -SHSN OVC048 M07/M08 A3014 RMK SC8 DENSITY ALT -2810FT VIS LWR W SLP209=

METAR CYYR 170500Z 06002KT 15SM -SHSN OVC047 M07/M08 A3015 RMK SC8 DENSITY ALT -2835FT SLP212=

SPECI CYYR 170442Z 00000KT 15SM -SHSN OVC047 M07/M08 A3015 RMK SC8 DENSITY ALT -2821FT SLP214=

METAR CYYR 170400Z 30002KT 15SM OVC046 M07/M08 A3016 RMK SC8 DENSITY ALT -2780FT SLP216=

METAR CYYR 170300Z 00000KT 15SM OVC046 M07/M09 A3016 RMK SC8 DENSITY ALT -2847FT SLP219=

METAR CYYR 170200Z 00000KT 15SM OVC047 M08/M09 A3017 RMK SC8 DENSITY ALT -2887FT SLP222=

SPECI CYYR 170127Z 23003KT 15SM BKN050 M07/M09 A3018 RMK SC7 DENSITY ALT -2872FT SLP225=

METAR CYYR 170100Z 00000KT 15SM -SHSN FEW020 BKN046 M06/M09 A3018 RMK SC1SC7 DENSITY ALT -2753FT SLP225=

SPECI CYYR 170022Z 27004KT 12SM -SHSN FEW020 BKN040 M06/M09 A3019 RMK SC2SC5 DENSITY ALT -2764FT SLP226=

METAR CYYR 170000Z 26002KT 15SM FEW030 BKN050 M07/M09 A3019 RMK SC1SC7 DENSITY ALT -2791FT SLP226=
