SPECI CYYR 200015Z 30006KT 3SM -SHSN FEW011 BKN019 OVC026 M05/M06 A2978 RMK SF2SC5SC1 DENSITY ALT -2094FT SLP089=

METAR CYYR 200000Z 30005KT 4SM -SHSN FEW012 OVC032 M05/M06 A2978 RMK SF1SC7 DENSITY ALT -2079FT SLP089=

SPECI CYYR 192336Z 27003KT 2 1/2SM -SHSN FEW018 BKN026 OVC031 M05/M06 A2978 RMK SC1SC5SC2 DENSITY ALT -2067FT SLP088=

SPECI CYYR 192323Z 28004KT 4SM -SHSN FEW027 BKN033 OVC039 M05/M06 A2978 RMK SC2SC5SC1 DENSITY ALT -2066FT SLP089=

SPECI CYYR 192312Z 28003KT 7SM -SHSN FEW026 BKN033 OVC039 M05/M06 A2978 RMK SC1SC7SC1 DENSITY ALT -2067FT SLP088=

METAR CYYR 192300Z 28004KT 4SM -SHSN FEW024 OVC033 M05/M06 A2978 RMK SC1SC8 DENSITY ALT -2067FT SLP087=

SPECI CYYR 192214Z 27004KT 5SM -SHSN FEW024 OVC034 M05/M06 A2978 RMK SC1SC8 DENSITY ALT -2043FT SLP088=

METAR CYYR 192200Z 29003KT 10SM -SHSN SCT035 OVC065 M05/M07 A2978 RMK SC4SC4 DENSITY ALT -2031FT VIS LWR W SLP087=

METAR CYYR 192100Z 27005KT 10SM -SHSN SCT030 BKN240 M03/M06 A2977 RMK SC4CI3 DENSITY ALT -1850FT VIS LWR W SLP084=

SPECI CYYR 192038Z 31006KT 8SM -SHSN OVC030 M03/M07 A2976 RMK SC8 DENSITY ALT -1776FT VIS LWR W SLP082=

SPECI CYYR 192023Z 26004KT 3SM -SHSN OVC028 M02/M06 A2976 RMK SC8 DENSITY ALT -1708FT VIS N 12 SLP082=

METAR CYYR 192000Z 28004KT 6SM -SHSN OVC032 M02/M07 A2976 RMK SC8 DENSITY ALT -1648FT VIS LWR SW QUAD SLP080=

SPECI CYYR 191950Z 32006KT 6SM -SHSN OVC032 M02/M08 A2975 RMK SC8 DENSITY ALT -1665FT VIS LWR SW QUAD SLP079=

METAR CYYR 191900Z 32008KT 3SM -SHSN OVC032 M02/M08 A2975 RMK SC8 DENSITY ALT -1665FT VIS NW-N 12 SLP078=

SPECI CYYR 191851Z 32009KT 3SM -SHSN OVC031 M02/M08 A2975 RMK SC8 DENSITY ALT -1639FT VIS N 12 SLP078=

METAR CYYR 191800Z 33005KT 12SM -SHSN BKN030 OVC040 M01/M09 A2975 RMK SC5SC3 DENSITY ALT -1566FT SLP077=

METAR CYYR 191700Z 34005KT 12SM -SHSN BKN030 OVC040 M02/M09 A2975 RMK SC6SC2 DENSITY ALT -1629FT SLP078=

METAR CYYR 191600Z 33006KT 12SM -SHSN BKN025 OVC040 M02/M07 A2976 RMK SC7SC1 DENSITY ALT -1636FT VIS LWR SW SLP083=

SPECI CYYR 191525Z 31006KT 6SM -SHSN OVC030 M02/M07 A2977 RMK SC8 DENSITY ALT -1686FT VIS HYR N SLP086=

METAR CYYR 191500Z 29003KT 3SM -SHSN OVC035 M02/M07 A2978 RMK SC8 DENSITY ALT -1699FT VIS HYR N SLP088=

SPECI CYYR 191447Z 25004KT 3SM -SHSN OVC035 M02/M08 A2978 RMK SC8 DENSITY ALT -1738FT VIS N 12 SLP088=

SPECI CYYR 191434Z 27005KT 8SM -SHSN FEW020 OVC035 M02/M08 A2978 RMK SC2SC6 DENSITY ALT -1765FT VIS LWR SW QUAD SLP089=

SPECI CYYR 191413Z 30005KT 4SM -SHSN FEW020 OVC038 M03/M08 A2978 RMK SC2SC6 DENSITY ALT -1804FT SLP090=

METAR CYYR 191400Z 29005KT 12SM -SHSN FEW020 OVC036 M03/M09 A2978 RMK SC2SC6 DENSITY ALT -1845FT SLP090=

METAR CYYR 191300Z 22004KT 15SM -SHSN OVC036 M05/M08 A2979 RMK SC8 DENSITY ALT -2075FT SLP093=

SPECI CYYR 191256Z 22004KT 15SM -SHSN OVC036 M05/M08 A2979 RMK SC8 DENSITY ALT -2075FT SLP093=

METAR CYYR 191200Z 03003KT 15SM OVC036 M05/M09 A2979 RMK SC8 DENSITY ALT -2168FT SLP093=

SPECI CYYR 191131Z 28005KT 15SM OVC037 M05/M09 A2978 RMK SC8 DENSITY ALT -2156FT SH DIST SW SLP090=

METAR CYYR 191100Z 29006KT 15SM -SHSN OVC037 M06/M09 A2978 RMK SC8 DENSITY ALT -2170FT PCPN VRY LGT SLP089=

METAR CYYR 191000Z 28005KT 15SM -SHSN OVC036 M06/M08 A2978 RMK SC8 DENSITY ALT -2220FT SLP090=

METAR CYYR 190900Z 30006KT 15SM -SHSN OVC036 M06/M09 A2978 RMK SC8 DENSITY ALT -2169FT SLP090=

METAR CYYR 190800Z 31006KT 15SM -SHSN OVC033 M06/M09 A2979 RMK SC8 DENSITY ALT -2181FT SLP091=

METAR CYYR 190700Z 31006KT 15SM -SHSN OVC032 M06/M09 A2979 RMK SC8 DENSITY ALT -2181FT SLP092=

SPECI CYYR 190644Z 31004KT 15SM -SHSN OVC032 M06/M09 A2979 RMK SC8 DENSITY ALT -2195FT SLP092=

METAR CYYR 190600Z 32004KT 15SM OVC033 M06/M10 A2979 RMK SC8 DENSITY ALT -2196FT SLP092=

SPECI CYYR 190539Z 35005KT 15SM OVC034 M06/M09 A2979 RMK SC8 DENSITY ALT -2195FT SLP092=

METAR CYYR 190500Z 35005KT 15SM -SHSN OVC035 M05/M09 A2978 RMK SC8 DENSITY ALT -2156FT SLP090=

METAR CYYR 190400Z 34004KT 15SM -SHSN BKN034 M05/M07 A2979 RMK SC7 DENSITY ALT -2150FT SLP091=

METAR CYYR 190300Z 01004KT 15SM -SHSN FEW025 OVC032 M05/M07 A2980 RMK SC2SC6 DENSITY ALT -2108FT SLP095=

METAR CYYR 190200Z 02004KT 15SM -SHSN OVC034 M05/M08 A2981 RMK SC8 DENSITY ALT -2097FT SLP099=

METAR CYYR 190100Z 03006KT 15SM -SHSN OVC034 M04/M08 A2982 RMK SC8 DENSITY ALT -2069FT SLP101=

METAR CYYR 190000Z 04005KT 15SM -SHSN OVC032 M04/M07 A2982 RMK SC8 DENSITY ALT -2055FT SLP101=
