Column2;Column3
METAR;Date/Time (UTC)
METAR 300534066581040 252355Z AUTO 09004G05KT M1/4SM FG CLR M10/M13 A2980 RMK AO2 SLPNO 53.3075° -60.4006°;02/25/2026 2355Z
METAR 300534066581040 252335Z AUTO 08003G04KT M1/4SM FG CLR M10/M13 A2981 RMK AO2 SLPNO 53.3075° -60.4006°;02/25/2026 2335Z
METAR 300534066581040 252315Z AUTO 08002G03KT M1/4SM FG CLR M10/M13 A2981 RMK AO2 SLPNO 53.3075° -60.4006°;02/25/2026 2315Z
METAR 300534066581040 252255Z AUTO 09002G03KT 1 1/2SM BR CLR M10/M13 A2981 RMK AO2 SLPNO 53.3075° -60.4006°;02/25/2026 2255Z
METAR 300534066581040 252235Z AUTO 10003KT 6SM CLR M10/M13 A2981 RMK AO2 SLPNO 53.3075° -60.4006°;02/25/2026 2235Z
METAR 300534066581040 252215Z AUTO 10004G05KT 6SM ///008 M10/M13 A2981 RMK AO2 SLPNO 53.3075° -60.4006°;02/25/2026 2215Z
METAR 300534066581040 252155Z AUTO 10004G05KT 6SM ///007 ///010 ///016 M10/M13 A2981 RMK AO2 SLPNO 53.3075° -60.4006°;02/25/2026 2155Z
METAR 300534066581040 252135Z AUTO 08005G09KT 6SM ///002 ///005 M10/M13 A2981 RMK AO2 CLD LYR BLO 004 SLPNO 53.3075° -60.4006°;02/25/2026 2135Z
METAR 300534066581040 252115Z AUTO 09005G06KT 6SM ///002 M10/M13 A2981 RMK AO2 SLPNO 53.3075° -60.4006°;02/25/2026 2115Z
METAR 300534066581040 252055Z AUTO 08006G09KT 6SM ///002 M9/M13 A2981 RMK AO2 SLPNO 53.3075° -60.4006°;02/25/2026 2055Z
METAR 300534066581040 252035Z AUTO 09007G09KT 6SM ///030 M9/M13 A2981 RMK AO2 SLPNO 53.3075° -60.4006°;02/25/2026 2035Z
METAR 300534066581040 252015Z AUTO 08007G08KT 6SM ///031 ///032 M9/M13 A2981 RMK AO2 SLPNO 53.3075° -60.4006°;02/25/2026 2015Z
METAR 300534066581040 251955Z AUTO 07007G09KT 6SM CLR M9/M14 A2981 RMK AO2 SLPNO 53.3075° -60.4006°;02/25/2026 1955Z
METAR 300534066581040 251935Z AUTO 09008G12KT 6SM CLR M9/M13 A2981 RMK AO2 SLPNO 53.3075° -60.4006°;02/25/2026 1935Z
METAR 300534066581040 251915Z AUTO 09009G14KT 6SM ///002 ///003 M9/M13 A2980 RMK AO2 CLD LYR BLO 004 SLPNO 53.3075° -60.4006°;02/25/2026 1915Z
METAR 300534066581040 251855Z AUTO 09007G10KT 6SM ///002 M9/M13 A2980 RMK AO2 SLPNO 53.3075° -60.4006°;02/25/2026 1855Z
METAR 300534066581040 251835Z AUTO 09008G11KT 6SM CLR M9/M14 A2981 RMK AO2 SLPNO 53.3075° -60.4006°;02/25/2026 1835Z
METAR 300534066581040 251815Z AUTO 09007G09KT 6SM ///002 ///004 M8/M14 A2981 RMK AO2 CLD LYR BLO 004 SLPNO 53.3075° -60.4006°;02/25/2026 1815Z
METAR 300534066581040 251755Z AUTO 09005G08KT 6SM ///002 ///009 ///010 M8/M14 A2981 RMK AO2 CLD LYR BLO 004 SLPNO 53.3075° -60.4006°;02/25/2026 1755Z
METAR 300534066581040 251735Z AUTO 07005G07KT 6SM ///002 ///006 ///010 M8/M14 A2981 RMK AO2 CLD LYR BLO 004 SLPNO 53.3075° -60.4006°;02/25/2026 1735Z
METAR 300534066581040 251715Z AUTO 09006G08KT 6SM ///007 ///008 ///010 M8/M14 A2981 RMK AO2 SLPNO 53.3075° -60.4006°;02/25/2026 1715Z
METAR 300534066581040 251655Z AUTO 10007G11KT 6SM ///004 ///005 ///006 M8/M14 A2981 RMK AO2 SLPNO 53.3075° -60.4006°;02/25/2026 1655Z
METAR 300534066581040 251635Z AUTO 10006G08KT 6SM ///002 ///018 M8/M15 A2981 RMK AO2 CLD LYR BLO 004 SLPNO 53.3075° -60.4006°;02/25/2026 1635Z
METAR 300534066581040 251615Z AUTO 09006G10KT 6SM ///002 ///004 ///010 M8/M15 A2981 RMK AO2 CLD LYR BLO 004 SLPNO 53.3075° -60.4006°;02/25/2026 1615Z
METAR 300534066581040 251555Z AUTO 10004G09KT 6SM ///002 ///005 ///017 ///018 M6/M14 A2981 RMK AO2 CLD LYR BLO 004 SLPNO 53.3075° -60.4006°;02/25/2026 1555Z
METAR 300534066581040 251535Z AUTO 09003G05KT 6SM ///002 ///006 ///015 ///016 M6/M14 A2981 RMK AO2 CLD LYR BLO 004 SLPNO 53.3075° -60.4006°;02/25/2026 1535Z
METAR 300534066581040 251515Z AUTO 36001G04KT 6SM ///004 ///006 ///014 ///015 M6/M14 A2981 RMK AO2 SLPNO 53.3075° -60.4006°;02/25/2026 1515Z
METAR 300534066581040 251455Z AUTO 32002G03KT 6SM ///002 ///006 ///007 M8/M14 A2980 RMK AO2 CLD LYR BLO 004 SLPNO 53.3075° -60.4006°;02/25/2026 1455Z
METAR 300534066581040 251435Z AUTO 33002G03KT 6SM ///001 ///002 M9/M15 A2980 RMK AO2 CLD LYR BLO 004 SLPNO 53.3075° -60.4006°;02/25/2026 1435Z
METAR 300534066581040 251415Z AUTO 34003G04KT 6SM ///002 ///004 ///006 M11/M16 A2979 RMK AO2 CLD LYR BLO 004 SLPNO 53.3075° -60.4006°;02/25/2026 1415Z
METAR 300534066581040 251355Z AUTO 35005G06KT 6SM ///002 ///005 M11/M16 A2979 RMK AO2 CLD LYR BLO 004 SLPNO 53.3075° -60.4006°;02/25/2026 1355Z
METAR 300534066581040 251335Z AUTO 34005G06KT 6SM ///003 ///004 ///006 ///020 M12/M17 A2978 RMK AO2 CLD LYR BLO 004 SLPNO 53.3075° -60.4006°;02/25/2026 1335Z
METAR 300534066581040 251315Z AUTO 34005G07KT 6SM CLR M12/M17 A2978 RMK AO2 SLPNO 53.3075° -60.4006°;02/25/2026 1315Z
METAR 300534066581040 251255Z AUTO 34007G08KT 6SM ///002 M13/M17 A2978 RMK AO2 SLPNO 53.3075° -60.4006°;02/25/2026 1255Z
METAR 300534066581040 251235Z AUTO 34007G08KT 6SM ///015 ///016 ///017 M13/M17 A2977 RMK AO2 SLPNO 53.3075° -60.4006°;02/25/2026 1235Z
METAR 300534066581040 251215Z AUTO 34008G09KT 6SM ///002 M14/M18 A2977 RMK AO2 SLPNO 53.3075° -60.4006°;02/25/2026 1215Z
METAR 300534066581040 251155Z AUTO 34007G09KT 6SM ///002 M14/M18 A2976 RMK AO2 SLPNO 53.3075° -60.4006°;02/25/2026 1155Z
METAR 300534066581040 251135Z AUTO 34007G08KT 6SM CLR M14/M18 A2975 RMK AO2 SLPNO 53.3075° -60.4006°;02/25/2026 1135Z
METAR 300534066581040 251115Z AUTO 34008G10KT 6SM CLR M14/M18 A2975 RMK AO2 SLPNO 53.3075° -60.4006°;02/25/2026 1115Z
METAR 300534066581040 251055Z AUTO 34009G11KT 6SM ///002 M14/M18 A2974 RMK AO2 SLPNO 53.3075° -60.4006°;02/25/2026 1055Z
METAR 300534066581040 251035Z AUTO 34009G11KT 6SM ///002 ///011 M14/M17 A2973 RMK AO2 CLD LYR BLO 004 SLPNO 53.3075° -60.4006°;02/25/2026 1035Z
METAR 300534066581040 251015Z AUTO 34009G11KT 6SM ///002 ///022 M14/M18 A2973 RMK AO2 CLD LYR BLO 004 SLPNO 53.3075° -60.4006°;02/25/2026 1015Z
METAR 300534066581040 250955Z AUTO 34010G12KT 6SM ///021 ///022 ///024 ///025 M14/M18 A2972 RMK AO2 SLPNO 53.3075° -60.4006°;02/25/2026 0955Z
METAR 300534066581040 250935Z AUTO 34009G12KT 6SM ///022 ///023 M14/M18 A2972 RMK AO2 SLPNO 53.3075° -60.4006°;02/25/2026 0935Z
METAR 300534066581040 250915Z AUTO 34011G12KT 6SM ///023 ///031 ///032 ///035 M14/M18 A2971 RMK AO2 SLPNO 53.3075° -60.4006°;02/25/2026 0915Z
METAR 300534066581040 250855Z AUTO 34012G16KT 6SM ///022 ///031 M13/M17 A2971 RMK AO2 SLPNO 53.3075° -60.4006°;02/25/2026 0855Z
METAR 300534066581040 250835Z AUTO 33011G13KT 6SM ///023 ///024 M13/M17 A2970 RMK AO2 SLPNO 53.3075° -60.4006°;02/25/2026 0835Z
METAR 300534066581040 250815Z AUTO 34011G14KT 6SM ///025 ///026 M14/M18 A2969 RMK AO2 SLPNO 53.3075° -60.4006°;02/25/2026 0815Z
METAR 300534066581040 250755Z AUTO 33010G12KT 6SM ///025 M14/M18 A2969 RMK AO2 SLPNO 53.3075° -60.4006°;02/25/2026 0755Z
METAR 300534066581040 250735Z AUTO 34010G14KT 6SM ///025 ///026 M14/M17 A2968 RMK AO2 SLPNO 53.3075° -60.4006°;02/25/2026 0735Z
METAR 300534066581040 250715Z AUTO 34010G12KT 6SM ///015 ///028 M14/M17 A2968 RMK AO2 SLPNO 53.3075° -60.4006°;02/25/2026 0715Z
METAR 300534066581040 250655Z AUTO 34011G13KT 6SM CLR M14/M17 A2967 RMK AO2 SLPNO 53.3075° -60.4006°;02/25/2026 0655Z
METAR 300534066581040 250635Z AUTO 34009G12KT 6SM CLR M14/M17 A2967 RMK AO2 SLPNO 53.3075° -60.4006°;02/25/2026 0635Z
METAR 300534066581040 250615Z AUTO 33010G11KT 6SM CLR M14/M17 A2967 RMK AO2 SLPNO 53.3075° -60.4006°;02/25/2026 0615Z
METAR 300534066581040 250555Z AUTO 33009G11KT 6SM CLR M14/M17 A2966 RMK AO2 SLPNO 53.3075° -60.4006°;02/25/2026 0555Z
METAR 300534066581040 250535Z AUTO 33010G12KT 6SM ///002 M14/M17 A2966 RMK AO2 SLPNO 53.3075° -60.4006°;02/25/2026 0535Z
METAR 300534066581040 250515Z AUTO 32011G14KT 6SM ///002 ///007 M14/M18 A2965 RMK AO2 CLD LYR BLO 004 SLPNO 53.3075° -60.4006°;02/25/2026 0515Z
METAR 300534066581040 250455Z AUTO 32010G12KT 6SM ///023 ///024 M14/M18 A2965 RMK AO2 SLPNO 53.3075° -60.4006°;02/25/2026 0455Z
METAR 300534066581040 250435Z AUTO 32009G13KT 6SM ///023 M14/M18 A2964 RMK AO2 SLPNO 53.3075° -60.4006°;02/25/2026 0435Z
METAR 300534066581040 250415Z AUTO 32008G09KT 6SM ///023 ///024 M13/M17 A2964 RMK AO2 SLPNO 53.3075° -60.4006°;02/25/2026 0415Z
METAR 300534066581040 250355Z AUTO 33008G09KT 6SM CLR M13/M17 A2964 RMK AO2 SLPNO 53.3075° -60.4006°;02/25/2026 0355Z
METAR 300534066581040 250335Z AUTO 32009G11KT 6SM ///025 M13/M17 A2964 RMK AO2 SLPNO 53.3075° -60.4006°;02/25/2026 0335Z
METAR 300534066581040 250315Z AUTO 33009G10KT 6SM CLR M13/M17 A2964 RMK AO2 SLPNO 53.3075° -60.4006°;02/25/2026 0315Z
METAR 300534066581040 250255Z AUTO 33009G12KT 6SM CLR M13/M17 A2963 RMK AO2 SLPNO 53.3075° -60.4006°;02/25/2026 0255Z
METAR 300534066581040 250235Z AUTO 33009G12KT 6SM CLR M13/M17 A2963 RMK AO2 SLPNO 53.3075° -60.4006°;02/25/2026 0235Z
METAR 300534066581040 250215Z AUTO 34009G11KT 6SM CLR M13/M17 A2963 RMK AO2 SLPNO 53.3075° -60.4006°;02/25/2026 0215Z
METAR 300534066581040 250155Z AUTO 34008G11KT 6SM CLR M13/M17 A2963 RMK AO2 SLPNO 53.3075° -60.4006°;02/25/2026 0155Z
METAR 300534066581040 250135Z AUTO 33008G09KT 6SM CLR M13/M17 A2962 RMK AO2 SLPNO 53.3075° -60.4006°;02/25/2026 0135Z
METAR 300534066581040 250115Z AUTO 34008G09KT 6SM CLR M13/M16 A2962 RMK AO2 SLPNO 53.3075° -60.4006°;02/25/2026 0115Z
METAR 300534066581040 250055Z AUTO 34008G09KT 6SM CLR M13/M16 A2962 RMK AO2 SLPNO 53.3075° -60.4006°;02/25/2026 0055Z
METAR 300534066581040 250035Z AUTO 34009G11KT 6SM CLR M13/M16 A2962 RMK AO2 SLPNO 53.3075° -60.4006°;02/25/2026 0035Z
METAR 300534066581040 250015Z AUTO 34008G10KT 5SM CLR M13/M16 A2962 RMK AO2 SLPNO 53.3075° -60.4006°;02/25/2026 0015Z
METAR 300534066581040 242355Z AUTO 34008G10KT 6SM CLR M12/M16 A2961 RMK AO2 SLPNO 53.3075° -60.4006°;02/24/2026 2355Z
METAR 300534066581040 242335Z AUTO 36010G11KT 010V360 6SM CLR M12/M15 A2961 RMK AO2 SLPNO 53.3075° -60.4006°;02/24/2026 2335Z
METAR 300534066581040 242315Z AUTO 01013G18KT 6SM CLR M12/M16 A2961 RMK AO2 SLPNO 53.3075° -60.4006°;02/24/2026 2315Z
METAR 300534066581040 242255Z AUTO 01012G16KT 6SM CLR M12/M16 A2960 RMK AO2 SLPNO 53.3075° -60.4006°;02/24/2026 2255Z
METAR 300534066581040 242235Z AUTO 01013G19KT 6SM CLR M12/M15 A2960 RMK AO2 SLPNO MAX WND 01019KT 53.3075° -60.4006°;02/24/2026 2235Z
METAR 300534066581040 242215Z AUTO 01011G13KT 5SM CLR M12/M15 A2960 RMK AO2 SLPNO 53.3075° -60.4006°;02/24/2026 2215Z
METAR 300534066581040 242155Z AUTO 01013G16KT 5SM CLR M12/M15 A2959 RMK AO2 SLPNO 53.3075° -60.4006°;02/24/2026 2155Z
METAR 300534066581040 242135Z AUTO 01013G16KT 4SM CLR M11/M15 A2958 RMK AO2 SLPNO 53.3075° -60.4006°;02/24/2026 2135Z
METAR 300534066581040 242115Z AUTO 01013G17KT 3SM CLR M11/M14 A2958 RMK AO2 SLPNO 53.3075° -60.4006°;02/24/2026 2115Z
METAR 300534066581040 242055Z AUTO 01013G18KT 3SM CLR M11/M14 A2957 RMK AO2 SLPNO 53.3075° -60.4006°;02/24/2026 2055Z
METAR 300534066581040 242035Z AUTO 01013G16KT 2SM CLR M11/M14 A2957 RMK AO2 SLPNO 53.3075° -60.4006°;02/24/2026 2035Z
METAR 300534066581040 242015Z AUTO 02014G19KT 1 1/2SM BR CLR M10/M14 A2957 RMK AO2 SLPNO 53.3075° -60.4006°;02/24/2026 2015Z
METAR 300534066581040 241955Z AUTO 01013G18KT 1 1/2SM BR CLR M10/M14 A2958 RMK AO2 SLPNO 53.3075° -60.4006°;02/24/2026 1955Z
METAR 300534066581040 241935Z AUTO 01014G18KT 6SM ///002 M10/M14 A2958 RMK AO2 SLPNO 53.3075° -60.4006°;02/24/2026 1935Z
METAR 300534066581040 241915Z AUTO 02013G16KT 6SM CLR M10/M14 A2958 RMK AO2 SLPNO 53.3075° -60.4006°;02/24/2026 1915Z
METAR 300534066581040 241855Z AUTO 02016G20KT 3SM CLR M10/M14 A2958 RMK AO2 SLPNO 53.3075° -60.4006°;02/24/2026 1855Z
METAR 300534066581040 241835Z AUTO 01015G19KT 5SM ///002 M10/M14 A2958 RMK AO2 SLPNO 53.3075° -60.4006°;02/24/2026 1835Z
METAR 300534066581040 241815Z AUTO 01012G16KT 6SM CLR M10/M14 A2958 RMK AO2 SLPNO 53.3075° -60.4006°;02/24/2026 1815Z
METAR 300534066581040 241755Z AUTO 01012G15KT 4SM CLR M10/M13 A2959 RMK AO2 SLPNO 53.3075° -60.4006°;02/24/2026 1755Z
METAR 300534066581040 241735Z AUTO 01014G17KT 3SM ///002 M10/M13 A2959 RMK AO2 SLPNO 53.3075° -60.4006°;02/24/2026 1735Z
METAR 300534066581040 241715Z AUTO 02014G17KT 2SM BR ///002 M10/M13 A2960 RMK AO2 SLPNO 53.3075° -60.4006°;02/24/2026 1715Z
METAR 300534066581040 241655Z AUTO 01014G18KT 2SM BR ///002 ///003 M10/M13 A2961 RMK AO2 CLD LYR BLO 004 SLPNO 53.3075° -60.4006°;02/24/2026 1655Z
METAR 300534066581040 241635Z AUTO 01015G20KT 2SM BR ///001 ///002 M10/M14 A2962 RMK AO2 CLD LYR BLO 004 SLPNO 53.3075° -60.4006°;02/24/2026 1635Z
METAR 300534066581040 241615Z AUTO 02014G20KT 1 1/2SM BR ///002 M10/M13 A2963 RMK AO2 SLPNO MAX WND 02020KT 53.3075° -60.4006°;02/24/2026 1615Z
METAR 300534066581040 241555Z AUTO 01011G17KT 2SM BR ///001 ///002 ///004 ///015 M9/M13 A2964 RMK AO2 CLD LYR BLO 004 SLPNO MAX WND 01017KT 53.3075° -60.4006°;02/24/2026 1555Z
METAR 300534066581040 241535Z AUTO 02010G14KT 2SM BR ///001 ///002 M9/M13 A2965 RMK AO2 CLD LYR BLO 004 SLPNO 53.3075° -60.4006°;02/24/2026 1535Z
METAR 300534066581040 241515Z AUTO 04012G17KT 1 3/4SM BR ///002 ///006 M9/M13 A2966 RMK AO2 CLD LYR BLO 004 SLPNO 53.3075° -60.4006°;02/24/2026 1515Z
METAR 300534066581040 241455Z AUTO 04012G16KT 2SM BR ///001 ///002 ///005 M10/M14 A2967 RMK AO2 CLD LYR BLO 004 SLPNO 53.3075° -60.4006°;02/24/2026 1455Z
METAR 300534066581040 241435Z AUTO 04010G15KT 1 3/4SM BR ///002 ///003 M10/M14 A2968 RMK AO2 CLD LYR BLO 004 SLPNO 53.3075° -60.4006°;02/24/2026 1435Z
METAR 300534066581040 241415Z AUTO 03011G15KT 6SM CLR M11/M15 A2969 RMK AO2 SLPNO 53.3075° -60.4006°;02/24/2026 1415Z
METAR 300534066581040 241355Z AUTO 03008G13KT M1/4SM FG CLR M12/M15 A2971 RMK AO2 SLPNO 53.3075° -60.4006°;02/24/2026 1355Z
METAR 300534066581040 241335Z AUTO 03006G08KT M1/4SM FG CLR M13/M16 A2972 RMK AO2 SLPNO 53.3075° -60.4006°;02/24/2026 1335Z
METAR 300534066581040 241315Z AUTO 01005G07KT M1/4SM FG CLR M13/M17 A2973 RMK AO2 SLPNO 53.3075° -60.4006°;02/24/2026 1315Z
METAR 300534066581040 241255Z AUTO 36004G07KT M1/4SM FG CLR M14/M17 A2974 RMK AO2 SLPNO 53.3075° -60.4006°;02/24/2026 1255Z
METAR 300534066581040 241235Z AUTO 32003KT M1/4SM FG CLR M15/M18 A2975 RMK AO2 SLPNO 53.3075° -60.4006°;02/24/2026 1235Z
METAR 300534066581040 241215Z AUTO 28003G05KT M1/4SM FG ///002 M16/M19 A2977 RMK AO2 SLPNO 53.3075° -60.4006°;02/24/2026 1215Z
METAR 300534066581040 241155Z AUTO 27003G04KT M1/4SM FG ///002 ///018 M16/M20 A2978 RMK AO2 CLD LYR BLO 004 SLPNO 53.3075° -60.4006°;02/24/2026 1155Z
METAR 300534066581040 241135Z AUTO 25003G05KT M1/4SM FG ///010 ///015 ///016 M16/M20 A2979 RMK AO2 SLPNO 53.3075° -60.4006°;02/24/2026 1135Z
METAR 300534066581040 241115Z AUTO 23002G03KT M1/4SM FG ///015 ///016 M17/M20 A2980 RMK AO2 SLPNO 53.3075° -60.4006°;02/24/2026 1115Z
METAR 300534066581040 241055Z AUTO 23003KT 4SM ///015 M17/M21 A2981 RMK AO2 SLPNO 53.3075° -60.4006°;02/24/2026 1055Z
METAR 300534066581040 241035Z AUTO 23002G04KT 6SM ///015 M17/M21 A2982 RMK AO2 SLPNO 53.3075° -60.4006°;02/24/2026 1035Z
METAR 300534066581040 241015Z AUTO 25002G03KT 6SM ///004 ///005 ///006 ///015 M17/M21 A2983 RMK AO2 SLPNO 53.3075° -60.4006°;02/24/2026 1015Z
METAR 300534066581040 240955Z AUTO 36001G02KT 6SM ///005 ///014 M18/M21 A2985 RMK AO2 SLPNO 53.3075° -60.4006°;02/24/2026 0955Z
METAR 300534066581040 240935Z AUTO 16002G03KT 6SM ///004 ///015 M18/M22 A2986 RMK AO2 SLPNO 53.3075° -60.4006°;02/24/2026 0935Z
METAR 300534066581040 240915Z AUTO 16003G04KT 6SM ///003 ///026 ///036 ///037 M18/M22 A2987 RMK AO2 CLD LYR BLO 004 SLPNO 53.3075° -60.4006°;02/24/2026 0915Z
METAR 300534066581040 240855Z AUTO 16003G04KT 6SM ///029 ///031 ///033 ///034 M18/M21 A2988 RMK AO2 SLPNO 53.3075° -60.4006°;02/24/2026 0855Z
METAR 300534066581040 240835Z AUTO 17004G05KT 6SM ///022 M18/M22 A2989 RMK AO2 SLPNO 53.3075° -60.4006°;02/24/2026 0835Z
METAR 300534066581040 240815Z AUTO 36001G04KT 6SM ///021 ///022 ///023 M18/M22 A2990 RMK AO2 SLPNO 53.3075° -60.4006°;02/24/2026 0815Z
METAR 300534066581040 240755Z AUTO 28003G05KT 6SM ///021 M18/M22 A2992 RMK AO2 SLPNO 53.3075° -60.4006°;02/24/2026 0755Z
METAR 300534066581040 240735Z AUTO 27002G04KT 6SM ///020 M19/M22 A2993 RMK AO2 SLPNO 53.3075° -60.4006°;02/24/2026 0735Z
METAR 300534066581040 240715Z AUTO 34003G05KT 6SM ///020 ///021 M19/M23 A2994 RMK AO2 SLPNO 53.3075° -60.4006°;02/24/2026 0715Z
METAR 300534066581040 240655Z AUTO 36001G02KT 6SM CLR M19/M23 A2996 RMK AO2 SLPNO 53.3075° -60.4006°;02/24/2026 0655Z
METAR 300534066581040 240635Z AUTO 28002G04KT 6SM CLR M19/M23 A2998 RMK AO2 SLPNO 53.3075° -60.4006°;02/24/2026 0635Z
METAR 300534066581040 240615Z AUTO 36001G02KT 6SM CLR M18/M23 A2998 RMK AO2 SLPNO 53.3075° -60.4006°;02/24/2026 0615Z
METAR 300534066581040 240555Z AUTO 25013G23KT 6SM CLR M14/M20 A2998 RMK AO2 SLPNO MAX WND 24023KT 53.3075° -60.4006°;02/24/2026 0555Z
METAR 300534066581040 240535Z AUTO 25014G28KT 6SM CLR M17/M21 A2999 RMK AO2 SLPNO MAX WND 25028KT 53.3075° -60.4006°;02/24/2026 0535Z
METAR 300534066581040 240515Z AUTO 05002G04KT 6SM CLR M19/M23 A3000 RMK AO2 SLPNO 53.3075° -60.4006°;02/24/2026 0515Z
METAR 300534066581040 240455Z AUTO 02002G03KT 6SM CLR M20/M23 A3001 RMK AO2 SLPNO 53.3075° -60.4006°;02/24/2026 0455Z
METAR 300534066581040 240435Z AUTO 02002G04KT 6SM CLR M20/M24 A3002 RMK AO2 SLPNO 53.3075° -60.4006°;02/24/2026 0435Z
METAR 300534066581040 240415Z AUTO 00000KT 6SM CLR M20/M24 A3003 RMK AO2 SLPNO 53.3075° -60.4006°;02/24/2026 0415Z
METAR 300534066581040 240355Z AUTO 24008G20KT 6SM CLR M20/M24 A3003 RMK AO2 SLPNO MAX WND 25020KT 53.3075° -60.4006°;02/24/2026 0355Z
METAR 300534066581040 240335Z AUTO 36001G04KT 6SM CLR M21/M24 A3004 RMK AO2 SLPNO 53.3075° -60.4006°;02/24/2026 0335Z
METAR 300534066581040 240315Z AUTO 36001G02KT 6SM CLR M21/M24 A3004 RMK AO2 SLPNO 53.3075° -60.4006°;02/24/2026 0315Z
METAR 300534066581040 240255Z AUTO 00000KT 6SM CLR M21/M24 A3006 RMK AO2 SLPNO 53.3075° -60.4006°;02/24/2026 0255Z
METAR 300534066581040 240235Z AUTO 36001G02KT 6SM CLR M21/M24 A3006 RMK AO2 SLPNO 53.3075° -60.4006°;02/24/2026 0235Z
METAR 300534066581040 240215Z AUTO 17002KT 6SM CLR M20/M24 A3007 RMK AO2 SLPNO 53.3075° -60.4006°;02/24/2026 0215Z
METAR 300534066581040 240155Z AUTO 13002G03KT 6SM CLR M20/M24 A3007 RMK AO2 SLPNO 53.3075° -60.4006°;02/24/2026 0155Z
METAR 300534066581040 240135Z AUTO 36001G04KT 6SM CLR M19/M23 A3009 RMK AO2 SLPNO 53.3075° -60.4006°;02/24/2026 0135Z
METAR 300534066581040 240115Z AUTO 36001G03KT 6SM CLR M18/M23 A3009 RMK AO2 SLPNO 53.3075° -60.4006°;02/24/2026 0115Z
METAR 300534066581040 240055Z AUTO 30002G03KT 6SM CLR M18/M23 A3010 RMK AO2 SLPNO 53.3075° -60.4006°;02/24/2026 0055Z
METAR 300534066581040 240035Z AUTO 19002G03KT 6SM CLR M18/M23 A3010 RMK AO2 SLPNO 53.3075° -60.4006°;02/24/2026 0035Z
METAR 300534066581040 240015Z AUTO 16003KT 6SM CLR M18/M23 A3010 RMK AO2 SLPNO 53.3075° -60.4006°;02/24/2026 0015Z
METAR 300534066581040 232355Z AUTO 18003G04KT 6SM CLR M17/M23 A3011 RMK AO2 SLPNO 53.3075° -60.4006°;02/23/2026 2355Z
METAR 300534066581040 232335Z AUTO 17004G06KT 6SM CLR M17/M22 A3011 RMK AO2 SLPNO 53.3075° -60.4006°;02/23/2026 2335Z
METAR 300534066581040 232255Z AUTO 07003G04KT 6SM CLR M16/M23 A3010 RMK AO2 SLPNO 53.3075° -60.4006°;02/23/2026 2255Z
METAR 300534066581040 232235Z AUTO 07003G04KT 6SM CLR M16/M23 A3010 RMK AO2 SLPNO 53.3075° -60.4006°;02/23/2026 2235Z
METAR 300534066581040 232215Z AUTO 08004G06KT 6SM CLR M15/M23 A3010 RMK AO2 SLPNO 53.3075° -60.4006°;02/23/2026 2215Z
METAR 300534066581040 232155Z AUTO 08005G06KT 6SM CLR M13/M22 A3009 RMK AO2 SLPNO 53.3075° -60.4006°;02/23/2026 2155Z
METAR 300534066581040 232135Z AUTO 04003G04KT 6SM CLR M11/M21 A3009 RMK AO2 SLPNO 53.3075° -60.4006°;02/23/2026 2135Z
METAR 300534066581040 232115Z AUTO 09002G04KT 6SM CLR M10/M21 A3010 RMK AO2 SLPNO 53.3075° -60.4006°;02/23/2026 2115Z
METAR 300534066581040 232055Z AUTO 06003KT 6SM CLR M10/M21 A3009 RMK AO2 SLPNO 53.3075° -60.4006°;02/23/2026 2055Z
METAR 300534066581040 232035Z AUTO 10006G07KT 6SM CLR M10/M21 A3010 RMK AO2 SLPNO 53.3075° -60.4006°;02/23/2026 2035Z
METAR 300534066581040 232015Z AUTO 08005G07KT 6SM CLR M9/M20 A3010 RMK AO2 SLPNO 53.3075° -60.4006°;02/23/2026 2015Z
METAR 300534066581040 231955Z AUTO 07007G10KT 3SM CLR M9/M19 A3011 RMK AO2 SLPNO 53.3075° -60.4006°;02/23/2026 1955Z
METAR 300534066581040 231935Z AUTO 08005G09KT 6SM CLR M8/M20 A3012 RMK AO2 SLPNO 53.3075° -60.4006°;02/23/2026 1935Z
METAR 300534066581040 231915Z AUTO 10004G05KT 6SM CLR M8/M20 A3013 RMK AO2 SLPNO 53.3075° -60.4006°;02/23/2026 1915Z
METAR 300534066581040 231855Z AUTO 09004G06KT 6SM CLR M8/M20 A3013 RMK AO2 SLPNO 53.3075° -60.4006°;02/23/2026 1855Z
METAR 300534066581040 231835Z AUTO 10006G08KT 6SM CLR M8/M19 A3013 RMK AO2 SLPNO 53.3075° -60.4006°;02/23/2026 1835Z
METAR 300534066581040 231815Z AUTO 09005G07KT 6SM CLR M8/M19 A3012 RMK AO2 SLPNO 53.3075° -60.4006°;02/23/2026 1815Z
METAR 300534066581040 231755Z AUTO 08004G06KT 6SM CLR M7/M20 A3012 RMK AO2 SLPNO 53.3075° -60.4006°;02/23/2026 1755Z
METAR 300534066581040 231735Z AUTO 09005G09KT 6SM CLR M7/M21 A3013 RMK AO2 SLPNO 53.3075° -60.4006°;02/23/2026 1735Z
METAR 300534066581040 231715Z AUTO 13003G05KT 6SM CLR M4/M20 A3015 RMK AO2 SLPNO 53.3075° -60.4006°;02/23/2026 1715Z
METAR 300534066581040 231655Z AUTO 36001KT 6SM CLR M1/M19 A3015 RMK AO2 SLPNO 53.3075° -60.4006°;02/23/2026 1655Z
METAR 300534066581040 231635Z AUTO 36001G02KT 6SM CLR M5/M20 A3016 RMK AO2 SLPNO 53.3075° -60.4006°;02/23/2026 1635Z
METAR 300534066581040 231615Z AUTO 17002G04KT 6SM CLR M1/M19 A3017 RMK AO2 SLPNO 53.3075° -60.4006°;02/23/2026 1615Z
METAR 300534066581040 231555Z AUTO 36001KT 6SM CLR M2/M19 A3018 RMK AO2 SLPNO 53.3075° -60.4006°;02/23/2026 1555Z
METAR 300534066581040 231535Z AUTO 36001G02KT 6SM CLR M6/M19 A3019 RMK AO2 SLPNO 53.3075° -60.4006°;02/23/2026 1535Z
METAR 300534066581040 231515Z AUTO 12002G03KT 6SM CLR M10/M21 A3019 RMK AO2 SLPNO 53.3075° -60.4006°;02/23/2026 1515Z
METAR 300534066581040 231455Z AUTO 14003G04KT 6SM CLR M8/M20 A3019 RMK AO2 SLPNO 53.3075° -60.4006°;02/23/2026 1455Z
METAR 300534066581040 231435Z AUTO 36001G03KT 6SM CLR M9/M20 A3019 RMK AO2 SLPNO 53.3075° -60.4006°;02/23/2026 1435Z
METAR 300534066581040 231415Z AUTO 22004KT 6SM CLR M14/M22 A3020 RMK AO2 SLPNO 53.3075° -60.4006°;02/23/2026 1415Z
METAR 300534066581040 231355Z AUTO 23005G06KT 6SM CLR M15/M22 A3020 RMK AO2 SLPNO 53.3075° -60.4006°;02/23/2026 1355Z
METAR 300534066581040 231335Z AUTO 21005G06KT 6SM CLR M15/M23 A3020 RMK AO2 SLPNO 53.3075° -60.4006°;02/23/2026 1335Z
METAR 300534066581040 231315Z AUTO 24004G07KT 6SM CLR M16/M23 A3021 RMK AO2 SLPNO 53.3075° -60.4006°;02/23/2026 1315Z
METAR 300534066581040 231255Z AUTO 28005KT 6SM CLR M17/M24 A3021 RMK AO2 SLPNO 53.3075° -60.4006°;02/23/2026 1255Z
METAR 300534066581040 231235Z AUTO 27004G06KT 6SM CLR M18/M24 A3021 RMK AO2 SLPNO 53.3075° -60.4006°;02/23/2026 1235Z
METAR 300534066581040 231215Z AUTO 28004G05KT 6SM CLR M19/M25 A3021 RMK AO2 SLPNO 53.3075° -60.4006°;02/23/2026 1215Z
METAR 300534066581040 231155Z AUTO 28006G08KT 6SM CLR M20/M25 A3022 RMK AO2 SLPNO 53.3075° -60.4006°;02/23/2026 1155Z
METAR 300534066581040 231135Z AUTO 28006G07KT 6SM CLR M21/M25 A3022 RMK AO2 SLPNO 53.3075° -60.4006°;02/23/2026 1135Z
METAR 300534066581040 231115Z AUTO 29006G08KT 6SM CLR M20/M25 A3022 RMK AO2 SLPNO 53.3075° -60.4006°;02/23/2026 1115Z
METAR 300534066581040 231055Z AUTO 30005G07KT 6SM CLR M20/M25 A3022 RMK AO2 SLPNO 53.3075° -60.4006°;02/23/2026 1055Z
METAR 300534066581040 231035Z AUTO 28006G07KT 6SM CLR M20/M25 A3022 RMK AO2 SLPNO 53.3075° -60.4006°;02/23/2026 1035Z
METAR 300534066581040 231015Z AUTO 28005G07KT 6SM CLR M20/M25 A3022 RMK AO2 SLPNO 53.3075° -60.4006°;02/23/2026 1015Z
METAR 300534066581040 230955Z AUTO 29005G06KT 6SM CLR M20/M24 A3021 RMK AO2 SLPNO 53.3075° -60.4006°;02/23/2026 0955Z
METAR 300534066581040 230935Z AUTO 30007G09KT 6SM CLR M19/M24 A3021 RMK AO2 SLPNO 53.3075° -60.4006°;02/23/2026 0935Z
METAR 300534066581040 230915Z AUTO 30006G08KT 6SM CLR M20/M24 A3022 RMK AO2 SLPNO 53.3075° -60.4006°;02/23/2026 0915Z
METAR 300534066581040 230855Z AUTO 31003G05KT 6SM CLR M20/M24 A3022 RMK AO2 SLPNO 53.3075° -60.4006°;02/23/2026 0855Z
METAR 300534066581040 230835Z AUTO 27002G04KT 6SM CLR M20/M24 A3022 RMK AO2 SLPNO 53.3075° -60.4006°;02/23/2026 0835Z
METAR 300534066581040 230815Z AUTO 27003G04KT 6SM CLR M19/M24 A3022 RMK AO2 SLPNO 53.3075° -60.4006°;02/23/2026 0815Z
METAR 300534066581040 230755Z AUTO 29004G06KT 6SM CLR M19/M23 A3022 RMK AO2 SLPNO 53.3075° -60.4006°;02/23/2026 0755Z
METAR 300534066581040 230735Z AUTO 29004G05KT 6SM CLR M19/M23 A3021 RMK AO2 SLPNO 53.3075° -60.4006°;02/23/2026 0735Z
METAR 300534066581040 230715Z AUTO 30005G06KT 6SM CLR M19/M23 A3021 RMK AO2 SLPNO 53.3075° -60.4006°;02/23/2026 0715Z
METAR 300534066581040 230655Z AUTO 29005G07KT 6SM CLR M18/M23 A3021 RMK AO2 SLPNO 53.3075° -60.4006°;02/23/2026 0655Z
METAR 300534066581040 230635Z AUTO 29005G06KT 6SM CLR M18/M23 A3020 RMK AO2 SLPNO 53.3075° -60.4006°;02/23/2026 0635Z
METAR 300534066581040 230615Z AUTO 30005G06KT 6SM CLR M18/M22 A3020 RMK AO2 SLPNO 53.3075° -60.4006°;02/23/2026 0615Z
METAR 300534066581040 230555Z AUTO 30005G07KT 6SM CLR M18/M22 A3020 RMK AO2 SLPNO 53.3075° -60.4006°;02/23/2026 0555Z
METAR 300534066581040 230535Z AUTO 28004G05KT 6SM CLR M18/M22 A3019 RMK AO2 SLPNO 53.3075° -60.4006°;02/23/2026 0535Z
METAR 300534066581040 230515Z AUTO 28004G05KT 6SM CLR M17/M22 A3019 RMK AO2 SLPNO 53.3075° -60.4006°;02/23/2026 0515Z
METAR 300534066581040 230455Z AUTO 28005G06KT 6SM CLR M17/M21 A3019 RMK AO2 SLPNO 53.3075° -60.4006°;02/23/2026 0455Z
METAR 300534066581040 230435Z AUTO 28004G05KT 6SM CLR M17/M21 A3019 RMK AO2 SLPNO 53.3075° -60.4006°;02/23/2026 0435Z
METAR 300534066581040 230415Z AUTO 28004G06KT 6SM CLR M17/M21 A3019 RMK AO2 SLPNO 53.3075° -60.4006°;02/23/2026 0415Z
METAR 300534066581040 230355Z AUTO 31006G08KT 6SM CLR M16/M20 A3019 RMK AO2 SLPNO 53.3075° -60.4006°;02/23/2026 0355Z
METAR 300534066581040 230335Z AUTO 30005G08KT 6SM CLR M16/M20 A3019 RMK AO2 SLPNO 53.3075° -60.4006°;02/23/2026 0335Z
METAR 300534066581040 230315Z AUTO 29006G07KT 6SM CLR M16/M20 A3018 RMK AO2 SLPNO 53.3075° -60.4006°;02/23/2026 0315Z
METAR 300534066581040 230255Z AUTO 28005G06KT 6SM CLR M15/M20 A3019 RMK AO2 SLPNO 53.3075° -60.4006°;02/23/2026 0255Z
METAR 300534066581040 230235Z AUTO 28005G06KT 6SM CLR M15/M19 A3019 RMK AO2 SLPNO 53.3075° -60.4006°;02/23/2026 0235Z
METAR 300534066581040 230215Z AUTO 29006G07KT 6SM CLR M15/M18 A3020 RMK AO2 SLPNO 53.3075° -60.4006°;02/23/2026 0215Z
METAR 300534066581040 230155Z AUTO 28004G05KT 6SM CLR M15/M19 A3020 RMK AO2 SLPNO 53.3075° -60.4006°;02/23/2026 0155Z
METAR 300534066581040 230135Z AUTO 29004G05KT 6SM CLR M15/M19 A3020 RMK AO2 SLPNO 53.3075° -60.4006°;02/23/2026 0135Z
METAR 300534066581040 230115Z AUTO 28003G05KT 6SM CLR M16/M19 A3021 RMK AO2 SLPNO 53.3075° -60.4006°;02/23/2026 0115Z
METAR 300534066581040 230055Z AUTO 36001G02KT 6SM CLR M16/M19 A3021 RMK AO2 SLPNO 53.3075° -60.4006°;02/23/2026 0055Z
METAR 300534066581040 230035Z AUTO 27002G04KT 6SM CLR M16/M19 A3021 RMK AO2 SLPNO 53.3075° -60.4006°;02/23/2026 0035Z
METAR 300534066581040 230015Z AUTO 36001G02KT 6SM CLR M14/M18 A3021 RMK AO2 SLPNO 53.3075° -60.4006°;02/23/2026 0015Z
METAR 300534066581040 222355Z AUTO 32002KT 6SM CLR M13/M18 A3020 RMK AO2 SLPNO 53.3075° -60.4006°;02/22/2026 2355Z
METAR 300534066581040 222335Z AUTO 36002G03KT 6SM CLR M13/M18 A3021 RMK AO2 SLPNO 53.3075° -60.4006°;02/22/2026 2335Z
METAR 300534066581040 222315Z AUTO 01002G03KT 6SM CLR M14/M18 A3021 RMK AO2 SLPNO 53.3075° -60.4006°;02/22/2026 2315Z
METAR 300534066581040 222255Z AUTO 36001G02KT 6SM CLR M15/M19 A3021 RMK AO2 SLPNO 53.3075° -60.4006°;02/22/2026 2255Z
METAR 300534066581040 222235Z AUTO 00000KT 6SM CLR M14/M19 A3021 RMK AO2 SLPNO 53.3075° -60.4006°;02/22/2026 2235Z
METAR 300534066581040 222215Z AUTO 36001KT 6SM CLR M12/M18 A3021 RMK AO2 SLPNO 53.3075° -60.4006°;02/22/2026 2215Z
METAR 300534066581040 222155Z AUTO 36001KT 6SM CLR M10/M17 A3020 RMK AO2 SLPNO 53.3075° -60.4006°;02/22/2026 2155Z
METAR 300534066581040 222135Z AUTO 16002KT 6SM CLR M10/M17 A3020 RMK AO2 SLPNO 53.3075° -60.4006°;02/22/2026 2135Z
METAR 300534066581040 222115Z AUTO 14003KT 6SM CLR M10/M17 A3019 RMK AO2 SLPNO 53.3075° -60.4006°;02/22/2026 2115Z
METAR 300534066581040 222055Z AUTO 13003G04KT 6SM CLR M9/M17 A3019 RMK AO2 SLPNO 53.3075° -60.4006°;02/22/2026 2055Z
METAR 300534066581040 222035Z AUTO 13003G04KT 6SM CLR M9/M17 A3019 RMK AO2 SLPNO 53.3075° -60.4006°;02/22/2026 2035Z
METAR 300534066581040 222015Z AUTO 12004G05KT 6SM CLR M9/M17 A3019 RMK AO2 SLPNO 53.3075° -60.4006°;02/22/2026 2015Z
METAR 300534066581040 221955Z AUTO 14005KT 6SM CLR M8/M17 A3019 RMK AO2 SLPNO 53.3075° -60.4006°;02/22/2026 1955Z
METAR 300534066581040 221935Z AUTO 14005G06KT 6SM CLR M8/M17 A3019 RMK AO2 SLPNO 53.3075° -60.4006°;02/22/2026 1935Z
METAR 300534066581040 221915Z AUTO 12002G06KT 6SM CLR M3/M15 A3019 RMK AO2 SLPNO 53.3075° -60.4006°;02/22/2026 1915Z
METAR 300534066581040 221855Z AUTO 04002G04KT 6SM CLR M2/M15 A3019 RMK AO2 SLPNO 53.3075° -60.4006°;02/22/2026 1855Z
METAR 300534066581040 221835Z AUTO 06002G04KT 6SM CLR 00/M15 A3020 RMK AO2 SLPNO 53.3075° -60.4006°;02/22/2026 1835Z
METAR 300534066581040 221815Z AUTO 00000KT 6SM CLR M2/M15 A3020 RMK AO2 SLPNO 53.3075° -60.4006°;02/22/2026 1815Z
METAR 300534066581040 221755Z AUTO 36001G03KT 6SM CLR M3/M15 A3020 RMK AO2 SLPNO 53.3075° -60.4006°;02/22/2026 1755Z
METAR 300534066581040 221735Z AUTO 36001G03KT 6SM CLR M4/M15 A3020 RMK AO2 SLPNO 53.3075° -60.4006°;02/22/2026 1735Z
METAR 300534066581040 221715Z AUTO 27002G04KT 6SM CLR M4/M15 A3020 RMK AO2 SLPNO 53.3075° -60.4006°;02/22/2026 1715Z
METAR 300534066581040 221655Z AUTO 34002G04KT 6SM CLR M5/M15 A3021 RMK AO2 SLPNO 53.3075° -60.4006°;02/22/2026 1655Z
METAR 300534066581040 221635Z AUTO 36004G08KT 6SM ///026 M7/M16 A3020 RMK AO2 SLPNO 53.3075° -60.4006°;02/22/2026 1635Z
METAR 300534066581040 221615Z AUTO 35003G06KT 6SM ///025 ///026 M7/M16 A3021 RMK AO2 SLPNO 53.3075° -60.4006°;02/22/2026 1615Z
METAR 300534066581040 221555Z AUTO 34004G08KT 6SM ///024 ///026 M6/M15 A3022 RMK AO2 SLPNO 53.3075° -60.4006°;02/22/2026 1555Z
METAR 300534066581040 221535Z AUTO 35004G05KT 6SM ///023 ///024 M9/M16 A3023 RMK AO2 SLPNO 53.3075° -60.4006°;02/22/2026 1535Z
METAR 300534066581040 221515Z AUTO 31006KT 6SM ///021 M10/M16 A3023 RMK AO2 SLPNO 53.3075° -60.4006°;02/22/2026 1515Z
METAR 300534066581040 221455Z AUTO 34008G09KT 6SM ///021 M10/M16 A3024 RMK AO2 SLPNO 53.3075° -60.4006°;02/22/2026 1455Z
METAR 300534066581040 221435Z AUTO 35008G12KT 6SM ///021 M10/M16 A3023 RMK AO2 SLPNO 53.3075° -60.4006°;02/22/2026 1435Z
METAR 300534066581040 221415Z AUTO 35009G12KT 6SM ///021 ///022 ///023 M10/M16 A3024 RMK AO2 SLPNO 53.3075° -60.4006°;02/22/2026 1415Z
METAR 300534066581040 221355Z AUTO 35009G11KT 6SM ///020 ///021 ///022 M10/M16 A3024 RMK AO2 SLPNO 53.3075° -60.4006°;02/22/2026 1355Z
METAR 300534066581040 221335Z AUTO 36010G13KT 6SM ///021 ///022 M10/M16 A3023 RMK AO2 SLPNO 53.3075° -60.4006°;02/22/2026 1335Z
METAR 300534066581040 221315Z AUTO 35011G14KT 6SM ///021 ///022 M11/M16 A3023 RMK AO2 SLPNO 53.3075° -60.4006°;02/22/2026 1315Z
METAR 300534066581040 221301Z AUTO 35010G11KT 6SM CLR M11/M16 A3022 RMK AO2 SLPNO 53.3075° -60.4006°;02/22/2026 1301Z
METAR 300534066581040 221300Z AUTO 36009G10KT 010V360 6SM CLR M11/M16 A3023 RMK AO2 SLPNO 53.3075° -60.4006°;02/22/2026 1300Z
METAR 300534066581040 000000Z AUTO 34012G13KT 6SM CLR M11/M16 RMK AO2 SLPNO ;02/22/2026 1255Z
METAR 300534066581040 221202Z AUTO 01011KT 6SM CLR M11/M16 A3022 RMK AO2 SLPNO 53.3075° -60.4006°;02/22/2026 1202Z
METAR 300534066581040 221202Z AUTO 36009G10KT 6SM CLR M11/M16 A3022 RMK AO2 SLPNO 53.3075° -60.4006°;02/22/2026 1202Z
METAR 300534066581040 000000Z AUTO 01010G11KT 6SM CLR M11/M16 RMK AO2 SLPNO ;02/22/2026 1156Z
METAR 300534066581040 221020Z AUTO 35010G11KT 6SM CLR M10/M15 A3021 RMK AO2 SLPNO 53.3075° -60.4006°;02/22/2026 1020Z
METAR 300534066581040 221019Z AUTO 35012KT 6SM CLR M10/M15 A3020 RMK AO2 SLPNO 53.3075° -60.4006°;02/22/2026 1019Z
METAR 300534066581040 000000Z AUTO 35012G14KT 6SM CLR M10/M15 RMK AO2 SLPNO ;02/22/2026 1014Z
METAR 300534066581040 220855Z AUTO 35011G14KT 6SM ///024 M10/M14 A3019 RMK AO2 SLPNO 53.3075° -60.4006°;02/22/2026 0855Z
METAR 300534066581040 220835Z AUTO 35010G11KT 6SM ///022 ///023 ///024 M9/M14 A3019 RMK AO2 SLPNO 53.3075° -60.4006°;02/22/2026 0835Z
METAR 300534066581040 220815Z AUTO 35010G13KT 6SM ///025 ///026 M9/M13 A3019 RMK AO2 SLPNO 53.3075° -60.4006°;02/22/2026 0815Z
METAR 300534066581040 220755Z AUTO 01010G12KT 6SM ///024 ///025 ///026 M8/M13 A3018 RMK AO2 SLPNO 53.3075° -60.4006°;02/22/2026 0755Z
METAR 300534066581040 220735Z AUTO 01008G10KT 6SM ///024 ///025 M8/M12 A3018 RMK AO2 SLPNO 53.3075° -60.4006°;02/22/2026 0735Z
METAR 300534066581040 220715Z AUTO 01007G09KT 6SM ///023 ///024 ///026 M8/M12 A3018 RMK AO2 SLPNO 53.3075° -60.4006°;02/22/2026 0715Z
METAR 300534066581040 220655Z AUTO 01009G12KT 6SM ///023 ///024 ///026 M8/M12 A3018 RMK AO2 SLPNO 53.3075° -60.4006°;02/22/2026 0655Z
METAR 300534066581040 220635Z AUTO 01008G12KT 6SM ///022 ///023 M8/M12 A3017 RMK AO2 SLPNO 53.3075° -60.4006°;02/22/2026 0635Z
METAR 300534066581040 220615Z AUTO 03003G04KT 6SM ///018 ///021 ///022 ///023 M8/M12 A3017 RMK AO2 SLPNO 53.3075° -60.4006°;02/22/2026 0615Z
METAR 300534066581040 220555Z AUTO 02006G07KT 6SM ///019 ///021 ///023 M7/M12 A3016 RMK AO2 SLPNO 53.3075° -60.4006°;02/22/2026 0555Z
METAR 300534066581040 220535Z AUTO 02006G09KT 6SM ///002 ///020 ///021 ///022 M7/M12 A3016 RMK AO2 CLD LYR BLO 004 SLPNO 53.3075° -60.4006°;02/22/2026 0535Z
METAR 300534066581040 220515Z AUTO 01008G10KT 6SM ///019 M7/M12 A3016 RMK AO2 SLPNO 53.3075° -60.4006°;02/22/2026 0515Z
METAR 300534066581040 220455Z AUTO 01010G13KT 6SM ///018 ///019 M7/M12 A3016 RMK AO2 SLPNO 53.3075° -60.4006°;02/22/2026 0455Z
METAR 300534066581040 220435Z AUTO 02009G13KT 6SM ///017 ///018 ///019 M7/M12 A3016 RMK AO2 SLPNO 53.3075° -60.4006°;02/22/2026 0435Z
METAR 300534066581040 220415Z AUTO 03007G09KT 6SM ///019 M7/M12 A3015 RMK AO2 SLPNO 53.3075° -60.4006°;02/22/2026 0415Z
METAR 300534066581040 220355Z AUTO 03009G13KT 6SM ///019 M8/M12 A3015 RMK AO2 SLPNO 53.3075° -60.4006°;02/22/2026 0355Z
METAR 300534066581040 220335Z AUTO 02008G12KT 6SM ///018 ///019 ///020 M8/M12 A3015 RMK AO2 SLPNO 53.3075° -60.4006°;02/22/2026 0335Z
METAR 300534066581040 220315Z AUTO 01006G08KT 6SM ///020 ///021 ///022 M8/M12 A3014 RMK AO2 SLPNO 53.3075° -60.4006°;02/22/2026 0315Z
METAR 300534066581040 220255Z AUTO 01007KT 6SM ///024 ///025 ///026 M8/M12 A3015 RMK AO2 SLPNO 53.3075° -60.4006°;02/22/2026 0255Z
METAR 300534066581040 220235Z AUTO 36006G09KT 6SM ///028 ///029 M8/M12 A3015 RMK AO2 SLPNO 53.3075° -60.4006°;02/22/2026 0235Z
METAR 300534066581040 220215Z AUTO 36004G05KT 6SM ///026 ///029 ///030 M8/M12 A3015 RMK AO2 SLPNO 53.3075° -60.4006°;02/22/2026 0215Z
METAR 300534066581040 220155Z AUTO 36004G05KT 6SM ///028 M9/M13 A3015 RMK AO2 SLPNO 53.3075° -60.4006°;02/22/2026 0155Z
METAR 300534066581040 220135Z AUTO 36003G06KT 6SM ///027 ///028 M9/M12 A3015 RMK AO2 SLPNO 53.3075° -60.4006°;02/22/2026 0135Z
METAR 300534066581040 220115Z AUTO 36001G03KT 6SM ///030 ///031 M9/M13 A3015 RMK AO2 SLPNO 53.3075° -60.4006°;02/22/2026 0115Z
METAR 300534066581040 220055Z AUTO 01002G03KT 6SM ///021 ///022 ///026 ///031 M8/M12 A3015 RMK AO2 SLPNO 53.3075° -60.4006°;02/22/2026 0055Z
METAR 300534066581040 220035Z AUTO 33002G04KT 6SM ///023 ///024 ///032 ///033 M9/M13 A3015 RMK AO2 SLPNO 53.3075° -60.4006°;02/22/2026 0035Z
METAR 300534066581040 220015Z AUTO 06004G05KT 6SM CLR M8/M12 A3015 RMK AO2 SLPNO 53.3075° -60.4006°;02/22/2026 0015Z
METAR 300534066581040 212355Z AUTO 05004KT 6SM ///024 ///026 ///027 M7/M12 A3015 RMK AO2 SLPNO 53.3075° -60.4006°;02/21/2026 2355Z
METAR 300534066581040 212335Z AUTO 05007G11KT 6SM CLR M7/M12 A3014 RMK AO2 SLPNO 53.3075° -60.4006°;02/21/2026 2335Z
METAR 300534066581040 212315Z AUTO 04006G07KT 6SM CLR M7/M12 A3013 RMK AO2 SLPNO 53.3075° -60.4006°;02/21/2026 2315Z
METAR 300534066581040 212255Z AUTO 05007G11KT 6SM CLR M7/M12 A3013 RMK AO2 SLPNO 53.3075° -60.4006°;02/21/2026 2255Z
METAR 300534066581040 212235Z AUTO 03005G08KT 6SM ///023 M6/M11 A3012 RMK AO2 SLPNO 53.3075° -60.4006°;02/21/2026 2235Z
METAR 300534066581040 212215Z AUTO 04005KT 6SM ///025 ///026 ///031 ///033 M6/M11 A3012 RMK AO2 SLPNO 53.3075° -60.4006°;02/21/2026 2215Z
METAR 300534066581040 212155Z AUTO 03007G09KT 6SM ///023 ///024 ///031 M5/M10 A3012 RMK AO2 SLPNO 53.3075° -60.4006°;02/21/2026 2155Z
METAR 300534066581040 212135Z AUTO 02012G16KT 6SM ///023 ///031 M5/M10 A3011 RMK AO2 SLPNO 53.3075° -60.4006°;02/21/2026 2135Z
METAR 300534066581040 212115Z AUTO 01014G16KT 6SM ///028 ///029 M5/M10 A3010 RMK AO2 SLPNO 53.3075° -60.4006°;02/21/2026 2115Z
METAR 300534066581040 212055Z AUTO 02015G18KT 6SM ///022 ///028 ///029 ///031 M4/M9 A3008 RMK AO2 SLPNO 53.3075° -60.4006°;02/21/2026 2055Z
METAR 300534066581040 212035Z AUTO 01020G24KT 6SM ///027 ///028 ///030 ///031 M4/M9 A3007 RMK AO2 SLPNO 53.3075° -60.4006°;02/21/2026 2035Z
METAR 300534066581040 212015Z AUTO 01020G26KT 6SM ///065 M4/M9 A3006 RMK AO2 SLPNO MAX WND 01026KT 53.3075° -60.4006°;02/21/2026 2015Z
METAR 300534066581040 211955Z AUTO 36020G27KT 000V360 6SM CLR M4/M9 A3005 RMK AO2 SLPNO MAX WND 00027KT 53.3075° -60.4006°;02/21/2026 1955Z
METAR 300534066581040 211935Z AUTO 01021G29KT 6SM CLR M3/M8 A3004 RMK AO2 SLPNO MAX WND 01029KT 53.3075° -60.4006°;02/21/2026 1935Z
METAR 300534066581040 211915Z AUTO 02017G22KT 6SM ///060 M3/M8 A3003 RMK AO2 SLPNO 53.3075° -60.4006°;02/21/2026 1915Z
METAR 300534066581040 211855Z AUTO 01019G30KT 6SM ///028 ///060 M3/M8 A3003 RMK AO2 SLPNO MAX WND 01030KT 53.3075° -60.4006°;02/21/2026 1855Z
METAR 300534066581040 211835Z AUTO 02018G23KT 6SM ///060 M2/M8 A3002 RMK AO2 SLPNO 53.3075° -60.4006°;02/21/2026 1835Z
METAR 300534066581040 211815Z AUTO 01019G23KT 6SM ///030 ///065 M2/M8 A3001 RMK AO2 SLPNO 53.3075° -60.4006°;02/21/2026 1815Z
METAR 300534066581040 211755Z AUTO 01019G27KT 6SM ///060 M2/M8 A3000 RMK AO2 SLPNO MAX WND 01027KT 53.3075° -60.4006°;02/21/2026 1755Z
METAR 300534066581040 211735Z AUTO 02020G25KT 6SM ///060 ///065 M2/M8 A2999 RMK AO2 SLPNO 53.3075° -60.4006°;02/21/2026 1735Z
METAR 300534066581040 211715Z AUTO 02022G30KT 6SM ///026 ///031 M2/M8 A2999 RMK AO2 SLPNO MAX WND 02030KT 53.3075° -60.4006°;02/21/2026 1715Z
METAR 300534066581040 211655Z AUTO 02023G31KT 6SM ///065 M2/M7 A2997 RMK AO2 SLPNO MAX WND 02031KT 53.3075° -60.4006°;02/21/2026 1655Z
METAR 300534066581040 211635Z AUTO 01026G33KT 6SM ///028 ///029 ///033 M2/M7 A2997 RMK AO2 SLPNO MAX WND 00033KT 53.3075° -60.4006°;02/21/2026 1635Z
METAR 300534066581040 211615Z AUTO 02022G30KT 6SM ///025 ///026 ///028 ///030 M2/M7 A2997 RMK AO2 SLPNO MAX WND 02030KT 53.3075° -60.4006°;02/21/2026 1615Z
METAR 300534066581040 211555Z AUTO 01019G25KT 6SM ///032 ///033 M2/M7 A2996 RMK AO2 SLPNO MAX WND 01025KT 53.3075° -60.4006°;02/21/2026 1555Z
METAR 300534066581040 211535Z AUTO 01019G24KT 6SM ///027 ///028 ///029 ///030 M2/M7 A2996 RMK AO2 SLPNO 53.3075° -60.4006°;02/21/2026 1535Z
METAR 300534066581040 211515Z AUTO 01020G27KT 6SM ///029 ///031 ///060 ///065 M2/M7 A2996 RMK AO2 SLPNO MAX WND 01027KT 53.3075° -60.4006°;02/21/2026 1515Z
METAR 300534066581040 211455Z AUTO 01021G29KT 6SM ///028 ///065 M2/M7 A2995 RMK AO2 SLPNO MAX WND 01029KT 53.3075° -60.4006°;02/21/2026 1455Z
METAR 300534066581040 211435Z AUTO 01022G30KT 6SM ///029 ///030 ///031 M2/M7 A2995 RMK AO2 SLPNO MAX WND 01030KT 53.3075° -60.4006°;02/21/2026 1435Z
METAR 300534066581040 211415Z AUTO 01021G29KT 6SM ///019 ///020 ///022 ///025 M3/M7 A2994 RMK AO2 SLPNO MAX WND 01029KT 53.3075° -60.4006°;02/21/2026 1415Z
METAR 300534066581040 211355Z AUTO 01020G26KT 6SM ///020 ///021 ///028 ///029 M3/M7 A2994 RMK AO2 SLPNO MAX WND 01026KT 53.3075° -60.4006°;02/21/2026 1355Z
METAR 300534066581040 211335Z AUTO 01020G26KT 6SM ///021 ///022 ///023 ///028 M3/M7 A2993 RMK AO2 SLPNO MAX WND 01026KT 53.3075° -60.4006°;02/21/2026 1335Z
METAR 300534066581040 211315Z AUTO 01023G35KT 6SM ///065 M3/M7 A2992 RMK AO2 SLPNO MAX WND 01035KT 53.3075° -60.4006°;02/21/2026 1315Z
METAR 300534066581040 211255Z AUTO 01021G28KT 6SM ///022 M3/M7 A2992 RMK AO2 SLPNO MAX WND 01028KT 53.3075° -60.4006°;02/21/2026 1255Z
METAR 300534066581040 211235Z AUTO 01018G21KT 6SM ///022 ///024 ///025 M3/M7 A2992 RMK AO2 SLPNO 53.3075° -60.4006°;02/21/2026 1235Z
METAR 300534066581040 211215Z AUTO 01017G19KT 6SM ///021 ///024 ///026 ///028 M4/M8 A2991 RMK AO2 SLPNO 53.3075° -60.4006°;02/21/2026 1215Z
METAR 300534066581040 211155Z AUTO 01022G28KT 6SM ///021 ///022 ///027 ///034 M4/M7 A2991 RMK AO2 SLPNO MAX WND 01028KT 53.3075° -60.4006°;02/21/2026 1155Z
No METAR;02/21/2026 1136Z
METAR 300534066581040 211135Z AUTO 01019G25KT 6SM ///022 ///024 ///027 M4/M8 A2990 RMK AO2 SLPNO MAX WND 01025KT 53.3075° -60.4006°;02/21/2026 1135Z
METAR 300534066581040 211115Z AUTO 01018G23KT 6SM ///065 M4/M8 A2990 RMK AO2 SLPNO 53.3075° -60.4006°;02/21/2026 1115Z
METAR 300534066581040 211055Z AUTO 01017G20KT 6SM ///023 ///024 M4/M8 A2989 RMK AO2 SLPNO 53.3075° -60.4006°;02/21/2026 1055Z
METAR 300534066581040 211035Z AUTO 01018G22KT 6SM ///020 ///022 ///026 M4/M8 A2989 RMK AO2 SLPNO 53.3075° -60.4006°;02/21/2026 1035Z
METAR 300534066581040 211015Z AUTO 01020G27KT 6SM ///027 ///028 ///060 M4/M8 A2988 RMK AO2 SLPNO MAX WND 01027KT 53.3075° -60.4006°;02/21/2026 1015Z
METAR 300534066581040 210955Z AUTO 01020G27KT 6SM ///024 ///060 M4/M8 A2987 RMK AO2 SLPNO MAX WND 01027KT 53.3075° -60.4006°;02/21/2026 0955Z
METAR 300534066581040 210935Z AUTO 01017G21KT 6SM ///055 M4/M7 A2987 RMK AO2 SLPNO 53.3075° -60.4006°;02/21/2026 0935Z
METAR 300534066581040 210915Z AUTO 01017G21KT 6SM ///035 ///036 ///037 ///055 M4/M8 A2986 RMK AO2 SLPNO 53.3075° -60.4006°;02/21/2026 0915Z
METAR 300534066581040 210855Z AUTO 01018G25KT 6SM ///019 ///020 ///021 M4/M8 A2986 RMK AO2 SLPNO MAX WND 01025KT 53.3075° -60.4006°;02/21/2026 0855Z
METAR 300534066581040 210835Z AUTO 01020G28KT 6SM ///024 ///050 ///055 M4/M8 A2986 RMK AO2 SLPNO MAX WND 01028KT 53.3075° -60.4006°;02/21/2026 0835Z
METAR 300534066581040 210815Z AUTO 01018G22KT 6SM ///020 ///055 ///060 M4/M8 A2986 RMK AO2 SLPNO 53.3075° -60.4006°;02/21/2026 0815Z
METAR 300534066581040 210755Z AUTO 01019G25KT 6SM ///047 ///049 ///050 M4/M8 A2985 RMK AO2 SLPNO MAX WND 01025KT 53.3075° -60.4006°;02/21/2026 0755Z
METAR 300534066581040 210735Z AUTO 01019G23KT 6SM ///048 ///055 M5/M8 A2984 RMK AO2 SLPNO 53.3075° -60.4006°;02/21/2026 0735Z
METAR 300534066581040 210715Z AUTO 01021G27KT 6SM ///050 M5/M8 A2984 RMK AO2 SLPNO MAX WND 01027KT 53.3075° -60.4006°;02/21/2026 0715Z
METAR 300534066581040 210655Z AUTO 01020G30KT 6SM ///048 ///050 M5/M8 A2984 RMK AO2 SLPNO MAX WND 01030KT 53.3075° -60.4006°;02/21/2026 0655Z
METAR 300534066581040 210635Z AUTO 01015G17KT 6SM CLR M5/M8 A2983 RMK AO2 SLPNO 53.3075° -60.4006°;02/21/2026 0635Z
METAR 300534066581040 210615Z AUTO 01018G22KT 6SM CLR M5/M9 A2982 RMK AO2 SLPNO 53.3075° -60.4006°;02/21/2026 0615Z
METAR 300534066581040 210555Z AUTO 01015G23KT 6SM CLR M5/M9 A2983 RMK AO2 SLPNO MAX WND 01023KT 53.3075° -60.4006°;02/21/2026 0555Z
METAR 300534066581040 210535Z AUTO 01014G18KT 6SM CLR M5/M9 A2982 RMK AO2 SLPNO 53.3075° -60.4006°;02/21/2026 0535Z
METAR 300534066581040 210515Z AUTO 02012G15KT 6SM CLR M5/M9 A2982 RMK AO2 SLPNO 53.3075° -60.4006°;02/21/2026 0515Z
METAR 300534066581040 210455Z AUTO 01013G17KT 6SM CLR M5/M9 A2981 RMK AO2 SLPNO 53.3075° -60.4006°;02/21/2026 0455Z
METAR 300534066581040 210435Z AUTO 02011G15KT 6SM CLR M6/M9 A2982 RMK AO2 SLPNO 53.3075° -60.4006°;02/21/2026 0435Z
METAR 300534066581040 210415Z AUTO 01011G15KT 6SM CLR M6/M9 A2982 RMK AO2 SLPNO 53.3075° -60.4006°;02/21/2026 0415Z
METAR 300534066581040 210355Z AUTO 03010G15KT 6SM CLR M6/M9 A2982 RMK AO2 SLPNO 53.3075° -60.4006°;02/21/2026 0355Z
METAR 300534066581040 210335Z AUTO 03009G12KT 6SM CLR M5/M9 A2981 RMK AO2 SLPNO 53.3075° -60.4006°;02/21/2026 0335Z
METAR 300534066581040 210315Z AUTO 02009G11KT 6SM CLR M5/M9 A2980 RMK AO2 SLPNO 53.3075° -60.4006°;02/21/2026 0315Z
METAR 300534066581040 210255Z AUTO 01012G16KT 6SM CLR M5/M9 A2980 RMK AO2 SLPNO 53.3075° -60.4006°;02/21/2026 0255Z
METAR 300534066581040 210235Z AUTO 36014G17KT 6SM CLR M5/M9 A2980 RMK AO2 SLPNO 53.3075° -60.4006°;02/21/2026 0235Z
METAR 300534066581040 210215Z AUTO 01017G25KT 6SM CLR M5/M9 A2979 RMK AO2 SLPNO MAX WND 01025KT 53.3075° -60.4006°;02/21/2026 0215Z
METAR 300534066581040 210155Z AUTO 01013G16KT 6SM CLR M5/M9 A2979 RMK AO2 SLPNO 53.3075° -60.4006°;02/21/2026 0155Z
METAR 300534066581040 210135Z AUTO 02012G16KT 6SM CLR M5/M9 A2978 RMK AO2 SLPNO 53.3075° -60.4006°;02/21/2026 0135Z
METAR 300534066581040 210115Z AUTO 01010G15KT 6SM CLR M6/M9 A2978 RMK AO2 SLPNO 53.3075° -60.4006°;02/21/2026 0115Z
METAR 300534066581040 210055Z AUTO 36006G09KT 6SM CLR M6/M9 A2978 RMK AO2 SLPNO 53.3075° -60.4006°;02/21/2026 0055Z
METAR 300534066581040 210035Z AUTO 36004G06KT 6SM CLR M7/M9 A2978 RMK AO2 SLPNO 53.3075° -60.4006°;02/21/2026 0035Z
METAR 300534066581040 210015Z AUTO 27003G04KT 6SM CLR M8/M10 A2977 RMK AO2 SLPNO 53.3075° -60.4006°;02/21/2026 0015Z
METAR 300534066581040 202355Z AUTO 25003G04KT 6SM CLR M8/M11 A2977 RMK AO2 SLPNO 53.3075° -60.4006°;02/20/2026 2355Z
METAR 300534066581040 202335Z AUTO 36001G02KT 6SM CLR M9/M11 A2977 RMK AO2 SLPNO 53.3075° -60.4006°;02/20/2026 2335Z
METAR 300534066581040 202315Z AUTO 20002G03KT 6SM CLR M9/M11 A2977 RMK AO2 SLPNO 53.3075° -60.4006°;02/20/2026 2315Z
METAR 300534066581040 202255Z AUTO 22002KT 6SM CLR M9/M12 A2977 RMK AO2 SLPNO 53.3075° -60.4006°;02/20/2026 2255Z
METAR 300534066581040 202235Z AUTO 26004KT 6SM CLR M9/M12 A2976 RMK AO2 SLPNO 53.3075° -60.4006°;02/20/2026 2235Z
METAR 300534066581040 202215Z AUTO 26004G05KT 6SM CLR M9/M12 A2976 RMK AO2 SLPNO 53.3075° -60.4006°;02/20/2026 2215Z
METAR 300534066581040 202155Z AUTO 26004KT 6SM CLR M9/M12 A2976 RMK AO2 SLPNO 53.3075° -60.4006°;02/20/2026 2155Z
METAR 300534066581040 202135Z AUTO 25004G06KT 6SM CLR M9/M12 A2975 RMK AO2 SLPNO 53.3075° -60.4006°;02/20/2026 2135Z
METAR 300534066581040 202115Z AUTO 28005G06KT 6SM CLR M9/M12 A2975 RMK AO2 SLPNO 53.3075° -60.4006°;02/20/2026 2115Z
METAR 300534066581040 202055Z AUTO 29004G06KT 6SM CLR M9/M12 A2975 RMK AO2 SLPNO 53.3075° -60.4006°;02/20/2026 2055Z
METAR 300534066581040 202035Z AUTO 29004G06KT 6SM CLR M9/M13 A2975 RMK AO2 SLPNO 53.3075° -60.4006°;02/20/2026 2035Z
METAR 300534066581040 202015Z AUTO 31005G06KT 6SM CLR M9/M12 A2975 RMK AO2 SLPNO 53.3075° -60.4006°;02/20/2026 2015Z
METAR 300534066581040 201955Z AUTO 33006G07KT 6SM CLR M9/M12 A2975 RMK AO2 SLPNO 53.3075° -60.4006°;02/20/2026 1955Z
METAR 300534066581040 201935Z AUTO 34008G09KT 6SM CLR M9/M13 A2974 RMK AO2 SLPNO 53.3075° -60.4006°;02/20/2026 1935Z
METAR 300534066581040 201915Z AUTO 35008G12KT 6SM CLR M9/M13 A2975 RMK AO2 SLPNO 53.3075° -60.4006°;02/20/2026 1915Z
METAR 300534066581040 201855Z AUTO 33008G10KT 6SM CLR M9/M13 A2975 RMK AO2 SLPNO 53.3075° -60.4006°;02/20/2026 1855Z
METAR 300534066581040 201835Z AUTO 34007G09KT 6SM CLR M9/M13 A2974 RMK AO2 SLPNO 53.3075° -60.4006°;02/20/2026 1835Z
METAR 300534066581040 201815Z AUTO 33007G09KT 6SM CLR M10/M14 A2975 RMK AO2 SLPNO 53.3075° -60.4006°;02/20/2026 1815Z
METAR 300534066581040 201755Z AUTO 33007G10KT 6SM CLR M10/M14 A2975 RMK AO2 SLPNO 53.3075° -60.4006°;02/20/2026 1755Z
METAR 300534066581040 201735Z AUTO 34007G09KT 6SM CLR M10/M15 A2975 RMK AO2 SLPNO 53.3075° -60.4006°;02/20/2026 1735Z
METAR 300534066581040 201715Z AUTO 34007G08KT 6SM CLR M11/M15 A2975 RMK AO2 SLPNO 53.3075° -60.4006°;02/20/2026 1715Z
METAR 300534066581040 201655Z AUTO 34008G09KT 6SM CLR M11/M15 A2976 RMK AO2 SLPNO 53.3075° -60.4006°;02/20/2026 1655Z
METAR 300534066581040 201635Z AUTO 34009G11KT 6SM CLR M11/M15 A2977 RMK AO2 SLPNO 53.3075° -60.4006°;02/20/2026 1635Z
METAR 300534066581040 201615Z AUTO 34008G10KT 6SM CLR M11/M15 A2977 RMK AO2 SLPNO 53.3075° -60.4006°;02/20/2026 1615Z
METAR 300534066581040 201555Z AUTO 34009G11KT 6SM CLR M11/M15 A2977 RMK AO2 SLPNO 53.3075° -60.4006°;02/20/2026 1555Z
METAR 300534066581040 201535Z AUTO 33010G14KT 6SM CLR M12/M16 A2978 RMK AO2 SLPNO 53.3075° -60.4006°;02/20/2026 1535Z
METAR 300534066581040 201515Z AUTO 33008G10KT 6SM CLR M12/M16 A2979 RMK AO2 SLPNO 53.3075° -60.4006°;02/20/2026 1515Z
METAR 300534066581040 201455Z AUTO 34008G11KT 6SM CLR M12/M16 A2979 RMK AO2 SLPNO 53.3075° -60.4006°;02/20/2026 1455Z
METAR 300534066581040 201435Z AUTO 34008G10KT 6SM CLR M12/M16 A2979 RMK AO2 SLPNO 53.3075° -60.4006°;02/20/2026 1435Z
METAR 300534066581040 201415Z AUTO 32007G10KT 6SM CLR M13/M17 A2980 RMK AO2 SLPNO 53.3075° -60.4006°;02/20/2026 1415Z
METAR 300534066581040 201355Z AUTO 32007G08KT 6SM CLR M13/M17 A2981 RMK AO2 SLPNO 53.3075° -60.4006°;02/20/2026 1355Z
METAR 300534066581040 201335Z AUTO 31008G10KT 6SM CLR M13/M17 A2981 RMK AO2 SLPNO 53.3075° -60.4006°;02/20/2026 1335Z
METAR 300534066581040 201315Z AUTO 33008G10KT 6SM CLR M13/M17 A2982 RMK AO2 SLPNO 53.3075° -60.4006°;02/20/2026 1315Z
METAR 300534066581040 201255Z AUTO 32007G09KT 6SM CLR M14/M18 A2981 RMK AO2 SLPNO 53.3075° -60.4006°;02/20/2026 1255Z
METAR 300534066581040 201235Z AUTO 32008G11KT 6SM CLR M14/M18 A2981 RMK AO2 SLPNO 53.3075° -60.4006°;02/20/2026 1235Z
METAR 300534066581040 201215Z AUTO 32009G13KT 6SM CLR M14/M17 A2982 RMK AO2 SLPNO 53.3075° -60.4006°;02/20/2026 1215Z
METAR 300534066581040 201155Z AUTO 32009G11KT 6SM CLR M14/M17 A2982 RMK AO2 SLPNO 53.3075° -60.4006°;02/20/2026 1155Z
METAR 300534066581040 201135Z AUTO 29009G12KT 6SM CLR M14/M17 A2982 RMK AO2 SLPNO 53.3075° -60.4006°;02/20/2026 1135Z
METAR 300534066581040 201115Z AUTO 32008G12KT 6SM CLR M14/M17 A2981 RMK AO2 SLPNO 53.3075° -60.4006°;02/20/2026 1115Z
METAR 300534066581040 201055Z AUTO 29008G11KT 6SM CLR M14/M17 A2981 RMK AO2 SLPNO 53.3075° -60.4006°;02/20/2026 1055Z
METAR 300534066581040 201035Z AUTO 31007G09KT 6SM CLR M14/M17 A2981 RMK AO2 SLPNO 53.3075° -60.4006°;02/20/2026 1035Z
METAR 300534066581040 201015Z AUTO 31008G11KT 6SM CLR M14/M17 A2981 RMK AO2 SLPNO 53.3075° -60.4006°;02/20/2026 1015Z
METAR 300534066581040 200955Z AUTO 29007G11KT 6SM CLR M13/M17 A2981 RMK AO2 SLPNO 53.3075° -60.4006°;02/20/2026 0955Z
No METAR;02/20/2026 0936Z
METAR 300534066581040 200935Z AUTO 32010G15KT 6SM CLR M13/M17 A2981 RMK AO2 SLPNO 53.3075° -60.4006°;02/20/2026 0935Z
METAR 300534066581040 200915Z AUTO 32009G11KT 6SM CLR M13/M17 A2980 RMK AO2 SLPNO 53.3075° -60.4006°;02/20/2026 0915Z
METAR 300534066581040 200855Z AUTO 30009G13KT 6SM CLR M13/M16 A2980 RMK AO2 SLPNO 53.3075° -60.4006°;02/20/2026 0855Z
METAR 300534066581040 200835Z AUTO 31007G08KT 6SM CLR M13/M16 A2980 RMK AO2 SLPNO 53.3075° -60.4006°;02/20/2026 0835Z
METAR 300534066581040 200815Z AUTO 31007G08KT 6SM CLR M13/M16 A2979 RMK AO2 SLPNO 53.3075° -60.4006°;02/20/2026 0815Z
METAR 300534066581040 200755Z AUTO 29007G10KT 6SM CLR M12/M16 A2979 RMK AO2 SLPNO 53.3075° -60.4006°;02/20/2026 0755Z
METAR 300534066581040 200735Z AUTO 30008G13KT 6SM CLR M12/M16 A2978 RMK AO2 SLPNO 53.3075° -60.4006°;02/20/2026 0735Z
METAR 300534066581040 200715Z AUTO 28007G09KT 6SM CLR M12/M15 A2978 RMK AO2 SLPNO 53.3075° -60.4006°;02/20/2026 0715Z
METAR 300534066581040 200655Z AUTO 29008G10KT 6SM CLR M12/M15 A2978 RMK AO2 SLPNO 53.3075° -60.4006°;02/20/2026 0655Z
METAR 300534066581040 200635Z AUTO 29008G10KT 6SM CLR M12/M15 A2977 RMK AO2 SLPNO 53.3075° -60.4006°;02/20/2026 0635Z
METAR 300534066581040 200615Z AUTO 28010G14KT 6SM CLR M11/M15 A2977 RMK AO2 SLPNO 53.3075° -60.4006°;02/20/2026 0615Z
METAR 300534066581040 200555Z AUTO 28009G12KT 6SM CLR M11/M14 A2977 RMK AO2 SLPNO 53.3075° -60.4006°;02/20/2026 0555Z
METAR 300534066581040 200535Z AUTO 28011G15KT 6SM CLR M11/M14 A2977 RMK AO2 SLPNO 53.3075° -60.4006°;02/20/2026 0535Z
METAR 300534066581040 200515Z AUTO 28010G14KT 6SM CLR M11/M14 A2976 RMK AO2 SLPNO 53.3075° -60.4006°;02/20/2026 0515Z
METAR 300534066581040 200455Z AUTO 28009G11KT 6SM CLR M11/M14 A2976 RMK AO2 SLPNO 53.3075° -60.4006°;02/20/2026 0455Z
METAR 300534066581040 200435Z AUTO 28011G13KT 6SM CLR M10/M14 A2976 RMK AO2 SLPNO 53.3075° -60.4006°;02/20/2026 0435Z
METAR 300534066581040 200415Z AUTO 28011G14KT 6SM CLR M10/M14 A2976 RMK AO2 SLPNO 53.3075° -60.4006°;02/20/2026 0415Z
METAR 300534066581040 200355Z AUTO 28012G15KT 6SM CLR M10/M13 A2976 RMK AO2 SLPNO 53.3075° -60.4006°;02/20/2026 0355Z
METAR 300534066581040 200335Z AUTO 28009G12KT 6SM CLR M9/M13 A2976 RMK AO2 SLPNO 53.3075° -60.4006°;02/20/2026 0335Z
METAR 300534066581040 200315Z AUTO 30010G13KT 6SM CLR M9/M12 A2976 RMK AO2 SLPNO 53.3075° -60.4006°;02/20/2026 0315Z
METAR 300534066581040 200255Z AUTO 29010G6KT 6SM CLR M8/M12 A2975 RMK AO2 SLPNO 53.3075° -60.4006°;02/20/2026 0255Z
METAR 300534066581040 200235Z AUTO 30010G13KT 6SM CLR M8/M11 A2975 RMK AO2 SLPNO 53.3075° -60.4006°;02/20/2026 0235Z
METAR 300534066581040 200215Z AUTO 31009G12KT 6SM CLR M7/M10 A2975 RMK AO2 SLPNO 53.3075° -60.4006°;02/20/2026 0215Z
METAR 300534066581040 200155Z AUTO 31010G14KT 6SM CLR M6/M10 A2975 RMK AO2 SLPNO 53.3075° -60.4006°;02/20/2026 0155Z
METAR 300534066581040 200135Z AUTO 32009G12KT 6SM CLR M6/M9 A2975 RMK AO2 SLPNO 53.3075° -60.4006°;02/20/2026 0135Z
METAR 300534066581040 200115Z AUTO 33008G10KT 6SM CLR M6/M9 A2974 RMK AO2 SLPNO 53.3075° -60.4006°;02/20/2026 0115Z
METAR 300534066581040 200055Z AUTO 33008G10KT 6SM CLR M5/M9 A2974 RMK AO2 SLPNO 53.3075° -60.4006°;02/20/2026 0055Z
METAR 300534066581040 200035Z AUTO 33010G14KT 6SM CLR M5/M8 A2974 RMK AO2 SLPNO 53.3075° -60.4006°;02/20/2026 0035Z
METAR 300534066581040 200015Z AUTO 32008G11KT 6SM CLR M5/M8 A2974 RMK AO2 SLPNO 53.3075° -60.4006°;02/20/2026 0015Z
METAR 300534066581040 192355Z AUTO 32006G08KT 6SM CLR M5/M7 A2974 RMK AO2 SLPNO 53.3075° -60.4006°;02/19/2026 2355Z
METAR 300534066581040 192335Z AUTO 32004G06KT 6SM CLR M5/M7 A2973 RMK AO2 SLPNO 53.3075° -60.4006°;02/19/2026 2335Z
METAR 300534066581040 192315Z AUTO 31004KT 6SM ///002 M5/M7 A2973 RMK AO2 SLPNO 53.3075° -60.4006°;02/19/2026 2315Z
METAR 300534066581040 192255Z AUTO 31005G06KT 6SM ///002 M4/M8 A2973 RMK AO2 SLPNO 53.3075° -60.4006°;02/19/2026 2255Z
METAR 300534066581040 192235Z AUTO 31006G08KT 6SM CLR M4/M8 A2974 RMK AO2 SLPNO 53.3075° -60.4006°;02/19/2026 2235Z
METAR 300534066581040 192215Z AUTO 31005G06KT 6SM ///002 M4/M8 A2973 RMK AO2 SLPNO 53.3075° -60.4006°;02/19/2026 2215Z
METAR 300534066581040 192155Z AUTO 31005G07KT 6SM CLR M4/M8 A2973 RMK AO2 SLPNO 53.3075° -60.4006°;02/19/2026 2155Z
METAR 300534066581040 192135Z AUTO 30004G06KT 6SM ///002 M4/M8 A2973 RMK AO2 SLPNO 53.3075° -60.4006°;02/19/2026 2135Z
METAR 300534066581040 192115Z AUTO 31004G05KT 6SM ///002 ///004 M4/M8 A2972 RMK AO2 CLD LYR BLO 004 SLPNO 53.3075° -60.4006°;02/19/2026 2115Z
METAR 300534066581040 192055Z AUTO 29005G06KT 6SM ///003 ///006 M4/M7 A2972 RMK AO2 CLD LYR BLO 004 SLPNO 53.3075° -60.4006°;02/19/2026 2055Z
METAR 300534066581040 192035Z AUTO 29006G09KT 5SM ///001 ///002 M3/M7 A2971 RMK AO2 CLD LYR BLO 004 SLPNO 53.3075° -60.4006°;02/19/2026 2035Z
METAR 300534066581040 192015Z AUTO 28005G06KT 6SM ///002 ///006 ///016 M3/M7 A2971 RMK AO2 CLD LYR BLO 004 SLPNO 53.3075° -60.4006°;02/19/2026 2015Z
METAR 300534066581040 191955Z AUTO 31005KT 6SM CLR M2/M8 A2971 RMK AO2 SLPNO 53.3075° -60.4006°;02/19/2026 1955Z
METAR 300534066581040 191935Z AUTO 32006G08KT 6SM CLR M2/M8 A2971 RMK AO2 SLPNO 53.3075° -60.4006°;02/19/2026 1935Z
METAR 300534066581040 191915Z AUTO 33007G09KT 6SM CLR M2/M8 A2971 RMK AO2 SLPNO 53.3075° -60.4006°;02/19/2026 1915Z
METAR 300534066581040 191855Z AUTO 35005G07KT 6SM CLR M2/M9 A2971 RMK AO2 SLPNO 53.3075° -60.4006°;02/19/2026 1855Z
METAR 300534066581040 191835Z AUTO 33006G08KT 6SM ///029 ///031 M2/M9 A2970 RMK AO2 SLPNO 53.3075° -60.4006°;02/19/2026 1835Z
METAR 300534066581040 191815Z AUTO 34005G07KT 6SM CLR M2/M9 A2970 RMK AO2 SLPNO 53.3075° -60.4006°;02/19/2026 1815Z
METAR 300534066581040 191755Z AUTO 36005G07KT 6SM ///031 M2/M9 A2970 RMK AO2 SLPNO 53.3075° -60.4006°;02/19/2026 1755Z
METAR 300534066581040 191735Z AUTO 36005G06KT 6SM ///035 ///038 ///039 ///040 M2/M9 A2971 RMK AO2 SLPNO 53.3075° -60.4006°;02/19/2026 1735Z
METAR 300534066581040 191715Z AUTO 01006G10KT 6SM ///029 ///035 ///036 ///037 M2/M8 A2971 RMK AO2 SLPNO 53.3075° -60.4006°;02/19/2026 1715Z
METAR 300534066581040 191655Z AUTO 36005G10KT 6SM ///031 ///033 ///036 M1/M7 A2971 RMK AO2 SLPNO 53.3075° -60.4006°;02/19/2026 1655Z
METAR 300534066581040 191635Z AUTO 33003G04KT 6SM ///024 ///026 ///029 M2/M7 A2972 RMK AO2 SLPNO 53.3075° -60.4006°;02/19/2026 1635Z
METAR 300534066581040 191615Z AUTO 01004G06KT 6SM ///022 ///023 ///025 ///028 M2/M6 A2972 RMK AO2 SLPNO 53.3075° -60.4006°;02/19/2026 1615Z
METAR 300534066581040 191555Z AUTO 34003KT 6SM ///003 ///021 ///024 ///025 M2/M6 A2972 RMK AO2 CLD LYR BLO 004 SLPNO 53.3075° -60.4006°;02/19/2026 1555Z
METAR 300534066581040 191535Z AUTO 26007G14KT 6SM ///008 ///022 ///027 ///028 00/M5 A2973 RMK AO2 SLPNO MAX WND 26014KT 53.3075° -60.4006°;02/19/2026 1535Z
METAR 300534066581040 191515Z AUTO 28015G27KT 4SM ///003 ///026 ///027 M1/M6 A2973 RMK AO2 CLD LYR BLO 004 SLPNO MAX WND 28027KT 53.3075° -60.4006°;02/19/2026 1515Z
METAR 300534066581040 191455Z AUTO 32007G09KT 6SM ///001 ///002 ///006 ///034 M3/M9 A2973 RMK AO2 CLD LYR BLO 004 SLPNO 53.3075° -60.4006°;02/19/2026 1455Z
METAR 300534066581040 191435Z AUTO 32005G06KT 6SM ///004 ///036 ///037 M3/M9 A2974 RMK AO2 SLPNO 53.3075° -60.4006°;02/19/2026 1435Z
METAR 300534066581040 191415Z AUTO 32004G06KT 6SM ///001 ///002 ///006 M3/M9 A2974 RMK AO2 CLD LYR BLO 004 SLPNO 53.3075° -60.4006°;02/19/2026 1415Z
METAR 300534066581040 191355Z AUTO 29003G04KT 6SM ///006 ///040 M4/M9 A2974 RMK AO2 SLPNO 53.3075° -60.4006°;02/19/2026 1355Z
METAR 300534066581040 191335Z AUTO 28003G06KT 6SM ///031 ///032 ///033 ///037 M4/M9 A2974 RMK AO2 SLPNO 53.3075° -60.4006°;02/19/2026 1335Z
METAR 300534066581040 191315Z AUTO 28004G05KT 6SM ///033 ///034 ///035 M5/M9 A2974 RMK AO2 SLPNO 53.3075° -60.4006°;02/19/2026 1315Z
METAR 300534066581040 191255Z AUTO 27003G04KT 6SM ///030 ///032 ///033 M4/M8 A2975 RMK AO2 SLPNO 53.3075° -60.4006°;02/19/2026 1255Z
METAR 300534066581040 191235Z AUTO 25014G34KT 6SM ///035 ///036 ///037 M4/M9 A2975 RMK AO2 SLPNO MAX WND 25034KT 53.3075° -60.4006°;02/19/2026 1235Z
METAR 300534066581040 191215Z AUTO 31002G04KT 6SM ///035 M5/M10 A2975 RMK AO2 SLPNO 53.3075° -60.4006°;02/19/2026 1215Z
METAR 300534066581040 191155Z AUTO 33004KT 6SM ///035 M5/M10 A2974 RMK AO2 SLPNO 53.3075° -60.4006°;02/19/2026 1155Z
METAR 300534066581040 191135Z AUTO 30005G07KT 6SM ///035 ///036 ///037 M5/M10 A2974 RMK AO2 SLPNO 53.3075° -60.4006°;02/19/2026 1135Z
METAR 300534066581040 191115Z AUTO 32006G07KT 6SM ///036 ///037 ///038 M5/M10 A2973 RMK AO2 SLPNO 53.3075° -60.4006°;02/19/2026 1115Z
METAR 300534066581040 191055Z AUTO 32007G09KT 6SM ///036 ///037 ///038 M5/M10 A2973 RMK AO2 SLPNO 53.3075° -60.4006°;02/19/2026 1055Z
METAR 300534066581040 191035Z AUTO 32007G08KT 6SM ///036 ///037 ///038 M5/M10 A2973 RMK AO2 SLPNO 53.3075° -60.4006°;02/19/2026 1035Z
METAR 300534066581040 191015Z AUTO 32006G08KT 6SM ///036 ///037 M5/M10 A2974 RMK AO2 SLPNO 53.3075° -60.4006°;02/19/2026 1015Z
METAR 300534066581040 190955Z AUTO 32006G09KT 6SM ///035 ///036 ///037 M5/M10 A2974 RMK AO2 SLPNO 53.3075° -60.4006°;02/19/2026 0955Z
METAR 300534066581040 190935Z AUTO 33006G07KT 6SM ///036 ///037 M5/M10 A2974 RMK AO2 SLPNO 53.3075° -60.4006°;02/19/2026 0935Z
METAR 300534066581040 190915Z AUTO 32007G08KT 6SM ///035 ///036 ///037 M5/M10 A2974 RMK AO2 SLPNO 53.3075° -60.4006°;02/19/2026 0915Z
METAR 300534066581040 190855Z AUTO 33007G08KT 6SM ///036 ///037 M5/M10 A2974 RMK AO2 SLPNO 53.3075° -60.4006°;02/19/2026 0855Z
METAR 300534066581040 190835Z AUTO 34006G07KT 6SM ///035 ///036 M5/M10 A2974 RMK AO2 SLPNO 53.3075° -60.4006°;02/19/2026 0835Z
METAR 300534066581040 190815Z AUTO 34007G09KT 6SM ///035 ///036 M5/M10 A2974 RMK AO2 SLPNO 53.3075° -60.4006°;02/19/2026 0815Z
METAR 300534066581040 190755Z AUTO 33006G07KT 6SM ///033 ///034 ///035 M5/M10 A2974 RMK AO2 SLPNO 53.3075° -60.4006°;02/19/2026 0755Z
METAR 300534066581040 190735Z AUTO 35005G06KT 6SM ///031 ///032 M5/M10 A2974 RMK AO2 SLPNO 53.3075° -60.4006°;02/19/2026 0735Z
METAR 300534066581040 190715Z AUTO 34005G08KT 6SM ///031 M5/M10 A2974 RMK AO2 SLPNO 53.3075° -60.4006°;02/19/2026 0715Z
METAR 300534066581040 190655Z AUTO 34004G05KT 6SM ///031 ///032 M5/M10 A2974 RMK AO2 SLPNO 53.3075° -60.4006°;02/19/2026 0655Z
METAR 300534066581040 190635Z AUTO 34004G05KT 6SM ///031 M5/M11 A2974 RMK AO2 SLPNO 53.3075° -60.4006°;02/19/2026 0635Z
METAR 300534066581040 190615Z AUTO 35003G04KT 6SM ///030 ///031 M5/M11 A2974 RMK AO2 SLPNO 53.3075° -60.4006°;02/19/2026 0615Z
METAR 300534066581040 190555Z AUTO 36003G04KT 6SM ///030 ///032 ///033 M5/M11 A2974 RMK AO2 SLPNO 53.3075° -60.4006°;02/19/2026 0555Z
METAR 300534066581040 190535Z AUTO 01003G04KT 6SM ///031 ///032 ///033 M5/M10 A2974 RMK AO2 SLPNO 53.3075° -60.4006°;02/19/2026 0535Z
METAR 300534066581040 190515Z AUTO 01005G06KT 6SM ///032 ///033 M5/M10 A2974 RMK AO2 SLPNO 53.3075° -60.4006°;02/19/2026 0515Z
METAR 300534066581040 190455Z AUTO 36005G07KT 6SM ///033 ///034 M5/M10 A2974 RMK AO2 SLPNO 53.3075° -60.4006°;02/19/2026 0455Z
METAR 300534066581040 190435Z AUTO 34003G05KT 6SM ///033 ///034 M5/M9 A2974 RMK AO2 SLPNO 53.3075° -60.4006°;02/19/2026 0435Z
METAR 300534066581040 190415Z AUTO 36003G04KT 6SM ///033 ///034 ///035 M5/M9 A2974 RMK AO2 SLPNO 53.3075° -60.4006°;02/19/2026 0415Z
METAR 300534066581040 190355Z AUTO 01003KT 6SM ///031 ///032 ///035 M5/M9 A2974 RMK AO2 SLPNO 53.3075° -60.4006°;02/19/2026 0355Z
METAR 300534066581040 190335Z AUTO 01004KT 6SM ///029 ///030 ///031 M5/M9 A2975 RMK AO2 SLPNO 53.3075° -60.4006°;02/19/2026 0335Z
METAR 300534066581040 190315Z AUTO 01003G05KT 6SM ///025 ///027 ///028 M5/M9 A2975 RMK AO2 SLPNO 53.3075° -60.4006°;02/19/2026 0315Z
METAR 300534066581040 190255Z AUTO 03003KT 6SM ///026 ///027 ///028 M5/M9 A2975 RMK AO2 SLPNO 53.3075° -60.4006°;02/19/2026 0255Z
METAR 300534066581040 190235Z AUTO 03004G06KT 6SM ///033 ///034 ///035 M5/M9 A2976 RMK AO2 SLPNO 53.3075° -60.4006°;02/19/2026 0235Z
METAR 300534066581040 190215Z AUTO 03005G07KT 6SM ///030 ///031 ///033 M5/M9 A2976 RMK AO2 SLPNO 53.3075° -60.4006°;02/19/2026 0215Z
METAR 300534066581040 190155Z AUTO 04003G04KT 6SM ///032 ///034 ///036 M5/M10 A2977 RMK AO2 SLPNO 53.3075° -60.4006°;02/19/2026 0155Z
METAR 300534066581040 190135Z AUTO 05005G06KT 6SM ///032 ///033 M4/M10 A2977 RMK AO2 SLPNO 53.3075° -60.4006°;02/19/2026 0135Z
METAR 300534066581040 190115Z AUTO 04004KT 6SM ///031 ///032 M4/M9 A2977 RMK AO2 SLPNO 53.3075° -60.4006°;02/19/2026 0115Z
METAR 300534066581040 190055Z AUTO 05004G05KT 6SM ///031 ///032 ///033 M4/M9 A2978 RMK AO2 SLPNO 53.3075° -60.4006°;02/19/2026 0055Z
METAR 300534066581040 190035Z AUTO 04004G05KT 6SM ///035 ///036 ///038 M4/M9 A2978 RMK AO2 SLPNO 53.3075° -60.4006°;02/19/2026 0035Z
METAR 300534066581040 190015Z AUTO 05003G04KT 6SM ///035 ///036 ///037 M4/M9 A2977 RMK AO2 SLPNO 53.3075° -60.4006°;02/19/2026 0015Z
METAR 300534066581040 182355Z AUTO 04003KT 6SM ///033 ///034 ///035 M4/M9 A2978 RMK AO2 SLPNO 53.3075° -60.4006°;02/18/2026 2355Z
METAR 300534066581040 182335Z AUTO 06004KT 6SM ///031 ///032 M4/M9 A2978 RMK AO2 SLPNO 53.3075° -60.4006°;02/18/2026 2335Z
METAR 300534066581040 182315Z AUTO 06005G07KT 6SM ///030 M4/M9 A2978 RMK AO2 SLPNO 53.3075° -60.4006°;02/18/2026 2315Z
METAR 300534066581040 182255Z AUTO 06004G05KT 6SM ///030 M4/M9 A2978 RMK AO2 SLPNO 53.3075° -60.4006°;02/18/2026 2255Z
METAR 300534066581040 182235Z AUTO 06005G14KT 6SM ///032 ///033 M4/M9 A2978 RMK AO2 SLPNO 53.3075° -60.4006°;02/18/2026 2235Z
METAR 300534066581040 182215Z AUTO 06005KT 6SM ///033 M4/M9 A2977 RMK AO2 SLPNO 53.3075° -60.4006°;02/18/2026 2215Z
METAR 300534066581040 182155Z AUTO 05005G06KT 6SM ///033 ///034 M4/M9 A2977 RMK AO2 SLPNO 53.3075° -60.4006°;02/18/2026 2155Z
METAR 300534066581040 182135Z AUTO 06005G07KT 6SM ///033 ///034 M3/M8 A2977 RMK AO2 SLPNO 53.3075° -60.4006°;02/18/2026 2135Z
METAR 300534066581040 182115Z AUTO 05005G06KT 6SM ///033 ///034 M3/M8 A2977 RMK AO2 SLPNO 53.3075° -60.4006°;02/18/2026 2115Z
METAR 300534066581040 182055Z AUTO 05005G08KT 6SM ///030 ///031 ///033 M3/M8 A2976 RMK AO2 SLPNO 53.3075° -60.4006°;02/18/2026 2055Z
METAR 300534066581040 182035Z AUTO 07005G07KT 6SM ///031 ///032 M3/M9 A2976 RMK AO2 SLPNO 53.3075° -60.4006°;02/18/2026 2035Z
METAR 300534066581040 182015Z AUTO 07006G09KT 6SM ///029 ///030 ///031 M3/M8 A2976 RMK AO2 SLPNO 53.3075° -60.4006°;02/18/2026 2015Z
METAR 300534066581040 181955Z AUTO 06007G09KT 6SM ///031 ///032 ///033 M3/M8 A2976 RMK AO2 SLPNO 53.3075° -60.4006°;02/18/2026 1955Z
METAR 300534066581040 181935Z AUTO 07007G09KT 6SM ///030 ///031 M3/M8 A2976 RMK AO2 SLPNO 53.3075° -60.4006°;02/18/2026 1935Z
METAR 300534066581040 181915Z AUTO 08007G09KT 6SM ///031 M2/M8 A2976 RMK AO2 SLPNO 53.3075° -60.4006°;02/18/2026 1915Z
METAR 300534066581040 181855Z AUTO 07007G14KT 6SM ///030 ///031 M2/M8 A2976 RMK AO2 SLPNO 53.3075° -60.4006°;02/18/2026 1855Z
METAR 300534066581040 181835Z AUTO 06007G08KT 6SM ///031 ///032 M2/M8 A2976 RMK AO2 SLPNO 53.3075° -60.4006°;02/18/2026 1835Z
METAR 300534066581040 181815Z AUTO 07007G08KT 6SM ///032 ///035 M2/M8 A2977 RMK AO2 SLPNO 53.3075° -60.4006°;02/18/2026 1815Z
METAR 300534066581040 181755Z AUTO 06008G11KT 6SM ///031 ///032 ///033 M2/M8 A2977 RMK AO2 SLPNO 53.3075° -60.4006°;02/18/2026 1755Z
METAR 300534066581040 181735Z AUTO 07008G10KT 6SM ///027 ///031 ///032 M2/M8 A2977 RMK AO2 SLPNO 53.3075° -60.4006°;02/18/2026 1735Z
METAR 300534066581040 181715Z AUTO 06006G07KT 6SM ///023 ///027 M2/M8 A2977 RMK AO2 SLPNO 53.3075° -60.4006°;02/18/2026 1715Z
METAR 300534066581040 181705Z AUTO 05007G08KT 6SM ///022 ///023 M2/M8 A2978 RMK AO2 SLPNO 53.3075° -60.4006°;02/18/2026 1705Z
METAR 300534066581040 181655Z AUTO 08007G08KT 6SM ///020 ///021 M2/M8 A2978 RMK AO2 SLPNO 53.3075° -60.4006°;02/18/2026 1655Z
METAR 300534066581040 181650Z AUTO 07005KT 6SM ///021 M2/M8 A2978 RMK AO2 SLPNO 53.3075° -60.4006°;02/18/2026 1650Z
METAR 300534066581040 181645Z AUTO 06005G06KT 6SM ///021 M2/M8 A2978 RMK AO2 SLPNO 53.3075° -60.4006°;02/18/2026 1645Z
METAR 300534066581040 181640Z AUTO 04005G07KT 6SM ///021 M2/M8 A2978 RMK AO2 SLPNO 53.3075° -60.4006°;02/18/2026 1640Z
METAR 300534066581040 181635Z AUTO 07003KT 6SM ///002 ///021 M2/M8 A2979 RMK AO2 CLD LYR BLO 004 SLPNO 53.3075° -60.4006°;02/18/2026 1635Z
METAR 300534066581040 181630Z AUTO 08004KT 6SM ///020 ///021 M2/M8 A2979 RMK AO2 SLPNO 53.3075° -60.4006°;02/18/2026 1630Z
METAR 300534066581040 181625Z AUTO 08004G05KT 6SM ///020 M2/M8 A2979 RMK AO2 SLPNO 53.3075° -60.4006°;02/18/2026 1625Z
METAR 300534066581040 181620Z AUTO 08004G05KT 6SM ///019 ///020 M2/M8 A2979 RMK AO2 SLPNO 53.3075° -60.4006°;02/18/2026 1620Z
METAR 300534066581040 181615Z AUTO 07005G06KT 6SM ///019 M2/M8 A2979 RMK AO2 SLPNO 53.3075° -60.4006°;02/18/2026 1615Z
METAR 300534066581040 181555Z AUTO 08005G18KT 6SM ///018 M2/M8 A2980 RMK AO2 SLPNO 53.3075° -60.4006°;02/18/2026 1555Z
METAR 300534066581040 181535Z AUTO 07004G07KT 6SM ///017 ///018 M1/M8 A2981 RMK AO2 SLPNO 53.3075° -60.4006°;02/18/2026 1535Z
METAR 300534066581040 181515Z AUTO 01003G04KT 6SM ///002 ///018 ///019 M1/M8 A2981 RMK AO2 CLD LYR BLO 004 SLPNO 53.3075° -60.4006°;02/18/2026 1515Z
METAR 300534066581040 181455Z AUTO 34002G03KT 6SM ///019 ///055 M2/M8 A2981 RMK AO2 SLPNO 53.3075° -60.4006°;02/18/2026 1455Z
METAR 300534066581040 181435Z AUTO 33002G03KT 6SM ///055 M2/M8 A2982 RMK AO2 SLPNO 53.3075° -60.4006°;02/18/2026 1435Z
METAR 300534066581040 181415Z AUTO 36001G02KT 6SM ///055 M3/M8 A2982 RMK AO2 SLPNO 53.3075° -60.4006°;02/18/2026 1415Z
METAR 300534066581040 181355Z AUTO 01002G04KT 6SM ///029 ///055 M2/M8 A2983 RMK AO2 SLPNO 53.3075° -60.4006°;02/18/2026 1355Z
METAR 300534066581040 181335Z AUTO 36001G02KT 6SM ///003 ///027 ///029 ///031 M3/M9 A2983 RMK AO2 CLD LYR BLO 004 SLPNO 53.3075° -60.4006°;02/18/2026 1335Z
METAR 300534066581040 181315Z AUTO 00000KT 6SM ///027 ///028 M4/M9 A2983 RMK AO2 SLPNO 53.3075° -60.4006°;02/18/2026 1315Z
METAR 300534066581040 181255Z AUTO 19002KT 6SM ///026 ///027 M5/M9 A2984 RMK AO2 SLPNO 53.3075° -60.4006°;02/18/2026 1255Z
METAR 300534066581040 181235Z AUTO 18003G04KT 6SM ///026 M5/M10 A2984 RMK AO2 SLPNO 53.3075° -60.4006°;02/18/2026 1235Z
METAR 300534066581040 181215Z AUTO 19002KT 6SM CLR M5/M9 A2984 RMK AO2 SLPNO 53.3075° -60.4006°;02/18/2026 1215Z
No METAR;02/18/2026 1156Z
METAR 300534066581040 181155Z AUTO 19005G06KT 6SM ///017 ///018 ///021 M5/M9 A2984 RMK AO2 SLPNO 53.3075° -60.4006°;02/18/2026 1155Z
METAR 300534066581040 181135Z AUTO 20005G08KT 6SM ///018 M5/M9 A2984 RMK AO2 SLPNO 53.3075° -60.4006°;02/18/2026 1135Z
METAR 300534066581040 181115Z AUTO 19004G05KT 6SM CLR M6/M9 A2984 RMK AO2 SLPNO 53.3075° -60.4006°;02/18/2026 1115Z
METAR 300534066581040 181055Z AUTO 18003KT 6SM CLR M5/M9 A2984 RMK AO2 SLPNO 53.3075° -60.4006°;02/18/2026 1055Z
No METAR;02/18/2026 1036Z
METAR 300534066581040 181035Z AUTO 17002KT 6SM CLR M5/M9 A2984 RMK AO2 SLPNO 53.3075° -60.4006°;02/18/2026 1035Z
METAR 300534066581040 181015Z AUTO 36001G02KT 6SM CLR M5/M9 A2984 RMK AO2 SLPNO 53.3075° -60.4006°;02/18/2026 1015Z
METAR 300534066581040 180955Z AUTO 20002G04KT 6SM CLR M5/M9 A2984 RMK AO2 SLPNO 53.3075° -60.4006°;02/18/2026 0955Z
METAR 300534066581040 180935Z AUTO 20003G05KT 6SM CLR M5/M8 A2984 RMK AO2 SLPNO 53.3075° -60.4006°;02/18/2026 0935Z
No METAR;02/18/2026 0916Z
METAR 300534066581040 180915Z AUTO 21003G04KT 6SM CLR M5/M8 A2985 RMK AO2 SLPNO 53.3075° -60.4006°;02/18/2026 0915Z
METAR 300534066581040 180855Z AUTO 21003G04KT 6SM CLR M5/M8 A2985 RMK AO2 SLPNO 53.3075° -60.4006°;02/18/2026 0855Z
METAR 300534066581040 180835Z AUTO 20004G06KT 6SM CLR M5/M8 A2986 RMK AO2 SLPNO 53.3075° -60.4006°;02/18/2026 0835Z
METAR 300534066581040 180815Z AUTO 20004G06KT 6SM CLR M5/M8 A2986 RMK AO2 SLPNO 53.3075° -60.4006°;02/18/2026 0815Z
METAR 300534066581040 180755Z AUTO 19006G07KT 6SM CLR M5/M8 A2986 RMK AO2 SLPNO 53.3075° -60.4006°;02/18/2026 0755Z
METAR 300534066581040 180735Z AUTO 19005G06KT 6SM CLR M5/M8 A2986 RMK AO2 SLPNO 53.3075° -60.4006°;02/18/2026 0735Z
METAR 300534066581040 180715Z AUTO 19004G05KT 6SM CLR M5/M7 A2986 RMK AO2 SLPNO 53.3075° -60.4006°;02/18/2026 0715Z
METAR 300534066581040 180655Z AUTO 17003G04KT 6SM CLR M5/M7 A2986 RMK AO2 SLPNO 53.3075° -60.4006°;02/18/2026 0655Z
METAR 300534066581040 180635Z AUTO 36001G02KT 6SM CLR M4/M7 A2987 RMK AO2 SLPNO 53.3075° -60.4006°;02/18/2026 0635Z
METAR 300534066581040 180615Z AUTO 36001KT 6SM ///002 M4/M7 A2987 RMK AO2 SLPNO 53.3075° -60.4006°;02/18/2026 0615Z
METAR 300534066581040 180555Z AUTO 36001G02KT 6SM ///002 M4/M7 A2987 RMK AO2 SLPNO 53.3075° -60.4006°;02/18/2026 0555Z
METAR 300534066581040 180535Z AUTO 20003G04KT 6SM ///002 M3/M8 A2988 RMK AO2 SLPNO 53.3075° -60.4006°;02/18/2026 0535Z
METAR 300534066581040 180515Z AUTO 19003G05KT 6SM ///033 M3/M8 A2988 RMK AO2 SLPNO 53.3075° -60.4006°;02/18/2026 0515Z
METAR 300534066581040 180455Z AUTO 19003G04KT 6SM ///039 M3/M7 A2988 RMK AO2 SLPNO 53.3075° -60.4006°;02/18/2026 0455Z
METAR 300534066581040 180435Z AUTO 18002G03KT 6SM ///031 ///032 ///033 ///034 M3/M7 A2989 RMK AO2 SLPNO 53.3075° -60.4006°;02/18/2026 0435Z
METAR 300534066581040 180415Z AUTO 25002G03KT 6SM ///033 ///034 M3/M8 A2989 RMK AO2 SLPNO 53.3075° -60.4006°;02/18/2026 0415Z
METAR 300534066581040 180355Z AUTO 26003KT 6SM ///031 ///033 M3/M8 A2990 RMK AO2 SLPNO 53.3075° -60.4006°;02/18/2026 0355Z
METAR 300534066581040 180335Z AUTO 26002G03KT 6SM ///032 ///033 M3/M7 A2990 RMK AO2 SLPNO 53.3075° -60.4006°;02/18/2026 0335Z
METAR 300534066581040 180315Z AUTO 22003KT 6SM ///033 ///034 ///035 M3/M8 A2991 RMK AO2 SLPNO 53.3075° -60.4006°;02/18/2026 0315Z
METAR 300534066581040 180255Z AUTO 25004G05KT 6SM ///033 ///035 M3/M8 A2991 RMK AO2 SLPNO 53.3075° -60.4006°;02/18/2026 0255Z
METAR 300534066581040 180235Z AUTO 27003G04KT 6SM ///032 ///033 ///035 M3/M7 A2991 RMK AO2 SLPNO 53.3075° -60.4006°;02/18/2026 0235Z
METAR 300534066581040 180215Z AUTO 28003KT 6SM ///031 ///033 M3/M7 A2991 RMK AO2 SLPNO 53.3075° -60.4006°;02/18/2026 0215Z
METAR 300534066581040 180155Z AUTO 28006G08KT 6SM ///031 ///032 ///033 ///037 M2/M7 A2991 RMK AO2 SLPNO 53.3075° -60.4006°;02/18/2026 0155Z
METAR 300534066581040 180135Z AUTO 27006G10KT 6SM ///033 ///036 ///037 M3/M7 A2992 RMK AO2 SLPNO 53.3075° -60.4006°;02/18/2026 0135Z
METAR 300534066581040 180115Z AUTO 36001G02KT 6SM ///035 ///040 ///041 M3/M8 A2992 RMK AO2 SLPNO 53.3075° -60.4006°;02/18/2026 0115Z
METAR 300534066581040 180055Z AUTO 30002G03KT 6SM ///036 ///040 ///042 M3/M8 A2992 RMK AO2 SLPNO 53.3075° -60.4006°;02/18/2026 0055Z
METAR 300534066581040 180035Z AUTO 36001G05KT 6SM ///035 ///037 ///038 ///042 M3/M8 A2992 RMK AO2 SLPNO 53.3075° -60.4006°;02/18/2026 0035Z
METAR 300534066581040 180015Z AUTO 06003KT 6SM ///041 ///042 ///043 ///044 M3/M8 A2992 RMK AO2 SLPNO 53.3075° -60.4006°;02/18/2026 0015Z
METAR 300534066581040 172355Z AUTO 04003G04KT 6SM ///042 ///043 M2/M9 A2992 RMK AO2 SLPNO 53.3075° -60.4006°;02/17/2026 2355Z
METAR 300534066581040 172335Z AUTO 08004G05KT 6SM ///043 ///044 ///045 M2/M9 A2993 RMK AO2 SLPNO 53.3075° -60.4006°;02/17/2026 2335Z
METAR 300534066581040 172315Z AUTO 07003G04KT 6SM ///046 ///047 M2/M9 A2993 RMK AO2 SLPNO 53.3075° -60.4006°;02/17/2026 2315Z
METAR 300534066581040 172255Z AUTO 07003KT 6SM ///045 ///047 ///048 M2/M9 A2993 RMK AO2 SLPNO 53.3075° -60.4006°;02/17/2026 2255Z
METAR 300534066581040 172235Z AUTO 07003G05KT 6SM ///048 ///049 M2/M8 A2994 RMK AO2 SLPNO 53.3075° -60.4006°;02/17/2026 2235Z
METAR 300534066581040 172215Z AUTO 04002G04KT 6SM ///046 ///048 ///050 M2/M8 A2995 RMK AO2 SLPNO 53.3075° -60.4006°;02/17/2026 2215Z
METAR 300534066581040 172155Z AUTO 01002G04KT 6SM ///046 ///047 ///048 M1/M8 A2995 RMK AO2 SLPNO 53.3075° -60.4006°;02/17/2026 2155Z
METAR 300534066581040 172135Z AUTO 36001G02KT 6SM ///046 M1/M8 A2995 RMK AO2 SLPNO 53.3075° -60.4006°;02/17/2026 2135Z
METAR 300534066581040 172115Z AUTO 36001KT 6SM ///043 ///044 00/M8 A2995 RMK AO2 SLPNO 53.3075° -60.4006°;02/17/2026 2115Z
METAR 300534066581040 172055Z AUTO 00000KT 6SM ///042 ///044 00/M8 A2995 RMK AO2 SLPNO 53.3075° -60.4006°;02/17/2026 2055Z
METAR 300534066581040 172035Z AUTO 36001KT 6SM ///042 ///043 00/M8 A2995 RMK AO2 SLPNO 53.3075° -60.4006°;02/17/2026 2035Z
METAR 300534066581040 172015Z AUTO 36001KT 6SM ///042 ///044 00/M8 A2995 RMK AO2 SLPNO 53.3075° -60.4006°;02/17/2026 2015Z
METAR 300534066581040 171955Z AUTO 19003KT 6SM ///041 ///042 ///044 00/M8 A2996 RMK AO2 SLPNO 53.3075° -60.4006°;02/17/2026 1955Z
METAR 300534066581040 171935Z AUTO 19003G04KT 6SM ///040 ///041 ///042 00/M8 A2996 RMK AO2 SLPNO 53.3075° -60.4006°;02/17/2026 1935Z
METAR 300534066581040 171915Z AUTO 21003KT 6SM ///036 ///040 ///042 01/M8 A2996 RMK AO2 SLPNO 53.3075° -60.4006°;02/17/2026 1915Z
METAR 300534066581040 171855Z AUTO 26003G05KT 6SM ///040 ///041 00/M8 A2996 RMK AO2 SLPNO 53.3075° -60.4006°;02/17/2026 1855Z
METAR 300534066581040 171835Z AUTO 26005G07KT 6SM ///040 ///041 ///042 00/M8 A2997 RMK AO2 SLPNO 53.3075° -60.4006°;02/17/2026 1835Z
METAR 300534066581040 171815Z AUTO 23008G10KT 6SM ///008 ///037 ///038 ///040 00/M8 A2997 RMK AO2 SLPNO 53.3075° -60.4006°;02/17/2026 1815Z
METAR 300534066581040 171755Z AUTO 23011G16KT 6SM ///036 ///037 ///038 ///039 00/M9 A2998 RMK AO2 SLPNO 53.3075° -60.4006°;02/17/2026 1755Z
METAR 300534066581040 171735Z AUTO 23009G15KT 6SM ///039 ///040 00/M8 A2999 RMK AO2 SLPNO MAX WND 23015KT 53.3075° -60.4006°;02/17/2026 1735Z
METAR 300534066581040 171715Z AUTO 19005G07KT 6SM ///033 ///037 ///040 M1/M8 A3000 RMK AO2 SLPNO 53.3075° -60.4006°;02/17/2026 1715Z
METAR 300534066581040 171655Z AUTO 19006G08KT 6SM ///035 ///036 ///037 ///038 M1/M8 A3001 RMK AO2 SLPNO 53.3075° -60.4006°;02/17/2026 1655Z
METAR 300534066581040 171635Z AUTO 19009G13KT 6SM ///033 ///037 ///038 ///040 M1/M8 A3002 RMK AO2 SLPNO 53.3075° -60.4006°;02/17/2026 1635Z
METAR 300534066581040 171615Z AUTO 19008G10KT 6SM ///039 ///043 M1/M8 A3002 RMK AO2 SLPNO 53.3075° -60.4006°;02/17/2026 1615Z
METAR 300534066581040 171555Z AUTO 19006G09KT 6SM ///042 ///044 M1/M8 A3003 RMK AO2 SLPNO 53.3075° -60.4006°;02/17/2026 1555Z
METAR 300534066581040 171535Z AUTO 19006G08KT 6SM ///043 ///044 M1/M8 A3004 RMK AO2 SLPNO 53.3075° -60.4006°;02/17/2026 1535Z
METAR 300534066581040 171515Z AUTO 19007G09KT 6SM ///043 ///044 M2/M8 A3005 RMK AO2 SLPNO 53.3075° -60.4006°;02/17/2026 1515Z
METAR 300534066581040 171455Z AUTO 19004G06KT 6SM ///042 ///043 ///044 M2/M8 A3006 RMK AO2 SLPNO 53.3075° -60.4006°;02/17/2026 1455Z
METAR 300534066581040 171435Z AUTO 18003G05KT 6SM ///040 ///042 ///043 M2/M8 A3006 RMK AO2 SLPNO 53.3075° -60.4006°;02/17/2026 1435Z
METAR 300534066581040 171415Z AUTO 21003KT 6SM ///037 ///038 ///041 ///043 M2/M8 A3007 RMK AO2 SLPNO 53.3075° -60.4006°;02/17/2026 1415Z
METAR 300534066581040 171355Z AUTO 24004G07KT 6SM ///042 M3/M8 A3007 RMK AO2 SLPNO 53.3075° -60.4006°;02/17/2026 1355Z
METAR 300534066581040 171335Z AUTO 23002G03KT 6SM ///045 M3/M8 A3007 RMK AO2 SLPNO 53.3075° -60.4006°;02/17/2026 1335Z
METAR 300534066581040 171315Z AUTO 20002KT 6SM ///036 ///042 M4/M8 A3007 RMK AO2 SLPNO 53.3075° -60.4006°;02/17/2026 1315Z
METAR 300534066581040 171255Z AUTO 23002G03KT 6SM ///036 M4/M8 A3007 RMK AO2 SLPNO 53.3075° -60.4006°;02/17/2026 1255Z
METAR 300534066581040 171235Z AUTO 24004KT 6SM CLR M5/M8 A3008 RMK AO2 SLPNO 53.3075° -60.4006°;02/17/2026 1235Z
METAR 300534066581040 171215Z AUTO 21003G04KT 6SM ///046 M5/M8 A3008 RMK AO2 SLPNO 53.3075° -60.4006°;02/17/2026 1215Z
METAR 300534066581040 171155Z AUTO 21002G04KT 6SM ///042 ///043 M5/M8 A3008 RMK AO2 SLPNO 53.3075° -60.4006°;02/17/2026 1155Z
No METAR;02/17/2026 1136Z
METAR 300534066581040 171135Z AUTO 20002KT 6SM ///042 M6/M8 A3008 RMK AO2 SLPNO 53.3075° -60.4006°;02/17/2026 1135Z
METAR 300534066581040 171115Z AUTO 22002G03KT 6SM ///042 ///043 ///044 M6/M9 A3008 RMK AO2 SLPNO 53.3075° -60.4006°;02/17/2026 1115Z
METAR 300534066581040 171055Z AUTO 25002KT 6SM ///042 ///044 M6/M9 A3007 RMK AO2 SLPNO 53.3075° -60.4006°;02/17/2026 1055Z
METAR 300534066581040 171035Z AUTO 25002G04KT 6SM ///044 ///045 M7/M9 A3007 RMK AO2 SLPNO 53.3075° -60.4006°;02/17/2026 1035Z
METAR 300534066581040 171015Z AUTO 36001KT 6SM ///046 ///047 ///048 M7/M9 A3007 RMK AO2 SLPNO 53.3075° -60.4006°;02/17/2026 1015Z
METAR 300534066581040 170955Z AUTO 36001G02KT 6SM ///047 M7/M9 A3008 RMK AO2 SLPNO 53.3075° -60.4006°;02/17/2026 0955Z
METAR 300534066581040 170935Z AUTO 00000KT 6SM ///047 ///048 M7/M9 A3008 RMK AO2 SLPNO 53.3075° -60.4006°;02/17/2026 0935Z
METAR 300534066581040 170915Z AUTO 00000KT 6SM ///046 M7/M9 A3008 RMK AO2 SLPNO 53.3075° -60.4006°;02/17/2026 0915Z
METAR 300534066581040 170855Z AUTO 00000KT 6SM ///047 M7/M9 A3008 RMK AO2 SLPNO 53.3075° -60.4006°;02/17/2026 0855Z
METAR 300534066581040 170835Z AUTO 36001KT 6SM ///047 ///048 M7/M9 A3008 RMK AO2 SLPNO 53.3075° -60.4006°;02/17/2026 0835Z
METAR 300534066581040 170815Z AUTO 25002KT 6SM CLR M7/M9 A3008 RMK AO2 SLPNO 53.3075° -60.4006°;02/17/2026 0815Z
METAR 300534066581040 170755Z AUTO 36001G02KT 6SM ///048 M7/M9 A3008 RMK AO2 SLPNO 53.3075° -60.4006°;02/17/2026 0755Z
METAR 300534066581040 170735Z AUTO 36001G03KT 6SM ///048 ///049 M7/M9 A3008 RMK AO2 SLPNO 53.3075° -60.4006°;02/17/2026 0735Z
METAR 300534066581040 170715Z AUTO 32002KT 6SM ///049 M7/M9 A3008 RMK AO2 SLPNO 53.3075° -60.4006°;02/17/2026 0715Z
METAR 300534066581040 170655Z AUTO 36001G02KT 6SM ///047 ///048 M7/M9 A3009 RMK AO2 SLPNO 53.3075° -60.4006°;02/17/2026 0655Z
METAR 300534066581040 170635Z AUTO 36001G02KT 6SM ///047 M7/M9 A3009 RMK AO2 SLPNO 53.3075° -60.4006°;02/17/2026 0635Z
METAR 300534066581040 170615Z AUTO 36001G02KT 6SM CLR M6/M9 A3009 RMK AO2 SLPNO 53.3075° -60.4006°;02/17/2026 0615Z
METAR 300534066581040 170555Z AUTO 36001KT 6SM ///032 M6/M9 A3009 RMK AO2 SLPNO 53.3075° -60.4006°;02/17/2026 0555Z
METAR 300534066581040 170535Z AUTO 36001G02KT 6SM ///035 M7/M9 A3009 RMK AO2 SLPNO 53.3075° -60.4006°;02/17/2026 0535Z
METAR 300534066581040 170515Z AUTO 00000KT 6SM ///049 M7/M9 A3010 RMK AO2 SLPNO 53.3075° -60.4006°;02/17/2026 0515Z
METAR 300534066581040 170455Z AUTO 36001KT 6SM ///046 ///047 M7/M9 A3010 RMK AO2 SLPNO 53.3075° -60.4006°;02/17/2026 0455Z
METAR 300534066581040 170435Z AUTO 02002G03KT 6SM ///046 ///048 M6/M9 A3011 RMK AO2 SLPNO 53.3075° -60.4006°;02/17/2026 0435Z
METAR 300534066581040 170415Z AUTO 36001G04KT 6SM ///043 ///046 M7/M9 A3011 RMK AO2 SLPNO 53.3075° -60.4006°;02/17/2026 0415Z
METAR 300534066581040 170355Z AUTO 36001G04KT 6SM ///045 M6/M9 A3011 RMK AO2 SLPNO 53.3075° -60.4006°;02/17/2026 0355Z
METAR 300534066581040 170335Z AUTO 36001G04KT 6SM ///045 ///046 M6/M9 A3011 RMK AO2 SLPNO 53.3075° -60.4006°;02/17/2026 0335Z
METAR 300534066581040 170315Z AUTO 36001G02KT 6SM ///045 ///046 M6/M9 A3011 RMK AO2 SLPNO 53.3075° -60.4006°;02/17/2026 0315Z
METAR 300534066581040 170255Z AUTO 36001KT 6SM ///046 M6/M9 A3012 RMK AO2 SLPNO 53.3075° -60.4006°;02/17/2026 0255Z
METAR 300534066581040 170235Z AUTO 00000KT 6SM ///046 M6/M9 A3012 RMK AO2 SLPNO 53.3075° -60.4006°;02/17/2026 0235Z
METAR 300534066581040 170215Z AUTO 19002KT 6SM ///046 M7/M10 A3013 RMK AO2 SLPNO 53.3075° -60.4006°;02/17/2026 0215Z
METAR 300534066581040 170155Z AUTO 36001KT 6SM CLR M7/M10 A3013 RMK AO2 SLPNO 53.3075° -60.4006°;02/17/2026 0155Z
METAR 300534066581040 170135Z AUTO 36001G02KT 6SM ///047 M7/M10 A3013 RMK AO2 SLPNO 53.3075° -60.4006°;02/17/2026 0135Z
METAR 300534066581040 170115Z AUTO 36001KT 6SM CLR M6/M10 A3013 RMK AO2 SLPNO 53.3075° -60.4006°;02/17/2026 0115Z
METAR 300534066581040 170055Z AUTO 00000KT 6SM CLR M6/M10 A3013 RMK AO2 SLPNO 53.3075° -60.4006°;02/17/2026 0055Z
METAR 300534066581040 170035Z AUTO 34002G03KT 6SM CLR M6/M10 A3014 RMK AO2 SLPNO 53.3075° -60.4006°;02/17/2026 0035Z
METAR 300534066581040 170015Z AUTO 29002G03KT 6SM ///040 M6/M10 A3014 RMK AO2 SLPNO 53.3075° -60.4006°;02/17/2026 0015Z