SPECI CYYR 260021Z 06007KT 4SM -SN BR SCT006 OVC023 M10/M11 A2984 RMK SF3SC5 DENSITY ALT -2799FT SLP111=

METAR CYYR 260000Z 06006KT 3SM -SN BR OVC026 M10/M11 A2985 RMK SC8 DENSITY ALT -2811FT SLP113=

METAR CYYR 252300Z 06005KT 3SM -SN OVC037 M10/M11 A2986 RMK SC8 DENSITY ALT -2823FT /S01/ SLP116=

METAR CYYR 252200Z 07004KT 5SM -SN FEW011 BKN035 OVC047 M10/M11 A2986 RMK SF1SC5SC3 DENSITY ALT -2823FT SLP117=

SPECI CYYR 252141Z 06006KT 6SM -SN FEW013 BKN038 OVC046 M10/M11 A2986 RMK SF1SC5SC3 DENSITY ALT -2824FT SLP118=

SPECI CYYR 252108Z 07008KT 3SM -SN FEW040 OVC046 M10/M11 A2986 RMK SC2SC6 DENSITY ALT -2797FT SLP116=

METAR CYYR 252100Z 06009KT 2SM -SN FEW035 OVC046 M10/M12 A2986 RMK SC2SC6 DENSITY ALT -2798FT SLP117=

SPECI CYYR 252044Z 06009KT 5SM -SN FEW032 OVC047 M10/M12 A2986 RMK SC1SC7 DENSITY ALT -2798FT SLP116=

METAR CYYR 252000Z 06010KT 12SM -SN SCT042 BKN065 BKN075 M10/M12 A2986 RMK SC3SC3AC1 DENSITY ALT -2799FT SLP115=

METAR CYYR 251900Z 07009KT 7SM -SN FEW035 BKN042 BKN048 M08/M12 A2986 RMK SC2SC3SC2 DENSITY ALT -2653FT SLP115=

SPECI CYYR 251832Z 07009KT 4SM -SN FEW017 FEW037 BKN045 M08/M12 A2986 RMK SC1SC1SC6 DENSITY ALT -2599FT SLP115=

SPECI CYYR 251816Z 07007KT 2 1/2SM -SN FEW017 BKN032 M07/M12 A2986 RMK SC2SC5 DENSITY ALT -2493FT SLP116=

METAR CYYR 251800Z 04007KT 7SM -SN FEW017 BKN034 M07/M12 A2986 RMK SC2SC5 DENSITY ALT -2429FT SLP117=

METAR CYYR 251700Z 05006KT 7SM -SN FEW020 FEW025 BKN032 BKN041 M06/M12 A2986 RMK SC1SC2SC4SC1 DENSITY ALT -2364FT SLP115=

METAR CYYR 251600Z 02003KT 7SM -SN FEW016 FEW022 BKN042 M05/M13 A2986 RMK SC1SC2SC5 DENSITY ALT -2260FT SLP115=

SPECI CYYR 251551Z 02002KT 6SM -SN FEW016 SCT021 BKN042 M06/M13 A2986 RMK SC1SC2SC4 DENSITY ALT -2366FT SLP115=

METAR CYYR 251500Z 05003KT 5SM -SN FEW018 BKN024 BKN041 BKN140 M07/M14 A2985 RMK SC2SC3SC1AS1 DENSITY ALT -2487FT SLP114=

METAR CYYR 251400Z 31006KT 4SM -SN BKN022 BKN140 M10/M15 A2984 RMK SC5AS2 DENSITY ALT -2902FT SLP109=

SPECI CYYR 251349Z 32006KT 8SM -SN BKN022 BKN140 M11/M15 A2984 RMK SC5AS2 DENSITY ALT -2929FT SLP109=

METAR CYYR 251300Z 31007KT 12SM -SN FEW018 SCT024 BKN140 BKN220 M12/M15 A2983 RMK SC2SC2AS1CS2 DENSITY ALT -3119FT VIS LWR S QUAD HALO SLP106=

METAR CYYR 251200Z 32010KT 12SM -SN FEW013 BKN022 BKN240 M14/M16 A2982 RMK SF1SC5CI2 DENSITY ALT -3339FT SLP102=

SPECI CYYR 251132Z 32009KT 8SM -SN FEW013 BKN023 M14/M17 A2980 RMK SF1SC6 DENSITY ALT -3370FT SLP097=

SPECI CYYR 251120Z 32011KT 4SM -SN FEW013 BKN023 M14/M16 A2980 RMK SF2SC5 DENSITY ALT -3370FT SLP095=

METAR CYYR 251100Z 32011KT 2SM -SN SCT015 BKN025 M14/M16 A2979 RMK SC3SC4 DENSITY ALT -3331FT SLP093=

SPECI CYYR 251038Z 31011KT 2 1/2SM -SN BKN015 OVC024 M14/M16 A2978 RMK SC5SC3 DENSITY ALT -3305FT SLP091=

SPECI CYYR 251024Z 31010KT 5SM -SN FEW016 BKN024 OVC036 M14/M16 A2978 RMK SC2SC5SC1 DENSITY ALT -3292FT SLP089=

METAR CYYR 251000Z 32011KT 6SM -SN BKN025 OVC034 M14/M16 A2978 RMK SC7SC1 DENSITY ALT -3265FT SLP088=

METAR CYYR 250900Z 32013KT 8SM -SN FEW015 OVC025 M14/M17 A2976 RMK SC2SC6 DENSITY ALT -3228FT SLP083=

METAR CYYR 250800Z 31010KT 8SM -SN SCT015 OVC027 M14/M16 A2974 RMK SC3SC5 DENSITY ALT -3204FT SLP075=

SPECI CYYR 250728Z 31012KT 8SM -SN SCT015 OVC028 M14/M16 A2973 RMK SC4SC4 DENSITY ALT -3206FT SLP072=

METAR CYYR 250700Z 32012KT 5SM -SN BKN015 OVC025 M14/M16 A2972 RMK SC5SC3 DENSITY ALT -3194FT /S01/ SLP069=

SPECI CYYR 250646Z 31012KT 8SM -SN BKN015 OVC025 M14/M16 A2972 RMK SC5SC3 DENSITY ALT -3194FT SLP068=

METAR CYYR 250600Z 31011KT 3SM -SN BKN014 OVC023 M14/M16 A2971 RMK SC5SC3 DENSITY ALT -3195FT /S05/ SLP066=

SPECI CYYR 250525Z 31010KT 4SM -SN BKN014 OVC023 M14/M16 A2970 RMK SC5SC3 DENSITY ALT -3170FT SLP063=

METAR CYYR 250500Z 30009KT 6SM -SN OVC023 M14/M16 A2970 RMK SC8 DENSITY ALT -3157FT SLP062=

SPECI CYYR 250447Z 30008KT 8SM -SN OVC023 M14/M16 A2970 RMK SC8 DENSITY ALT -3157FT SLP061=

METAR CYYR 250400Z 30008KT 8SM -SN OVC025 M13/M16 A2969 RMK SC8 DENSITY ALT -3118FT SLP059=

SPECI CYYR 250344Z 31009KT 8SM -SN OVC022 M13/M16 A2969 RMK SC8 DENSITY ALT -3118FT SLP058=

METAR CYYR 250300Z 31010KT 4SM -SN BKN018 OVC028 M13/M16 A2968 RMK SC5SC3 DENSITY ALT -3106FT /S04/ SLP057=

SPECI CYYR 250233Z 31010KT 4SM -SN BKN016 OVC030 M13/M16 A2968 RMK SC6SC2 DENSITY ALT -3105FT SLP056=

METAR CYYR 250200Z 32010KT 2 1/2SM -SN BKN020 OVC032 M13/M16 A2967 RMK SC6SC2 DENSITY ALT -3107FT /S03/ SLP053=

METAR CYYR 250100Z 32009KT 2SM -SN BKN020 OVC032 M13/M15 A2967 RMK SC7SC1 DENSITY ALT -3079FT /S02/ SLP051=

METAR CYYR 250000Z 32010KT 2SM -SN OVC021 M13/M15 A2967 RMK SC8 DENSITY ALT -3024FT /S05/ SLP051=

METAR CYYR 242300Z 35011G16KT 1 1/2SM -SN DRSN OVC020 M12/M14 A2965 RMK SN2SC6 DENSITY ALT -2892FT /S04/ SLP047=

SPECI CYYR 242228Z 35011KT 1 1/2SM -SN DRSN OVC017 M12/M14 A2965 RMK SN2SC6 DENSITY ALT -2878FT SLP046=

METAR CYYR 242200Z 34012KT 1 1/4SM -SN DRSN BKN017 OVC023 M12/M14 A2965 RMK SN4SC3SC1 DENSITY ALT -2850FT /S03/ SLP044=

SPECI CYYR 242150Z 35011G17KT 1SM -SN DRSN OVC017 M12/M14 A2964 RMK SN5SC3 DENSITY ALT -2825FT SLP042=

METAR CYYR 242100Z 36013G19KT 1SM -SN DRSN BKN010 OVC022 M11/M13 A2963 RMK SN4SF3SC1 DENSITY ALT -2691FT CIG EST SLP038=

SPECI CYYR 242042Z 36012G17KT 1 1/4SM -SN DRSN OVC010 M11/M13 A2963 RMK SN3SF5 DENSITY ALT -2664FT CIG EST SLP038=

SPECI CYYR 242016Z 36012G19KT 1 3/4SM -SN DRSN BKN010 OVC020 M10/M12 A2962 RMK SN2SF5SC1 DENSITY ALT -2611FT SLP037=

METAR CYYR 242000Z 36012G20KT 1SM -SN DRSN OVC010 M10/M12 A2962 RMK SN4SF4 DENSITY ALT -2584FT CIG EST /S02/ SLP037=

SPECI CYYR 241943Z 36011G16KT 1SM -SN DRSN OVC010 M10/M12 A2963 RMK SN4SF4 DENSITY ALT -2569FT CIG EST SLP038=

SPECI CYYR 241912Z 36014KT 1 1/2SM -SN DRSN BKN010 OVC022 M10/M12 A2963 RMK SN2SF5SC1 DENSITY ALT -2569FT SLP038=

METAR CYYR 241900Z 01016G23KT 1SM -SN DRSN OVC010 M10/M12 A2963 RMK SN4SF4 DENSITY ALT -2570FT CIG EST /S01/ SLP038=

SPECI CYYR 241838Z 36014G21KT 1SM -SN DRSN OVC010 M09/M13 A2963 RMK SN4SF4 DENSITY ALT -2517FT CIG EST SLP038=

METAR CYYR 241800Z 36013G19KT 1 3/4SM -SN BKN010 OVC020 M09/M13 A2964 RMK SN1SF5SC2 DENSITY ALT -2502FT CIG EST SLP041=

SPECI CYYR 241729Z 36014G19KT 1 1/2SM -SN OVC010 M09/M12 A2964 RMK SN2SF6 DENSITY ALT -2515FT CIG EST SLP043=

METAR CYYR 241700Z 36015G21KT 1SM -SN OVC010 M09/M12 A2965 RMK SN4SF4 DENSITY ALT -2526FT CIG EST /S06/ SUN DIMLY VISBL SLP046=

SPECI CYYR 241629Z 36013G22KT 1SM -SN OVC010 M10/M12 A2967 RMK SN4SF4 DENSITY ALT -2576FT CIG EST SLP053=

METAR CYYR 241600Z 36015KT 3/4SM -SN VV005 M09/M12 A2969 RMK SN8 DENSITY ALT -2559FT CIG EST /S05/ SLP058=

SPECI CYYR 241512Z 36013KT 3/4SM -SN VV008 M09/M12 A2971 RMK SN8 DENSITY ALT -2597FT CIG EST SLP066=

METAR CYYR 241500Z 36012KT 1SM -SN OVC016 M09/M12 A2972 RMK SN6SC2 DENSITY ALT -2621FT CIG EST /S03/ SLP068=

SPECI CYYR 241435Z 36009G15KT 1SM -SN OVC018 M10/M13 A2973 RMK SN5SC3 DENSITY ALT -2702FT CIG EST SLP072=

METAR CYYR 241400Z 01010KT 2SM -SN BKN018 OVC027 M11/M13 A2975 RMK SN2SC4SC2 DENSITY ALT -2887FT /S02/ SLP081=

SPECI CYYR 241345Z 36006KT 1 1/4SM -SN BKN018 OVC027 M12/M14 A2976 RMK SN3SC4SC1 DENSITY ALT -3021FT SLP084=

SPECI CYYR 241329Z 01007KT 3/4SM -SN OVC019 M13/M15 A2977 RMK SN6SC2 DENSITY ALT -3114FT VIS VRB 1/2-1 SLP086=

SPECI CYYR 241308Z 36006KT 3/4SM -SN VV005 M13/M15 A2978 RMK SN8 DENSITY ALT -3209FT VIS VRB 1/2-1 SLP090=

METAR CYYR 241300Z 34005KT 1/2SM SN VV005 M14/M16 A2978 RMK SN8 DENSITY ALT -3250FT /S01/ SLP092=

SPECI CYYR 241247Z 33004KT 5/8SM -SN VV005 M14/M16 A2979 RMK SN8 DENSITY ALT -3317FT SLP094=

SPECI CYYR 241230Z 32004KT 5/8SM -SN OVC017 M14/M16 A2980 RMK SN7SC1 DENSITY ALT -3397FT SLP096=

SPECI CYYR 241221Z 30002KT 1/2SM SN BKN014 OVC019 M15/M17 A2980 RMK SN6SF1SC1 DENSITY ALT -3493FT SLP098=

SPECI CYYR 241210Z 00000KT 3/4SM -SN OVC019 M16/M18 A2981 RMK SN6SC2 DENSITY ALT -3616FT SLP100=

METAR CYYR 241200Z 22005KT 2SM -SN OVC018 M16/M18 A2982 RMK SN2SC6 DENSITY ALT -3670FT /S01/ SLP103=

SPECI CYYR 241154Z 22005KT 2SM -SN OVC018 M16/M18 A2982 RMK SN2SC6 DENSITY ALT -3670FT SLP104=

METAR CYYR 241100Z 22004KT 3SM -SN OVC016 M17/M19 A2985 RMK SC8 DENSITY ALT -3844FT SLP113=

SPECI CYYR 241025Z 24003KT 5SM -SN BKN016 OVC030 M17/M20 A2986 RMK SC7SC1 DENSITY ALT -3870FT SLP118=

METAR CYYR 241000Z 19002KT 10SM -SN BKN015 OVC030 M17/M20 A2988 RMK SC7SC1 DENSITY ALT -3894FT SLP124=

METAR CYYR 240900Z 18002KT 15SM -SN BKN023 OVC032 M18/M20 A2992 RMK SC7SC1 DENSITY ALT -3983FT SLP135=

SPECI CYYR 240828Z 17003KT 15SM -SN OVC023 M19/M21 A2993 RMK SC8 DENSITY ALT -4148FT SLP141=

METAR CYYR 240800Z 27006KT 15SM OVC021 M19/M22 A2995 RMK SC8 DENSITY ALT -4271FT SLP146=

SPECI CYYR 240726Z 30005KT 15SM BKN020 BKN210 M20/M22 A2997 RMK SC6CS1 DENSITY ALT -4378FT SLP154=

METAR CYYR 240700Z 29004KT 15SM FEW025 BKN210 M22/M24 A2999 RMK SC1CS7 DENSITY ALT -4700FT FROIN SLP161=

METAR CYYR 240600Z 29003KT 15SM BKN220 M22/M24 A3002 RMK CI7 DENSITY ALT -4735FT SLP172=

METAR CYYR 240500Z 32002KT 15SM BKN220 M21/M23 A3005 RMK CI6 DENSITY ALT -4600FT FROIN SLP180=

METAR CYYR 240400Z 15002KT 15SM BKN220 M20/M22 A3007 RMK CI6 DENSITY ALT -4496FT SLP187=

METAR CYYR 240300Z 19002KT 15SM BKN220 M21/M23 A3008 RMK CI5 DENSITY ALT -4593FT SLP190=

METAR CYYR 240200Z 20003KT 15SM FEW240 M22/M25 A3011 RMK CI1 DENSITY ALT -4841FT SLP200=

METAR CYYR 240100Z 23004KT 15SM FEW240 M20/M23 A3013 RMK CI1 DENSITY ALT -4624FT SLP210=

METAR CYYR 240000Z 14004KT 15SM FEW240 M18/M22 A3014 RMK CI2 DENSITY ALT -4327FT SLP214=

METAR CYYR 232300Z 04005KT 15SM FEW240 M17/M22 A3014 RMK CI1 DENSITY ALT -4132FT SLP212=

METAR CYYR 232200Z 06006KT 15SM FEW240 M14/M21 A3015 RMK CI1 DENSITY ALT -3705FT SLP215=

METAR CYYR 232100Z 04004KT 15SM FEW240 M10/M20 A3014 RMK CI1 DENSITY ALT -3206FT SLP212=

METAR CYYR 232000Z 04008KT 15SM FEW240 M08/M19 A3015 RMK CI1 DENSITY ALT -2964FT SLP216=

METAR CYYR 231900Z 06006KT 15SM SKC M07/M18 A3018 RMK DENSITY ALT -2892FT SLP225=

METAR CYYR 231800Z 07005KT 15SM SKC M07/M19 A3016 RMK DENSITY ALT -2778FT SLP220=

METAR CYYR 231700Z 14004KT 15SM SKC M04/M19 A3019 RMK DENSITY ALT -2434FT SLP228=

METAR CYYR 231600Z 00000KT 15SM SKC M04/M20 A3021 RMK DENSITY ALT -2497FT SLP236=

METAR CYYR 231500Z 14003KT 15SM SKC M09/M19 A3024 RMK DENSITY ALT -3188FT SLP246=

METAR CYYR 231400Z 20004KT 15SM FEW240 M12/M19 A3025 RMK CI1 DENSITY ALT -3629FT SLP248=

METAR CYYR 231300Z 26006KT 15SM FEW240 M16/M22 A3025 RMK CI1 DENSITY ALT -4179FT SLP251=

METAR CYYR 231200Z 26008KT 15SM FEW240 M20/M24 A3025 RMK CI1 DENSITY ALT -4695FT SLP251=

METAR CYYR 231100Z 28008KT 15SM FEW240 M21/M24 A3026 RMK CI1 DENSITY ALT -4889FT SLP252=

METAR CYYR 231000Z 27007KT 15SM FEW250 M20/M24 A3025 RMK CI1 DENSITY ALT -4737FT SLP251=

METAR CYYR 230900Z 28007KT 15SM SKC M21/M24 A3025 RMK DENSITY ALT -4779FT AURBO SLP249=

METAR CYYR 230800Z 27008KT 15SM SKC M20/M23 A3026 RMK DENSITY ALT -4719FT AURBO SLP251=

METAR CYYR 230700Z 27008KT 15SM SKC M19/M22 A3025 RMK DENSITY ALT -4497FT AURBO SLP249=

METAR CYYR 230600Z 28007KT 15SM SKC M18/M21 A3023 RMK DENSITY ALT -4459FT AURBO SLP243=

METAR CYYR 230500Z 28007KT 15SM SKC M18/M21 A3023 RMK DENSITY ALT -4347FT AURBO SLP242=

METAR CYYR 230400Z 27007KT 15SM SKC M17/M20 A3023 RMK DENSITY ALT -4277FT AURBO SLP243=

METAR CYYR 230300Z 27007KT 15SM SKC M16/M19 A3023 RMK DENSITY ALT -4165FT FROIN AURBO SLP242=

METAR CYYR 230200Z 26007KT 15SM SKC M16/M18 A3024 RMK DENSITY ALT -4176FT FROIN SLP246=

METAR CYYR 230100Z 28007KT 15SM SKC M18/M19 A3025 RMK DENSITY ALT -4410FT SLP249=

METAR CYYR 230000Z 34003KT 15SM SKC M15/M17 A3025 RMK DENSITY ALT -3994FT SLP249=

METAR CYYR 222300Z 35003KT 15SM SKC M15/M18 A3026 RMK DENSITY ALT -4074FT SLP251=

METAR CYYR 222200Z 15002KT 15SM SKC M12/M16 A3025 RMK DENSITY ALT -3638FT SLP250=

METAR CYYR 222100Z 12005KT 15SM FEW030 M08/M15 A3024 RMK SC1 DENSITY ALT -3088FT SLP244=

METAR CYYR 222000Z 12006KT 15SM FEW030 M07/M14 A3023 RMK SC1 DENSITY ALT -2890FT SLP242=

METAR CYYR 221900Z 35002KT 15SM FEW030 M03/M14 A3023 RMK SC1 DENSITY ALT -2394FT SLP242=

METAR CYYR 221800Z 00000KT 15SM FEW027 M03/M15 A3024 RMK SC1 DENSITY ALT -2406FT SLP245=

METAR CYYR 221700Z 33003KT 15SM FEW027 M03/M15 A3025 RMK SC2 DENSITY ALT -2430FT SLP248=

METAR CYYR 221600Z 32004KT 15SM BKN025 M05/M15 A3026 RMK SC6 DENSITY ALT -2624FT SLP251=

SPECI CYYR 221543Z 30004KT 15SM BKN023 M07/M15 A3027 RMK SC6 DENSITY ALT -3004FT SLP254=

METAR CYYR 221500Z 29003KT 15SM -SN BKN021 M09/M15 A3028 RMK SC7 DENSITY ALT -3267FT PCPN VRY LGT SLP259=

METAR CYYR 221400Z 32010KT 15SM -SN BKN021 M10/M15 A3029 RMK SC7 DENSITY ALT -3372FT SLP261=

METAR CYYR 221300Z 33010KT 15SM -SN BKN022 M11/M14 A3027 RMK SC7 DENSITY ALT -3442FT PCPN VRY LGT SLP257=

METAR CYYR 221200Z 33009KT 15SM -SN BKN023 M11/M14 A3026 RMK SC7 DENSITY ALT -3498FT PCPN VRY LGT SLP253=

METAR CYYR 221100Z 33012KT 15SM -SN OVC022 M11/M14 A3025 RMK SC8 DENSITY ALT -3445FT SLP248=

METAR CYYR 221000Z 32012KT 15SM -SN OVC023 M10/M14 A3025 RMK SC8 DENSITY ALT -3377FT SLP248=

METAR CYYR 220900Z 33013KT 15SM -SN OVC024 M10/M13 A3025 RMK SC8 DENSITY ALT -3309FT SLP247=

SPECI CYYR 220833Z 32011KT 15SM -SN OVC024 M10/M12 A3024 RMK SC8 DENSITY ALT -3256FT SLP245=

METAR CYYR 220800Z 32012KT 15SM -SN OVC026 M08/M12 A3024 RMK SC8 DENSITY ALT -3069FT SLP243=

SPECI CYYR 220737Z 35009KT 15SM -SN OVC026 M08/M12 A3023 RMK SC8 DENSITY ALT -3043FT SLP242=

METAR CYYR 220700Z 36008KT 12SM -SN OVC024 M08/M12 A3023 RMK SC8 DENSITY ALT -3003FT SLP240=

METAR CYYR 220600Z 36009KT 10SM -SN OVC023 M07/M11 A3022 RMK SC8 DENSITY ALT -2937FT SLP236=

METAR CYYR 220500Z 36007KT 12SM -SN OVC019 M07/M11 A3021 RMK SC8 DENSITY ALT -2911FT SLP234=

METAR CYYR 220400Z 36009G17KT 15SM -SN OVC020 M07/M11 A3020 RMK SC8 DENSITY ALT -2913FT SLP231=

SPECI CYYR 220339Z 01009KT 15SM -SN OVC020 M08/M10 A3020 RMK SC8 DENSITY ALT -2938FT SLP230=

SPECI CYYR 220319Z 36008KT 15SM -SN OVC027 M08/M11 A3020 RMK SC8 DENSITY ALT -3020FT SLP230=

METAR CYYR 220300Z 36007KT 15SM OVC027 M08/M11 A3020 RMK SC8 DENSITY ALT -3033FT SLP230=

METAR CYYR 220200Z 34003KT 15SM BKN029 M09/M11 A3020 RMK SC7 DENSITY ALT -3180FT SLP232=

METAR CYYR 220100Z 08002KT 15SM BKN032 M10/M12 A3020 RMK SC7 DENSITY ALT -3301FT SLP231=

METAR CYYR 220000Z 03005KT 15SM FEW025 FEW060 M08/M11 A3020 RMK SC2SC1 DENSITY ALT -2981FT SLP230=

METAR CYYR 212300Z 05007KT 15SM FEW025 FEW060 M07/M11 A3018 RMK SC1SC1 DENSITY ALT -2890FT SLP224=

METAR CYYR 212200Z 02004KT 15SM FEW025 SCT035 SCT060 M06/M09 A3017 RMK SC1SC2SC1 DENSITY ALT -2648FT SLP221=

METAR CYYR 212100Z 30014G22KT 15SM DRSN FEW020 FEW032 BKN060 BKN250 M04/M08 A3015 RMK SC1SC2SC4CI1 DENSITY ALT -2428FT SLP213=

METAR CYYR 212000Z 34017G25KT 15SM DRSN FEW023 FEW027 BKN065 BKN250 M03/M07 A3011 RMK SC1SC2SC3CI1 DENSITY ALT -2248FT SH DIST SE QUAD SLP198=

METAR CYYR 211900Z 35017G28KT 15SM DRSN FEW027 BKN060 BKN250 M02/M07 A3008 RMK SC1SC6CI1 DENSITY ALT -2109FT SLP188=

METAR CYYR 211800Z 35022G29KT 15SM DRSN FEW020 SCT035 BKN065 M02/M07 A3005 RMK SC1SC2SC3 DENSITY ALT -1983FT SH DIST SE QUAD SLP180=

METAR CYYR 211700Z 35020G29KT 15SM DRSN FEW020 BKN035 BKN065 M02/M06 A3003 RMK SC1SC4SC2 DENSITY ALT -1971FT SH DIST SE QUAD SLP174=

METAR CYYR 211600Z 35020G31KT 15SM -SN DRSN FEW020 BKN030 BKN065 M02/M06 A3002 RMK SC1SC5SC1 DENSITY ALT -1931FT SLP169=

METAR CYYR 211500Z 35020G28KT 15SM -SN DRSN FEW026 BKN031 BKN065 M02/M06 A3000 RMK SC1SC5SC1 DENSITY ALT -1934FT SLP164=

METAR CYYR 211400Z 36014G27KT 15SM -SN DRSN FEW026 BKN034 OVC060 M02/M06 A2999 RMK SC1SC5SC2 DENSITY ALT -1999FT VIS LWR SE QUAD SLP160=

METAR CYYR 211300Z 35016G26KT 12SM -SN DRSN FEW021 BKN042 OVC060 M03/M06 A2997 RMK SC1SC4SC3 DENSITY ALT -2055FT SLP154=

SPECI CYYR 211231Z 34015G21KT 15SM -SN DRSN FEW022 BKN033 OVC050 M03/M06 A2997 RMK SC1SC4SC3 DENSITY ALT -2094FT SLP152=

METAR CYYR 211200Z 34017G27KT 15SM DRSN FEW024 SCT035 OVC060 M04/M06 A2996 RMK SC1SC2SC5 DENSITY ALT -2109FT SH DIST SE QUAD SLP149=

METAR CYYR 211100Z 34020G29KT 15SM DRSN FEW020 SCT026 OVC050 M04/M06 A2994 RMK SC1SC3SC4 DENSITY ALT -2112FT SLP143=

METAR CYYR 211000Z 35016G23KT 15SM DRSN SCT030 OVC060 M04/M07 A2993 RMK SC3SC5 DENSITY ALT -2128FT SLP138=

METAR CYYR 210900Z 35015G20KT 15SM DRSN FEW012 SCT022 OVC055 M04/M06 A2991 RMK SF1SC3SC5 DENSITY ALT -2117FT SLP133=

SPECI CYYR 210842Z 34017G27KT 15SM DRSN FEW012 FEW030 OVC055 M04/M07 A2991 RMK SF1SC2SC6 DENSITY ALT -2143FT SLP131=

METAR CYYR 210800Z 34016G23KT 15SM -SN DRSN FEW012 FEW025 OVC050 M04/M06 A2990 RMK SF1SC2SC6 DENSITY ALT -2144FT SLP130=

METAR CYYR 210700Z 34017G23KT 15SM -SN DRSN FEW030 BKN050 OVC070 M05/M07 A2989 RMK SC1SC6AC1 DENSITY ALT -2200FT SLP125=

METAR CYYR 210600Z 34018G26KT 15SM -SN DRSN SCT025 OVC050 M05/M07 A2988 RMK SC3SC5 DENSITY ALT -2242FT SLP121=

METAR CYYR 210500Z 35012G18KT 15SM -SN DRSN FEW003 BKN025 OVC043 M05/M08 A2987 RMK SF1SC5SC2 DENSITY ALT -2232FT SLP118=

SPECI CYYR 210446Z 35013G21KT 15SM -SN DRSN FEW003 BKN025 OVC044 M05/M08 A2986 RMK SF1SC6SC1 DENSITY ALT -2220FT SLP117=

SPECI CYYR 210426Z 36010KT 10SM -SN SCT003 OVC023 M06/M07 A2987 RMK SF3SC5 DENSITY ALT -2282FT SLP121=

SPECI CYYR 210419Z 35010KT 3SM -SN BKN003 OVC020 M06/M07 A2987 RMK SF5SC3 DENSITY ALT -2294FT SLP120=

METAR CYYR 210400Z 36010KT 1SM -SN VV003 M06/M07 A2987 RMK SN8 DENSITY ALT -2268FT /S01/ SLP121=

SPECI CYYR 210351Z 01010KT 1SM -SN VV003 M06/M07 A2987 RMK SN8 DENSITY ALT -2269FT SLP120=

SPECI CYYR 210341Z 36010KT 1SM -SN DRSN OVC020 M05/M07 A2986 RMK SN3SC5 DENSITY ALT -2245FT SLP118=

SPECI CYYR 210330Z 36007KT 2SM -SN DRSN BKN019 OVC025 M05/M07 A2986 RMK SC7SC1 DENSITY ALT -2232FT SLP117=

SPECI CYYR 210313Z 35009G17KT 6SM -SN DRSN BKN018 OVC025 M05/M08 A2985 RMK SC6SC2 DENSITY ALT -2233FT SLP114=

METAR CYYR 210300Z 35008KT 8SM -SN DRSN FEW019 BKN025 OVC042 M05/M07 A2985 RMK SC2SC4SC2 DENSITY ALT -2220FT SLP113=

SPECI CYYR 210246Z 35010KT 10SM -SN DRSN BKN025 OVC040 M05/M07 A2985 RMK SC6SC2 DENSITY ALT -2220FT SLP112=

METAR CYYR 210200Z 35013G21KT 12SM -SN SCT019 OVC024 M05/M07 A2984 RMK SC3SC5 DENSITY ALT -2195FT SLP110=

METAR CYYR 210100Z 35010KT 12SM -SN OVC019 M06/M07 A2983 RMK SC8 DENSITY ALT -2262FT SLP107=

SPECI CYYR 210046Z 34006KT 10SM -SN OVC019 M06/M07 A2983 RMK SC8 DENSITY ALT -2327FT SLP106=

METAR CYYR 210000Z 27004KT 4SM -SN OVC020 M08/M09 A2982 RMK SC8 DENSITY ALT -2598FT SLP103=

METAR CYYR 202300Z 21003KT 3SM -SN FEW007 OVC023 M09/M10 A2982 RMK SF1SC8 DENSITY ALT -2666FT SLP102=

METAR CYYR 202200Z 22005KT 3SM -SN FEW007 OVC020 M09/M10 A2981 RMK SF1SC7 DENSITY ALT -2669FT /S02/ SLP099=

METAR CYYR 202100Z 25004KT 3SM -SN OVC022 M09/M11 A2980 RMK SC8 DENSITY ALT -2619FT SLP096=

SPECI CYYR 202051Z 26005KT 3SM -SN OVC022 M09/M11 A2980 RMK SC8 DENSITY ALT -2619FT SLP096=

METAR CYYR 202000Z 28004KT 8SM -SN FEW010 OVC020 M09/M11 A2980 RMK SF1SC7 DENSITY ALT -2592FT /S01/ VIS HYR NW QUAD SLP095=

SPECI CYYR 201951Z 31005KT 8SM -SN FEW010 OVC021 M09/M11 A2980 RMK SF2SC6 DENSITY ALT -2619FT SLP095=

SPECI CYYR 201941Z 32006KT 2 1/2SM -SN SCT010 OVC026 M09/M11 A2979 RMK SF3SC5 DENSITY ALT -2621FT VIS N QUAD 15 SLP094=

METAR CYYR 201900Z 31008KT 1SM -SN SCT010 OVC018 M09/M11 A2980 RMK SF3SC5 DENSITY ALT -2634FT SLP095=

SPECI CYYR 201853Z 31008KT 1 1/4SM -SN SCT010 OVC019 M09/M11 A2980 RMK SF3SC5 DENSITY ALT -2620FT SLP095=

SPECI CYYR 201812Z 31006KT 3/4SM -SN OVC020 M09/M12 A2980 RMK SN7SC1 DENSITY ALT -2636FT SLP095=

METAR CYYR 201800Z 31008KT 1 1/2SM -SN OVC020 M09/M12 A2980 RMK SN6SC2 DENSITY ALT -2663FT /S03/ SLP095=

SPECI CYYR 201724Z 31006KT 1 1/2SM -SN OVC021 M10/M13 A2980 RMK SN4SC4 DENSITY ALT -2757FT SLP097=

METAR CYYR 201700Z 31009KT 1SM -SN OVC017 M10/M13 A2981 RMK SN6SC2 DENSITY ALT -2850FT SLP098=

SPECI CYYR 201638Z 32008KT 1SM -SN OVC018 M10/M14 A2981 RMK SN6SC2 DENSITY ALT -2851FT SLP099=

SPECI CYYR 201615Z 32009KT 3/4SM -SN OVC018 M10/M14 A2981 RMK SN6SC2 DENSITY ALT -2851FT SLP101=

METAR CYYR 201600Z 32008KT 1SM -SN OVC018 M11/M14 A2982 RMK SN4SC4 DENSITY ALT -2890FT /S02/ SLP103=

SPECI CYYR 201513Z 30008KT 1SM -SN FEW004 OVC018 M11/M14 A2984 RMK SF2SC6 DENSITY ALT -3008FT SLP108=

METAR CYYR 201500Z 31009KT 2SM -SN OVC018 M11/M15 A2984 RMK SC8 DENSITY ALT -3022FT SLP108=

METAR CYYR 201400Z 29007KT 2SM -SN BKN017 OVC025 M12/M15 A2985 RMK SC5SC3 DENSITY ALT -3115FT SLP113=

SPECI CYYR 201348Z 30007KT 2SM -SN BKN017 OVC025 M12/M15 A2985 RMK SC5SC3 DENSITY ALT -3156FT SLP114=

SPECI CYYR 201324Z 29006KT 2 1/2SM -SN BKN029 OVC039 M13/M16 A2986 RMK SC5SC3 DENSITY ALT -3236FT SLP116=

METAR CYYR 201300Z 29006KT 8SM -SN SCT021 BKN039 M13/M16 A2986 RMK SC3SC4 DENSITY ALT -3290FT SLP117=

SPECI CYYR 201252Z 28006KT 6SM -SN SCT021 BKN039 M13/M16 A2986 RMK SC3SC4 DENSITY ALT -3317FT SLP117=

SPECI CYYR 201227Z 29006KT 3SM -SN FEW006 SCT021 BKN037 M14/M16 A2986 RMK SF2SC2SC3 DENSITY ALT -3345FT SLP117=

METAR CYYR 201200Z 28008KT 2SM -SN FEW007 BKN020 M14/M16 A2986 RMK SF2SC5 DENSITY ALT -3372FT SLP117=

SPECI CYYR 201141Z 28007KT 2SM -SN SCT007 OVC021 M14/M15 A2986 RMK SF3SC5 DENSITY ALT -3371FT SLP117=

METAR CYYR 201100Z 28006KT 5SM -SN SCT006 BKN018 OVC031 M14/M15 A2986 RMK SF3SC4SC1 DENSITY ALT -3398FT SLP116=

SPECI CYYR 201011Z 28006KT 240V300 6SM -SN FEW009 BKN018 OVC027 M14/M16 A2986 RMK SF1SC6SC2 DENSITY ALT -3357FT SLP115=

METAR CYYR 201000Z 27007KT 2 1/2SM -SN FEW009 BKN019 OVC027 M14/M16 A2985 RMK SF1SC6SC2 DENSITY ALT -3346FT /S01/ SLP114=

SPECI CYYR 200942Z 28007KT 4SM -SN FEW009 OVC021 M13/M15 A2986 RMK SF1SC7 DENSITY ALT -3330FT SLP115=

METAR CYYR 200900Z 28006KT 4SM -SN FEW009 BKN013 BKN018 OVC035 M13/M15 A2985 RMK SF1SF5SC1SC1 DENSITY ALT -3277FT SLP111=

SPECI CYYR 200848Z 28007KT 4SM -SN FEW009 BKN015 OVC035 M13/M15 A2984 RMK SF1SC5SC2 DENSITY ALT -3251FT SLP110=

SPECI CYYR 200824Z 28008KT 7SM -SN OVC013 M13/M15 A2984 RMK SF8 DENSITY ALT -3224FT SLP109=

METAR CYYR 200800Z 27005KT 4SM -SN SCT009 OVC013 M13/M14 A2984 RMK SF3SF5 DENSITY ALT -3183FT SLP108=

SPECI CYYR 200724Z 26007KT 8SM -SN FEW011 OVC017 M12/M14 A2983 RMK SF2SC6 DENSITY ALT -3117FT SLP105=

METAR CYYR 200700Z 27007KT 4SM -SN FEW010 BKN017 BKN022 M12/M14 A2983 RMK SF1SC4SC2 DENSITY ALT -3089FT SLP104=

SPECI CYYR 200643Z 26006KT 3SM -SN FEW011 OVC019 M12/M13 A2982 RMK SF2SC6 DENSITY ALT -3049FT SLP103=

SPECI CYYR 200625Z 26007KT 2 1/2SM -SHSN FEW008 BKN011 OVC016 M11/M13 A2982 RMK SF2SF5SC1 DENSITY ALT -2995FT SLP102=

METAR CYYR 200600Z 27006KT 230V290 2 1/2SM -SHSN BKN009 OVC016 M11/M13 A2982 RMK SF6SC2 DENSITY ALT -2940FT /S01/ SLP101=

SPECI CYYR 200543Z 26004KT 2 1/2SM -SHSN OVC009 M11/M13 A2981 RMK SF8 DENSITY ALT -2916FT SLP100=

METAR CYYR 200500Z 25007KT 5SM -SHSN FEW009 OVC021 M10/M12 A2981 RMK SF1SC8 DENSITY ALT -2861FT SLP099=

METAR CYYR 200400Z 26008KT 8SM -SHSN FEW009 FEW013 SCT019 BKN027 M10/M12 A2981 RMK SF1SF1SC2SC4 DENSITY ALT -2753FT SLP098=

SPECI CYYR 200316Z 26007KT 8SM -SHSN FEW008 OVC022 M09/M11 A2981 RMK SF1SC8 DENSITY ALT -2672FT SLP097=

METAR CYYR 200300Z 26008KT 5SM -SHSN FEW008 FEW018 OVC029 M09/M10 A2981 RMK SF1SC2SC6 DENSITY ALT -2603FT SLP097=

SPECI CYYR 200239Z 26010KT 2 1/2SM -SHSN FEW011 OVC022 M08/M10 A2980 RMK SF1SC8 DENSITY ALT -2511FT SLP096=

SPECI CYYR 200232Z 26009KT 4SM -SHSN FEW011 BKN022 OVC032 M08/M10 A2980 RMK SF1SC6SC2 DENSITY ALT -2471FT SLP095=

METAR CYYR 200200Z 28010KT 7SM -SHSN FEW011 FEW023 OVC032 M07/M08 A2980 RMK SF1SC2SC6 DENSITY ALT -2321FT SLP094=

SPECI CYYR 200152Z 28008KT 7SM -SHSN FEW011 FEW024 OVC032 M07/M08 A2979 RMK SF1SC2SC6 DENSITY ALT -2309FT SLP093=

SPECI CYYR 200109Z 31009KT 3SM -SHSN FEW011 FEW024 BKN031 OVC038 M06/M08 A2979 RMK SF1SC2SC5SC1 DENSITY ALT -2216FT SLP092=

METAR CYYR 200100Z 30007KT 2 1/2SM -SHSN FEW011 BKN023 OVC032 M06/M07 A2979 RMK SF1SC5SC3 DENSITY ALT -2188FT SLP092=

SPECI CYYR 200015Z 30006KT 3SM -SHSN FEW011 BKN019 OVC026 M05/M06 A2978 RMK SF2SC5SC1 DENSITY ALT -2094FT SLP089=

METAR CYYR 200000Z 30005KT 4SM -SHSN FEW012 OVC032 M05/M06 A2978 RMK SF1SC7 DENSITY ALT -2079FT SLP089=

SPECI CYYR 192336Z 27003KT 2 1/2SM -SHSN FEW018 BKN026 OVC031 M05/M06 A2978 RMK SC1SC5SC2 DENSITY ALT -2067FT SLP088=

SPECI CYYR 192323Z 28004KT 4SM -SHSN FEW027 BKN033 OVC039 M05/M06 A2978 RMK SC2SC5SC1 DENSITY ALT -2066FT SLP089=

SPECI CYYR 192312Z 28003KT 7SM -SHSN FEW026 BKN033 OVC039 M05/M06 A2978 RMK SC1SC7SC1 DENSITY ALT -2067FT SLP088=

METAR CYYR 192300Z 28004KT 4SM -SHSN FEW024 OVC033 M05/M06 A2978 RMK SC1SC8 DENSITY ALT -2067FT SLP087=

SPECI CYYR 192214Z 27004KT 5SM -SHSN FEW024 OVC034 M05/M06 A2978 RMK SC1SC8 DENSITY ALT -2043FT SLP088=

METAR CYYR 192200Z 29003KT 10SM -SHSN SCT035 OVC065 M05/M07 A2978 RMK SC4SC4 DENSITY ALT -2031FT VIS LWR W SLP087=

METAR CYYR 192100Z 27005KT 10SM -SHSN SCT030 BKN240 M03/M06 A2977 RMK SC4CI3 DENSITY ALT -1850FT VIS LWR W SLP084=

SPECI CYYR 192038Z 31006KT 8SM -SHSN OVC030 M03/M07 A2976 RMK SC8 DENSITY ALT -1776FT VIS LWR W SLP082=

SPECI CYYR 192023Z 26004KT 3SM -SHSN OVC028 M02/M06 A2976 RMK SC8 DENSITY ALT -1708FT VIS N 12 SLP082=

METAR CYYR 192000Z 28004KT 6SM -SHSN OVC032 M02/M07 A2976 RMK SC8 DENSITY ALT -1648FT VIS LWR SW QUAD SLP080=

SPECI CYYR 191950Z 32006KT 6SM -SHSN OVC032 M02/M08 A2975 RMK SC8 DENSITY ALT -1665FT VIS LWR SW QUAD SLP079=

METAR CYYR 191900Z 32008KT 3SM -SHSN OVC032 M02/M08 A2975 RMK SC8 DENSITY ALT -1665FT VIS NW-N 12 SLP078=

SPECI CYYR 191851Z 32009KT 3SM -SHSN OVC031 M02/M08 A2975 RMK SC8 DENSITY ALT -1639FT VIS N 12 SLP078=

METAR CYYR 191800Z 33005KT 12SM -SHSN BKN030 OVC040 M01/M09 A2975 RMK SC5SC3 DENSITY ALT -1566FT SLP077=

METAR CYYR 191700Z 34005KT 12SM -SHSN BKN030 OVC040 M02/M09 A2975 RMK SC6SC2 DENSITY ALT -1629FT SLP078=

METAR CYYR 191600Z 33006KT 12SM -SHSN BKN025 OVC040 M02/M07 A2976 RMK SC7SC1 DENSITY ALT -1636FT VIS LWR SW SLP083=

SPECI CYYR 191525Z 31006KT 6SM -SHSN OVC030 M02/M07 A2977 RMK SC8 DENSITY ALT -1686FT VIS HYR N SLP086=

METAR CYYR 191500Z 29003KT 3SM -SHSN OVC035 M02/M07 A2978 RMK SC8 DENSITY ALT -1699FT VIS HYR N SLP088=

SPECI CYYR 191447Z 25004KT 3SM -SHSN OVC035 M02/M08 A2978 RMK SC8 DENSITY ALT -1738FT VIS N 12 SLP088=

SPECI CYYR 191434Z 27005KT 8SM -SHSN FEW020 OVC035 M02/M08 A2978 RMK SC2SC6 DENSITY ALT -1765FT VIS LWR SW QUAD SLP089=

SPECI CYYR 191413Z 30005KT 4SM -SHSN FEW020 OVC038 M03/M08 A2978 RMK SC2SC6 DENSITY ALT -1804FT SLP090=

METAR CYYR 191400Z 29005KT 12SM -SHSN FEW020 OVC036 M03/M09 A2978 RMK SC2SC6 DENSITY ALT -1845FT SLP090=

METAR CYYR 191300Z 22004KT 15SM -SHSN OVC036 M05/M08 A2979 RMK SC8 DENSITY ALT -2075FT SLP093=

SPECI CYYR 191256Z 22004KT 15SM -SHSN OVC036 M05/M08 A2979 RMK SC8 DENSITY ALT -2075FT SLP093=

METAR CYYR 191200Z 03003KT 15SM OVC036 M05/M09 A2979 RMK SC8 DENSITY ALT -2168FT SLP093=

SPECI CYYR 191131Z 28005KT 15SM OVC037 M05/M09 A2978 RMK SC8 DENSITY ALT -2156FT SH DIST SW SLP090=

METAR CYYR 191100Z 29006KT 15SM -SHSN OVC037 M06/M09 A2978 RMK SC8 DENSITY ALT -2170FT PCPN VRY LGT SLP089=

METAR CYYR 191000Z 28005KT 15SM -SHSN OVC036 M06/M08 A2978 RMK SC8 DENSITY ALT -2220FT SLP090=

METAR CYYR 190900Z 30006KT 15SM -SHSN OVC036 M06/M09 A2978 RMK SC8 DENSITY ALT -2169FT SLP090=

METAR CYYR 190800Z 31006KT 15SM -SHSN OVC033 M06/M09 A2979 RMK SC8 DENSITY ALT -2181FT SLP091=

METAR CYYR 190700Z 31006KT 15SM -SHSN OVC032 M06/M09 A2979 RMK SC8 DENSITY ALT -2181FT SLP092=

SPECI CYYR 190644Z 31004KT 15SM -SHSN OVC032 M06/M09 A2979 RMK SC8 DENSITY ALT -2195FT SLP092=

METAR CYYR 190600Z 32004KT 15SM OVC033 M06/M10 A2979 RMK SC8 DENSITY ALT -2196FT SLP092=

SPECI CYYR 190539Z 35005KT 15SM OVC034 M06/M09 A2979 RMK SC8 DENSITY ALT -2195FT SLP092=

METAR CYYR 190500Z 35005KT 15SM -SHSN OVC035 M05/M09 A2978 RMK SC8 DENSITY ALT -2156FT SLP090=

METAR CYYR 190400Z 34004KT 15SM -SHSN BKN034 M05/M07 A2979 RMK SC7 DENSITY ALT -2150FT SLP091=

METAR CYYR 190300Z 01004KT 15SM -SHSN FEW025 OVC032 M05/M07 A2980 RMK SC2SC6 DENSITY ALT -2108FT SLP095=

METAR CYYR 190200Z 02004KT 15SM -SHSN OVC034 M05/M08 A2981 RMK SC8 DENSITY ALT -2097FT SLP099=

METAR CYYR 190100Z 03006KT 15SM -SHSN OVC034 M04/M08 A2982 RMK SC8 DENSITY ALT -2069FT SLP101=

METAR CYYR 190000Z 04005KT 15SM -SHSN OVC032 M04/M07 A2982 RMK SC8 DENSITY ALT -2055FT SLP101=

SPECI CYYR 182349Z 04005KT 15SM -SHSN OVC032 M04/M07 A2982 RMK SC8 DENSITY ALT -2055FT SLP102=

METAR CYYR 182300Z 03005KT 15SM OVC032 M04/M07 A2982 RMK SC8 DENSITY ALT -2040FT SLP103=

METAR CYYR 182200Z 04005KT 15SM OVC035 M04/M08 A2982 RMK SC8 DENSITY ALT -2003FT SLP101=

METAR CYYR 182100Z 04005KT 15SM OVC032 M03/M08 A2981 RMK SC8 DENSITY ALT -1927FT SLP099=

METAR CYYR 182000Z 04007KT 15SM FEW020 BKN030 OVC055 M03/M08 A2981 RMK SC1SC7SC1 DENSITY ALT -1850FT VIRGA SLP098=

SPECI CYYR 181930Z 05007KT 15SM BKN031 OVC060 M03/M07 A2981 RMK SC7SC1 DENSITY ALT -1810FT VIRGA SLP098=

METAR CYYR 181900Z 05008KT 15SM -SN OVC031 M02/M08 A2981 RMK SC8 DENSITY ALT -1772FT SLP098=

METAR CYYR 181800Z 04007KT 15SM -SN BKN032 OVC050 M02/M07 A2981 RMK SC7SC1 DENSITY ALT -1758FT SLP100=

METAR CYYR 181700Z 03007KT 15SM -SN OVC025 M02/M07 A2983 RMK SC8 DENSITY ALT -1807FT SLP104=

METAR CYYR 181600Z 04007KT 15SM -SN FEW018 BKN032 OVC050 M02/M07 A2984 RMK SC2SC5SC1 DENSITY ALT -1768FT SLP108=

METAR CYYR 181500Z 00000KT 12SM -SN SCT032 BKN055 M01/M08 A2986 RMK SC3SC4 DENSITY ALT -1626FT SLP114=

METAR CYYR 181400Z 00000KT 15SM -SN FEW015 BKN030 BKN055 M02/M08 A2987 RMK SC1SC5SC2 DENSITY ALT -1856FT SLP119=

METAR CYYR 181300Z 18002KT 15SM -SN FEW010 SCT026 BKN055 BKN110 M05/M08 A2988 RMK SF1SC4SC1AC2 DENSITY ALT -2245FT SLP123=

SPECI CYYR 181215Z 16004KT 15SM -SN SCT020 BKN050 BKN100 M04/M08 A2989 RMK SC4SC2AC1 DENSITY ALT -2152FT SLP124=

METAR CYYR 181200Z 18005KT 15SM -SN FEW010 BKN019 BKN100 M05/M08 A2988 RMK SF1SC6AC1 DENSITY ALT -2218FT SLP123=

METAR CYYR 181100Z 15003KT 15SM -SN FEW010 BKN021 BKN100 M06/M08 A2988 RMK SF1SC5AC2 DENSITY ALT -2281FT SLP123=

SPECI CYYR 181027Z 15004KT 15SM -SN OVC023 M05/M07 A2989 RMK SC8 DENSITY ALT -2227FT SLP125=

METAR CYYR 181000Z 16004KT 15SM -SN OVC026 M05/M07 A2989 RMK SC8 DENSITY ALT -2239FT SLP125=

METAR CYYR 180900Z 19006KT 12SM -SN FEW021 OVC028 M05/M07 A2990 RMK SC2SC6 DENSITY ALT -2210FT /S01/ SLP128=

METAR CYYR 180800Z 16005KT 10SM -SN FEW015 OVC025 M05/M06 A2990 RMK SC1SC8 DENSITY ALT -2208FT SLP130=

SPECI CYYR 180734Z 15005KT 7SM -SN FEW025 OVC033 M05/M06 A2991 RMK SC2SC6 DENSITY ALT -2205FT SLP131=

METAR CYYR 180700Z 13003KT 4SM -SN FEW015 OVC025 M05/M05 A2991 RMK SC2SC6 DENSITY ALT -2203FT SLP132=

SPECI CYYR 180638Z 18002KT 2SM -SHSN FEW015 BKN027 OVC055 M05/M05 A2991 RMK SC1SC7SC1 DENSITY ALT -2191FT SLP133=

METAR CYYR 180600Z 24003KT 3SM -SHSN FEW015 BKN034 OVC055 M04/M05 A2991 RMK SC1SC6SC1 DENSITY ALT -2138FT SLP133=

SPECI CYYR 180551Z 26002KT 2 1/2SM -SHSN FEW019 OVC035 M04/M05 A2992 RMK SC2SC6 DENSITY ALT -2137FT SLP134=

SPECI CYYR 180534Z 27002KT 4SM -SHSN FEW018 BKN036 OVC060 M04/M05 A2992 RMK SC1SC6SC1 DENSITY ALT -2112FT SLP135=

METAR CYYR 180500Z 17004KT 12SM -SHSN FEW018 BKN035 OVC070 M04/M06 A2993 RMK SC1SC6AC1 DENSITY ALT -2098FT SLP138=

SPECI CYYR 180453Z 15004KT 15SM -SHSN FEW018 OVC035 M03/M05 A2993 RMK SC1SC7 DENSITY ALT -2045FT SLP139=

METAR CYYR 180400Z 22005KT 15SM FEW018 OVC034 M04/M06 A2994 RMK SC1SC7 DENSITY ALT -2124FT SLP143=

SPECI CYYR 180333Z 23003KT 15SM FEW018 OVC034 M04/M06 A2995 RMK SC1SC7 DENSITY ALT -2097FT SLP144=

METAR CYYR 180300Z 23005KT 15SM -SHSN OVC034 M04/M06 A2995 RMK SC8 DENSITY ALT -2097FT SLP146=

METAR CYYR 180200Z 29005KT 12SM -SHSN OVC035 M03/M06 A2995 RMK SC8 DENSITY ALT -2033FT SLP147=

SPECI CYYR 180157Z CCA 27005KT 12SM -SHSN OVC036 M03/M06 A2995 RMK SC8 DENSITY ALT -2033FT SLP147=

METAR CYYR 180100Z 23003KT 15SM OVC038 M03/M06 A2996 RMK SC8 DENSITY ALT -2097FT SLP150=

METAR CYYR 180000Z 02004KT 15SM BKN042 M03/M07 A2997 RMK SC7 DENSITY ALT -2045FT SLP151=

METAR CYYR 172300Z 05005KT 15SM BKN048 M03/M06 A2998 RMK SC7 DENSITY ALT -2081FT SLP155=

METAR CYYR 172200Z 36004KT 15SM BKN046 M02/M07 A2999 RMK SC7 DENSITY ALT -1965FT SLP160=

METAR CYYR 172100Z 00000KT 15SM FEW020 BKN043 M01/M06 A2999 RMK SC1SC7 DENSITY ALT -1772FT SLP159=

METAR CYYR 172000Z 15002KT 15SM BKN041 01/M07 A2999 RMK SC7 DENSITY ALT -1584FT SLP160=

METAR CYYR 171900Z 19007KT 15SM BKN040 01/M07 A3000 RMK SC7 DENSITY ALT -1597FT SLP164=

METAR CYYR 171800Z 20010KT 15SM BKN038 00/M08 A3002 RMK SC7 DENSITY ALT -1711FT SH DIST N SLP169=

SPECI CYYR 171730Z 20011KT 15SM OVC040 00/M08 A3003 RMK SC8 DENSITY ALT -1696FT SLP173=

METAR CYYR 171700Z 16007KT 15SM -SHSN OVC036 00/M06 A3004 RMK SC8 DENSITY ALT -1728FT SLP177=

SPECI CYYR 171628Z 16007KT 15SM -SHSN FEW025 OVC040 00/M07 A3006 RMK CF1SC8 DENSITY ALT -1752FT SLP182=

METAR CYYR 171600Z 18006KT 15SM FEW025 OVC043 00/M07 A3007 RMK CF1SC8 DENSITY ALT -1752FT SLP186=

SPECI CYYR 171535Z 16006KT 15SM OVC044 M00/M07 A3008 RMK SC8 DENSITY ALT -1801FT SLP190=

METAR CYYR 171500Z 17002KT 15SM -SHSN OVC042 M01/M06 A3010 RMK SC8 DENSITY ALT -1886FT SLP195=

METAR CYYR 171400Z 22004KT 15SM -SHSN BKN044 M02/M06 A3012 RMK SC7 DENSITY ALT -2126FT SLP203=

METAR CYYR 171300Z 21004KT 15SM -SHSN BKN045 M04/M06 A3012 RMK SC7 DENSITY ALT -2374FT VIS LWR NE QUAD SLP204=

METAR CYYR 171200Z 20005KT 15SM -SHSN OVC043 M06/M06 A3012 RMK SC8 DENSITY ALT -2555FT SLP205=

METAR CYYR 171100Z 20003KT 15SM -SHSN OVC045 M07/M08 A3012 RMK SC8 DENSITY ALT -2784FT SLP205=

METAR CYYR 171000Z 19002KT 12SM -SHSN OVC047 M07/M08 A3012 RMK SC8 DENSITY ALT -2770FT SLP205=

METAR CYYR 170900Z 00000KT 12SM -SHSN OVC047 M07/M08 A3013 RMK SC8 DENSITY ALT -2809FT SLP206=

METAR CYYR 170800Z 23003KT 12SM -SHSN FEW035 OVC048 M07/M08 A3013 RMK SC1SC8 DENSITY ALT -2810FT SLP206=

METAR CYYR 170700Z 28002KT 12SM -SHSN FEW030 OVC048 M07/M08 A3013 RMK SC1SC8 DENSITY ALT -2783FT SLP208=

SPECI CYYR 170611Z 31003KT 8SM -SHSN FEW030 OVC050 M07/M08 A3014 RMK SC1SC8 DENSITY ALT -2795FT SLP209=

SPECI CYYR 170604Z 00000KT 4SM -SHSN OVC047 M07/M08 A3014 RMK SC8 DENSITY ALT -2810FT SLP209=

METAR CYYR 170600Z 00000KT 12SM -SHSN OVC048 M07/M08 A3014 RMK SC8 DENSITY ALT -2810FT VIS LWR W SLP209=

METAR CYYR 170500Z 06002KT 15SM -SHSN OVC047 M07/M08 A3015 RMK SC8 DENSITY ALT -2835FT SLP212=

SPECI CYYR 170442Z 00000KT 15SM -SHSN OVC047 M07/M08 A3015 RMK SC8 DENSITY ALT -2821FT SLP214=

METAR CYYR 170400Z 30002KT 15SM OVC046 M07/M08 A3016 RMK SC8 DENSITY ALT -2780FT SLP216=

METAR CYYR 170300Z 00000KT 15SM OVC046 M07/M09 A3016 RMK SC8 DENSITY ALT -2847FT SLP219=

METAR CYYR 170200Z 00000KT 15SM OVC047 M08/M09 A3017 RMK SC8 DENSITY ALT -2887FT SLP222=

SPECI CYYR 170127Z 23003KT 15SM BKN050 M07/M09 A3018 RMK SC7 DENSITY ALT -2872FT SLP225=

METAR CYYR 170100Z 00000KT 15SM -SHSN FEW020 BKN046 M06/M09 A3018 RMK SC1SC7 DENSITY ALT -2753FT SLP225=

SPECI CYYR 170022Z 27004KT 12SM -SHSN FEW020 BKN040 M06/M09 A3019 RMK SC2SC5 DENSITY ALT -2764FT SLP226=

METAR CYYR 170000Z 26002KT 15SM FEW030 BKN050 M07/M09 A3019 RMK SC1SC7 DENSITY ALT -2791FT SLP226=
